school_id,school_name,school_address,school_ratings,latitude,longitude,zipcode
1,Magellan International School,"7938 Great Northern Blvd, Austin, TX 78757",4.5,30.363261,-97.7421851,78757
2,Austin International School,"4001 Adelphi Ln, Austin, TX 78727",4.5,30.422421,-97.718074,78727
3,McCallum High School,"5600 Sunshine Dr, Austin, TX 78756",3.5,30.32624,-97.72982,78756
4,Gorzycki Middle School,"7412 W Slaughter Ln, Austin, TX 78749",4,30.21639803,-97.89374515,78749
5,International School of Texas,"4402 Hudson Bend, Austin, TX 78734",4.5,30.40458,-97.92768,78734
6,Austin Waldorf School,"8700 S View Rd, Austin, TX 78737",5,30.23038588,-97.912414,78737
7,The Magnolia School,"3500  RR 620 S, Bldg- G200, Bee Caves, TX 78738",5,30.32266586,-97.95769724,78738
8,Stephen F Austin High School,"1715 W Cesar Chavez St, Austin, TX 78703",3.5,30.27350672,-97.76657387,78703
9,St Francis School,"300 E Huntland Dr, Austin, TX 78752",5,30.33114672,-97.71007887,78752
10,St. Theresa's Catholic School,"4311 Small Dr, Austin, TX 78731",3,30.34321,-97.77483,78731
11,O Henry Middle School,"2610 W 10th St, Austin, TX 78703",3.5,30.28573691,-97.77380894,78703
12,Academy of Thought and Industry at Austin,"5815 Airport Blvd, Austin, TX 78752",5,30.32308,-97.71478,78752
13,Nyos Charter School,"12301 N Lamar Blvd, Austin, TX 78753",1.5,30.40186,-97.67791,78753
14,Paragon Prep School,"5206 Balcones Dr, Austin, TX 78731",5,30.335182,-97.760101,78731
15,Ecole Jean Jacques Rousseau,"11607 N Lamar Blvd, Austin, TX 78753",5,30.38526,-97.68423,78753
16,Bridge Point Elementary,"6401 Cedar St, Austin, TX 78746",5,30.33965255,-97.80588444,78746
17,Kirby Hall School,"306 W 29th St, Austin, TX 78705",5,30.29441826,-97.74062522,78705
18,Oak Hill Elementary School,"6101 Patton Ranch Rd, Austin, TX 78735",5,30.23811851,-97.85886979,78735
19,Hyde Park School,"11400 N Mopac Expy, Austin, TX 78759",3.5,30.408195,-97.729956,78759
20,St Stephens Episcopal School,"6500 St Stephen's Dr, Austin, TX 78746",4.5,30.33046,-97.819261,78746
21,Bailey Middle School,"4020 Lost Oasis Hollow, Austin, TX 78739",3,30.16487846,-97.87255421,78739
22,Lake Hills Montessori,"600 N Cuernavaca Dr, Austin, TX 78733",3.5,30.33098,-97.87004,78733
23,Earth Native Wilderness School,"137 Woodview Ln, Bastrop, TX 78602",5,30.09240896,-97.41608056,78602
24,ACE Academy,"3901 Shoal Creek Blvd, Austin, TX 78756",4,30.308005,-97.747071,78756
25,Hyde Park Montessori,"4108 Ave H, Austin, TX 78751",4.5,30.30357,-97.72821,78751
26,St Andrew's Episcopal School,"5901 Southwest Pkwy, Austin, TX 78735",3.5,30.247803,-97.849868,78735
27,"Copernicus STEM, Language and Arts Academy","4605 N IH35, Austin, TX 78722",5,30.30242419,-97.71414023,78722
28,Challenger School - Avery Ranch,"15101 Avery Ranch Blvd, Austin, TX 78717",3,30.49730435,-97.77268819,78717
29,Texas Education Advocacy,"1414 Preston Ave, Austin, TX 78703",5,30.2966758,-97.7527262,78703
30,Headwaters School,"807 Rio Grande St, Austin, TX 78701",3.5,30.27232091,-97.74831148,78701
31,Chinese With Meggie,"708 E 51st St, Austin, TX 78751",4.5,30.31311,-97.716863,78751
32,Emler Swim School of Austin-Westlake,"3267 Bee Caves Rd, Ste 145, Austin, TX 78746",4.5,30.273595,-97.801894,78746
33,Crenshaw Athletic Club,"5000 Fairview Dr, Austin, TX 78731",4.5,30.33164,-97.75949,78731
34,4Points Academy,"5145 RR 620 N, Ste G-130, Austin, TX 78732",5,30.38761259,-97.88557996,78732
35,Eden Park Academy,"6215 Manchaca Rd, Austin, TX 78745",4,30.20933746,-97.803132,78745
36,Liberal Arts and Science Academy,"7309 Lazy Creek Dr, Unit 225, Austin, TX 78724",5,30.31311613,-97.65662413,78724
37,More Than A Teacher,"3532 Bee Cave Rd, Ste 212, Austin, TX 78746",4,30.27799027,-97.804672,78746
38,KIPP Austin Public Schools,"8509 Fm 969, Bldg 513, Austin, TX 78724",2.5,30.27665,-97.63788,78724
39,Flamencura Music & Dance Studio,"8910 Research Blvd, Ste D3, Austin, TX 78758",5,30.368973,-97.72254,78758
40,LakeCreek Montessori International School,"10713 N Fm 620, Ste 601, Austin, TX 78726",5,30.4472735,-97.8306173,78726
41,Sankalpa Academy,"2215 E M Franklin Ave, Austin, TX 78723",5,30.28816,-97.69764,78723
42,Rawson Saunders School,"2614A Exposition Blvd, Austin, TX 78703",4,30.30237743,-97.7667478,78703
43,spilled milk social club,"3804 Cherrywood Rd, Austin, TX 78702",5,30.2914596,-97.7141933,78702
44,Parkside Community School,"3207 W Slaughter Ln, Austin, TX 78748",5,30.17926788,-97.84447479,78748
45,St. David's Day School,"301 E 8th St, Austin, TX 78701",4.5,30.26892,-97.73956,78701
46,BASIS Austin Primary,"1501 Dartmouth Ave Austin Tx 78757, Austin, TX 78757",4.5,30.348301,-97.72366883,78757
47,Love the Sat,"4412 Spicewood Springs Rd, Ste 705, Austin, TX 78759",5,30.3734526,-97.7577319,78759
48,Twin Oaks Montessori School,"7804 Northwest Dr, Austin, TX 78757",4.5,30.35082,-97.72183,78757
49,Huntington Learning Center,"13011 Shops Pkwy 300, Ste 300, Bee Cave, TX 78738",5,30.3070535,-97.9457362,78738
50,School on the Rise,"11797 Rim Rock Trl, Austin, TX 78737",5,30.20806,-97.96036,78737
51,Planting Seeds Academic Solutions,"Austin, TX 78723",4.5,30.30427487,-97.68569557,78723
52,Dub Academy,"906 E 5th St, Ste 109, Austin, TX 78702",4.5,30.2645298,-97.7335871,78702
53,All Austin Cooperative Nursery School,"2301 Hancock Dr, Austin, TX 78756",5,30.32421,-97.7431,78756
54,Roffler School of Hair Design,"5339 Burnet Rd, Austin, TX 78756",4,30.32698427,-97.73944376,78756
55,The University of Texas at Austin,"110 Inner Campus Dr, Austin, TX 78705",4.5,30.28611879,-97.73936451,78705
56,Austin Community College - Eastview Campus,"3401 Webberville Rd, Austin, TX 78702",4,30.26722105,-97.707829,78702
57,Stepping Stone School - Brodie/Circle C,"9405 Brodie Ln, Austin, TX 78748",3.5,30.18961796,-97.84500249,78748
58,Redeemer School,"1500 W Anderson Ln, Austin, TX 78757",4.5,30.352611,-97.7207743,78757
59,Southwestern University,"1001 E University Ave, Georgetown, TX 78626",4.5,30.63671893,-97.66258787,78626
60,Vandegrift High School,"9600 McNeil Dr, Austin, TX 78750",3.5,30.3982805,-97.8248104,78750
61,Austin Community College - Northridge Campus,"11928 Stonehollow Dr, Austin, TX 78758",2.5,30.403657,-97.704661,78758
62,Girlstart,"1400 W Anderson Ln, Austin, TX 78757",5,30.35126877,-97.71975708,78757
63,Capitol School of Austin,"2011 W Koenig Ln, Austin, TX 78756",4.5,30.33415,-97.73893,78756
64,Fulmore Middle School,"201 E Mary St, Austin, TX 78704",3.5,30.243927,-97.75046539,78704
65,Travis High School,"1211 E Oltorf St, Austin, TX 78704",4,30.232973,-97.744186,78704
66,Sterling Classical School,"12800 Angel Side Dr, Leander, TX 78641",3.5,30.519945,-97.90472,78641
67,Clint Small Middle School,"4801 Monterey Oaks Blvd, Austin, TX 78749",5,30.234029,-97.841645,78749
68,Strickland Christian School,"7415 Manchaca Rd, Austin, TX 78745",4,30.196192,-97.808749,78745
69,Access College America,"Austin, TX 78739",5,30.1859258,-97.90482,78739
70,Gus Garcia Middle School,"7414 Johnny Morris Rd, Austin, TX 78724",1.5,30.31132433,-97.64308333,78724
71,School In The Hills,"2900 N Quinlan Park Rd, Austin, TX 78732",4,30.369238,-97.893551,78732
72,Austin STEM Academy,"3701 Kerbey Ln, Austin, TX 78731",3.5,30.30754475,-97.75041729,78731
73,Lamar Middle School Choir,"6201 Wynona Ave, Austin, TX 78757",1.5,30.33759119,-97.74079619,78757
74,Aston International Academy,"5205 Airport Blvd, Ste 200, Austin, TX 78702",5,30.31346,-97.71479,78702
75,Ballet Arts of Austin,"2007 W Anderson Ln, Austin, TX 78757",4.5,30.35417038,-97.7278616,78757
76,Kids With Pens,"1211 Maple Ave, Austin, TX 78702",5,30.2752085,-97.715124,78702
77,Shepherd of the Hills Presbyterian Church Preschool,"5226 W William Cannon Dr, Austin, TX 78749",5,30.22499,-97.85299,78749
78,William's Community School,"5209 Duval Rd, Austin, TX 78727",5,30.41672286,-97.74167701,78727
79,Songbird Rising Suzuki School,"Austin, TX 78751",5,30.31082102,-97.72274383,78751
80,Studio Preparatory,"5925 Dillard Cir, Ste B, Austin, TX 78752",5,30.325373,-97.718093,78752
81,Smile Swim School,"Austin, TX 78746",5,30.27349,-97.80508,78746
82,"Life Ki-do Martial Arts, Parenting & Life Education","3636 Bee Caves Rd, Ste 212, Austin, TX 78746",5,30.2793732,-97.8058692,78746
83,Challenger School - Pond Springs,"13015 Pond Springs Rd, Austin, TX 78729",5,30.44108,-97.77288,78729
84,Joy Park Montessori Education,"13171 Pond Springs Rd, Austin, TX 78729",5,30.44506,-97.77729,78729
85,Wild Life Forest Preschool,"137 Woodview Ln, Bastrop, TX 78602",5,30.09257,-97.41629,78602
86,Rising Stars Preschool,"3307 El Salido Pkwy, Cedar Park, TX 78613",5,30.460596,-97.828462,78613
87,Regents School of Austin K-12,"3230 Travis Country Cir, Austin, TX 78735",4,30.25453419,-97.84535942,78735
88,Westlake Chinese Academy,"6800 Spanish Oaks Club Blvd, Austin, TX 78738",5,30.30443,-97.94824,78738
89,St. George's Episcopal School,"4301 N Ih 35, Austin, TX 78722",5,30.300362,-97.715483,78722
90,Champions Gymnastics and Cheer,"1314 Exposition Blvd, Austin, TX 78703",4.5,30.28931,-97.77303,78703
91,St John Neumann Preschool,"5455 Bee Cave Rd, Austin, TX 78746",3.5,30.29024315,-97.82378387,78746
92,Texas Health & Science University,"4005 Manchaca Rd, Main Campus, Austin, TX 78704",4.5,30.233133,-97.785194,78704
93,Austin School of Film,"2200 Tillery St, Austin, TX 78723",3,30.28577423,-97.70291901,78723
94,The Girls' School of Austin,"2007 McCall Rd, Austin, TX 78703",4,30.29282,-97.76352,78703
95,Monsoon Dance - Bollywood and Yoga,"8650 Spicewood Springs Rd, Ste 118, Austin, TX 78759",4.5,30.43212938,-97.77114861,78759
96,Camp Balcones Springs,"104 Balcones Springs Dr, Marble Falls, TX 78654",5,30.55772,-98.11611,78654
97,Clearview Sudbury School,"1507 Wilshire Blvd, Austin, TX 78722",5,30.29585,-97.7111,78722
98,St Edward's University,"3001 S Congress Ave, Austin, TX 78704",4.5,30.23157407,-97.75669828,78704
99,Hyde Park Baptist Schools,"3901 Speedway, Austin, TX 78751",4,30.30175883,-97.73217233,78751
100,Happy Swimmers USA,"Austin, TX 73301",5,30.21939087,-97.74754333,73301
101,SoccerZone South Austin,"9501 Menchaca Rd, Bldg 1, Austin, TX 78748",3.5,30.1766051,-97.8197144,78748
102,Cedar Ridge High School,"2801 Gattis School Rd, Round Rock, TX 78664",2,30.491704,-97.640633,78664
103,Wizard Academy,"16221 Crystal Hills Dr, Austin, TX 78737",5,30.14502,-97.966571,78737
104,UT CELTA Center,"110 Inner Campus Dr, MAI 7, Austin, TX 78705",5,30.28800113,-97.74324864,78705
105,Little Sunshine's Playhouse and Preschool of Lakeway,"1501 Lohmans Crossing Rd, Lakeway, TX 78734",5,30.35554067,-97.97793955,78734
106,Austin Discovery School,"9303 FM 969, Austin, TX 78724",3.5,30.26782854,-97.63492536,78724
107,AHB Community School,"4001 Speedway, Austin, TX 78751",4.5,30.3031802,-97.731615,78751
108,Trulove Montessori,"1406 N LP Blvd, Austin, TX 78756",5,30.324652,-97.736454,78756
109,Trillium Montessori,"9707 Anderson Mill Rd, Ste 350, Austin, TX 78750",4,30.447151,-97.794247,78750
110,Del Valle High School,"5201 Ross Rd, Del Valle, TX 78617",4.5,30.17892898,-97.61364232,78617
111,EMTS Academy,"1555 University Blvd, Room 401, Round Rock, TX 78665",3.5,30.5679886,-97.6551533,78665
112,St Dominic Savio Catholic High School,"9300 Neenah Ave, Austin, TX 78717",3.5,30.49000437,-97.75903084,78717
113,Austin Community College - South Austin Campus,"1820 W Stassney Ln, Austin, TX 78745",3,30.215514,-97.796003,78745
114,Children's Lighthouse of Cedar Park - Brushy Creek,"2501 Brushy Creek Rd, Cedar Park, TX 78613",4.5,30.507637,-97.7803878,78613
115,"Cook, Learn, Grow-a Kid's Cooking School","Main St, Austin, TX 78735",5,30.308522,-97.759935,78735
116,Mathnasium - North Austin,"10401 Anderson Mill Rd, Ste 109A, Austin, TX 78750",4,30.44640576,-97.80540168,78750
117,Kipp Austin Obras,"5107 I-35 S, Ste A, Austin, TX 78742",1,30.20265207,-97.75689519,78742
118,Happy Bunnies Child Care School,"7212 Oak Meadow Dr, Austin, TX 78736",5,30.23459,-97.87911,78736
119,Escuelita Del Alma,"3109 N I H 35, Austin, TX 78722",4,30.28960609,-97.71535492,78722
120,Creative Action,"1023 Springdale Blvd, Bldg 3, Austin, TX 78721",4.5,30.267079,-97.692381,78721
121,Huston-Tillotson University,"900 Chicon St, Austin, TX 78702",2.5,30.264553,-97.722321,78702
122,Synergy Dance Studio,"3425 Bee Caves Rd, Ste C1, Austin, TX 78746",4.5,30.276298,-97.803838,78746
123,CyberTex Institute of Technology,"6300 La Calma Dr, Ste 350, Austin, TX 78752",2,30.3242521,-97.7028115,78752
124,Primrose School of Cedar Park West,"2021 Little Elm Trl, Cedar Park, TX 78613",4.5,30.47898306,-97.83018351,78613
125,Round Rock Christian Academy,"301 N Lake Creek Dr, Round Rock, TX 78681",5,30.509232,-97.693745,78681
126,Chaparral Star Academy,"14046 Summit Dr, Austin, TX 78728",4,30.4379807,-97.6917725,78728
127,Cedar Park High School,"2150 Cypress Creek Rd, Cedar Park, TX 78613",3.5,30.473239,-97.843945,78613
128,St Martin's Lutheran Preschool,"606 W 15th St, Austin, TX 78701",5,30.27895,-97.74573,78701
129,Wayside Schools,"6405 S Ih 35, Austin, TX 78744",1,30.19162,-97.76734,78744
130,New Era Martial Arts,"10203 Old Manchace Rd, Ste B, Austin, TX 78748",5,30.172736,-97.830284,78748
131,Austin Jewish Academy,"7300 Hart Ln, Austin, TX 78731",5,30.358901,-97.758379,78731
132,"Los Amiguitos, Immersion, Nature and Community School","Austin, TX 78721",5,30.26886177,-97.68344116,78721
133,Central Texas Beauty College,"1400 N Mays St, Round Rock, TX 78664",4,30.5207765,-97.6849095,78664
134,School of Rock,"9600 I-35, Ste I-100, Austin, TX 78748",4,30.16055,-97.7908,78748
135,The University of Texas at Austin School of Law,"727 E Dean Keeton St, Austin, TX 78705",4,30.28892,-97.73049,78705
136,Casis Elementary School,"2710 Exposition Blvd, Austin, TX 78703",5,30.304369,-97.765049,78703
137,HOLA! Spanish Immersion Program,"11204 Fm 1826, Austin, TX 78737",5,30.19928845,-97.92128083,78737
138,South Congress KinderCare,"6434 S Congress Ave, Austin, TX 78745",4,30.195871,-97.77825875,78745
139,International Montessori - North Austin Campus,"11124 Jollyville Rd, Austin, TX 78759",4,30.40739,-97.74827,78759
140,Long-View Micro School,"1201 W 24th St, Ste 200, Austin, TX 78705",5,30.2881,-97.75075,78705
141,Next Gen Mu Sool,"2110 W Slaughter Ln, Ste 145, Austin, TX 78748",5,30.17588139,-97.82631764,78748
142,Saida's Little People,"5006 Crestmont Dr, Austin, TX 78756",4,30.32317543,-97.74201965,78756
143,Live The Language - Live In French,"Austin, TX 78737",5,30.17820168,-97.95783997,78737
144,Central Market Cooking School - Austin North Lamar,"4001 N Lamar, Austin, TX 78756",4.5,30.307617,-97.739876,78756
145,Primrose School of Shady Hollow,"12341 Brodie Ln, Austin, TX 78748",5,30.149006,-97.854439,78748
146,Extend-A-Care For Kids,"1510 Bebee Rd, Kyle, TX 78640",5,30.01507,-97.83843,78640
147,Dripping Springs Christian Academy,"800 W Hwy 290, Bldg C, Ste 100, Dripping Springs, TX 78620",5,30.193781,-98.099614,78620
148,Wonder Years,"4804 Grover Ave, Austin, TX 78756",4,30.31842,-97.73751,78756
149,Abacus School of Austin,"1720 S Bagdad Rd, Leander, TX 78641",4.5,30.5530089,-97.8569283,78641
150,St Gabriel's Catholic School,"2500 Wimberly Ln, Austin, TX 78735",5,30.29190951,-97.87380795,78735
151,Appamada School,"26450 Ranch Rd 12, Dripping Springs, TX 78620",4,30.17793478,-98.08441797,78620
152,St Edward's University Professional Education,"9420 Research Blvd, Austin, TX 78759",4,30.38411,-97.74392,78759
153,Whole Life Learning Center,"10801 Old San Antonio Rd, Austin, TX 78748",3.5,30.1472206,-97.7989578,78748
154,Cedar Creek High School,"793 Union Chapel Rd, Cedar Creek, TX 78612",5,30.13738372,-97.4706608,78612
155,Primrose School of Lakeway,"601 Ranch Road 620 S, Lakeway, TX 78734",4,30.358373,-97.954673,78734
156,Open Door Preschool East,"3804 Cherrywood Rd, Austin, TX 78722",3,30.2920406,-97.7135281,78722
157,Temple Beth Shalom,"7300 Hart Ln, Austin, TX 78731",4,30.358004,-97.755613,78731
158,Asian American Cultural Center,"11713 Jollyville Rd, Austin, TX 78759",4,30.41997,-97.75217,78759
159,Star Center Gymnastics,"3100 W Slaughter Ln, Bldg B, Austin, TX 78748",3.5,30.18060279,-97.84153709,78748
160,Rainbow's Edge Childcare,"12901 Silver Creek Dr, Austin , TX 78727",5,30.42918449,-97.71278637,78727
161,Austin Community College - Riverside Campus,"1020 Grove Blvd, Austin, TX 78741",2.5,30.24232264,-97.70179673,78741
162,The Language House,"Austin, TX 78751",5,30.3094624,-97.7311252,78751
163,Susie Fuentes Elem-Hays Cisd,"901 Goforth Rd, Kyle, TX 78640",3,30.00244424,-97.86061572,78640
164,Havenwood Nature School,"1000 Hays Country Acres Rd, Unit A, Dripping Springs, TX 78620",4.5,30.17846624,-98.04175696,78620
165,English Language Center,"110 Inner Campus Dr, MAI 7, Austin, TX 78712",4.5,30.286072,-97.739358,78712
166,Lake Travis High School - Austin,"3324 Ranch Rd 620 S, Austin, TX 78738",2,30.32761002,-97.96994781,78738
167,The Goddard School,"9313 Pearson Ranch Rd, Austin, TX 78717",3,30.50023165,-97.75027054,78717
168,HCI Sports & Fitness,"13875 Bee Cave Pkwy, Bee Cave, TX 78738",3.5,30.31223056,-97.95739258,78738
169,The PREP School of Dripping Springs,"12610 Nutty Brown Rd, Austin, TX 78737",5,30.2026553,-97.97243948,78737
170,Berkeley2 Academy,"3736 Bee Caves Rd, Ste 10, Austin, TX 78746",5,30.28068,-97.80693,78746
171,Ronkita Custom Sewing & Design,"Austin, TX 78703",5,30.29414362,-97.76570254,78703
172,Austin Community College - Highland Campus,"6101 Highland Campus Dr, Austin, TX 78752",3,30.32698268,-97.71376023,78752
173,Barton Hills Elementary,"2108 Barton Hills Dr, Austin, TX 78704",5,30.2550907,-97.7830734,78704
174,Dragonfly International School,"610 Hwy 290 W, Dripping Springs, TX 78620",3.5,30.19614162,-98.0866781,78620
175,Kepler STEM School,"508 Municipal Dr, Leander, TX 78641",5,30.57227,-97.85841,78641
176,ABC Driving School,"6516 S 1st St, Austin, TX 78745",4.5,30.19835,-97.78745,78745
177,Good Earth Farm School,"10820 E Crystal Falls Pkwy, Leander, TX 78641",4.5,30.56547,-97.81853,78641
178,Galindo Elementary,"3800 S 2nd St, Austin, TX 78704",1.5,30.2290802,-97.77107239,78704
179,Northwest Montessori House of Children,"1903 W Koenig Ln, Austin, TX 78756",5,30.3332301,-97.7371668,78756
180,Warriors Christian Academy,"3003 Blue Ridge Dr, Cedar Park, TX 78613",4.5,30.5232259,-97.8267159,78613
181,Concordia University Texas,"11400 Concordia University Dr, Austin, TX 78726",3,30.42014,-97.84012,78726
182,Angels Care And Learning Center,"7806 S 1st St, Austin, TX 78745",5,30.1847694,-97.7922065,78745
183,The Joule School,"2001 W New Hope, Cedar Park, TX 78613",4.5,30.5261585,-97.862212,78613
184,Joshua's Stage,"Austin, TX 78756",5,30.32521248,-97.73834229,78756
185,A New Day Child Development Center,"5014 Bee Creek Rd, Unit A, Spicewood, TX 78669",5,30.334282,-98.024686,78669
186,Art Center of Williamson County,"2111 Sam Bass Rd, Round Rock, TX 78681",5,30.525913,-97.710296,78681
187,The Prickly Pear Cooking Classes,"Austin, TX 78702",5,30.26326544,-97.71431926,78702
188,Austin Community College - Pinnacle Campus,"7748 Highway 290 West, Austin, TX 78736",4.5,30.231757,-97.883387,78736
189,St Ignatius Martyr Catholic School,"120 W Oltorf St, Austin, TX 78704",5,30.23963,-97.75465,78704
190,Children's Discovery Center,"3515 Convict Hill Rd, Austin, TX 78749",5,30.211016,-97.833099,78749
191,Escuelita Dance,"2302 Western Trails, Austin, TX 78745",5,30.23095,-97.79348,78745
192,Petite Ecole Internationale,"831 Springdale Rd, Austin, TX 78702",5,30.259541,-97.698954,78702
193,Excelencia- Creative Bilingual Preschool,"501 Denali Pass Dr, Cedar Park, TX 78613",5,30.51859,-97.77585,78613
194,Austin School of Fashion Design,"9503 Research Blvd, Ste 250, Austin, TX 78759",4.5,30.38704757,-97.7420946,78759
195,Lee Elementary School,"3308 Hampton Rd, Austin, TX 78705",4,30.293195,-97.727199,78705
196,Wells Branch Leadership Academy,"15201 Burnet Rd, Austin, TX 78728",3.5,30.45880702,-97.69381836,78728
197,Tutu School - Austin,"8312 Burnet Rd, Ste 119, Austin, TX 78757",5,30.36403526,-97.72963149,78757
198,Austin Eco Bilingual School,"8707 Mountain Crest Dr, Austin, TX 78735",4,30.25565,-97.89341,78735
199,Abacus School of Austin,"14115 Avery Ranch Blvd, Austin, TX 78717",4,30.4938628,-97.7881613,78717
200,Mama Melli Childcare Center,"10802 Kit Carson Dr, Austin, TX 78737",5,30.20334619,-97.9572447,78737
201,Meridian School,"2555 N Ih 35, Round Rock, TX 78664",3.5,30.537972,-97.6900503,78664
202,Summer Wonders,"3901 Shoal Creek Blvd, Austin, TX 78756",3.5,30.30876103,-97.7482681,78756
203,Soraya's Child Care,"3012 Portola Ct, Austin, TX 78738",5,30.31065559,-97.92346191,78738
204,Austin School of Classical Ballet,"7756 Northcross Dr, Ste 104, Austin, TX 78757",5,30.3566605,-97.7372993,78757
205,St Mark's Episcopal Day School,"2128 Barton Hills Dr, Austin, TX 78704",5,30.253702,-97.785554,78704
206,Manor Independent School District,"10335 US Hwy 290 E, Manor, TX 78653",3,30.344791,-97.57224,78653
207,mi casita montessori,"1211 Pkwy Austin, Austin, TX 78703",5,30.27821213,-97.75135067,78703
208,Spark Learning,"2517 Enfield Rd, Austin, TX 78703",5,30.2896099,-97.7710876,78703
209,Idea Bluff Springs,"1700 E Slaughter Ln, Austin, TX 78747",1.5,30.15357487,-97.76908896,78747
210,IDEA Health Professions,"5816 Wilcab Rd, Austin, TX 78721",5,30.2738526,-97.6759167,78721
211,Berlitz Language Center,"7000 Mopac Service Rd, Ste 200, Austin, TX 78731",5,30.35343767,-97.74946783,78731
212,Eco Kids Preschool,"8201 Cross Park Dr, Austin, TX 78754",3.5,30.330899,-97.666552,78754
213,The Goddard School,"301 Medical Pkwy, Lakeway, TX 78738",4.5,30.33316072,-97.97081048,78738
214,Cool Panda Chinese Learning for Kids,"2320 Gracy Farms Ln, Apt 1231, Austin, TX 78756",5,30.4038178,-97.7089922,78756
215,Veritas Academy,"13401 Escarpment Blvd, Austin, TX 78739",5,30.16336626,-97.91493505,78739
216,A New Beginning School of Massage,"2525 Wallingwood Dr, Ste 1501, Austin, TX 78746",3.5,30.263481,-97.784448,78746
217,Little Wonders Early Childhood Development Center,"2010 Koenig Ln, Austin, TX 78756",4,30.33454,-97.73863,78756
218,Figment Creative Labs - Children's Art Classes,"7809 Brodie Ln, Austin, TX 78745",5,30.20429,-97.83632,78745
219,Austin LSAT Prep,"8705 Shoal Creek Blvd, Ste 201, Austin, TX 78757",5,30.373578,-97.736027,78757
220,Helping Hands Montessori Services,"3300 Laguna Dr, Austin, TX 78741",5,30.21943,-97.7363699,78741
221,BeVelle Barber School,"2015 E Riverside Dr, Austin, TX 78741",4,30.24054,-97.728267,78741
222,Clear Shot Austin,"824 Betterman Dr, Pflugerville, TX 78660",5,30.4717407,-97.6310272,78660
223,Cedars International Academy,"8416 N I H 35, Austin, TX 78753",5,30.348298,-97.695364,78753
224,High Tide Swimming,"1250 South A W Grimes Blvd, Round Rock, TX 78664",5,30.500197,-97.656815,78664
225,Harmony School Of Excellence,"2100 E Saint Elmo Rd, Austin, TX 78744",2,30.21052,-97.74632,78744
226,Freestyle Languages,"Austin, TX 78715",4.5,30.1992999,-97.8088391,78715
227,Austin Driving School,"3654 Bee Cave Rd, Ste C, West Lake Hills, TX 78746",2,30.27996854,-97.80596284,78746
228,Athena Montessori Academy,"1503 Morgan Ln, Austin, TX 78704",5,30.229071,-97.78112,78704
229,Primrose School of Bee Cave,"3801 Juniper Trce, Bee Cave, TX 78738",4,30.3086952,-97.93555893,78738
230,One World Montessori,"1701 Scofield Ln, Austin, TX 78727",4.5,30.41541,-97.68885,78727
231,Cedars Montessori School of Oak Hill,"9704 Circle Dr, Austin, TX 78736",3,30.2439541,-97.92334804,78736
232,Cordovan Art School & Pottery Parlor,"8108 Mesa Dr, Ste B-102, Austin, TX 78759",4.5,30.37307566,-97.75692763,78759
233,Atelier 3-D,"Austin, TX 78702",4.5,30.26326544,-97.71431926,78702
234,Sapientia Montessori School,"1220 Cottonwood Creek Trl, Cedar Park, TX 78613",4.5,30.53211569,-97.80636796,78613
235,Round Rock High School,"201 Deep Wood Dr, Round Rock, TX 78681",2.5,30.509139,-97.698821,78681
236,Sun Moon & Stars Learning Center,"3808 /3810 S 1st St, Austin, TX 78704",4.5,30.22817,-97.76872,78704
237,Chakra Kids Yoga,"2324 E Caesar Chavez, Austin, TX 78702",5,30.25511,-97.7181,78702
238,Getprep Academy,"11612 Bee Cave Rd, Austin, TX 78738",5,30.31072,-97.91705,78738
239,HOFT Institute,"2400 Pearl St, Austin, TX 78705",4,30.2885,-97.74703,78705
240,Joslin Elementary,"4500 Manchaca Rd, Austin, TX 78745",4.5,30.22774738,-97.79034995,78745
241,Southern Careers Institute - Austin,"1701 W. Ben White Blvd, Suite 100, Austin, TX 78704",2,30.22711,-97.78468,78704
242,Nido Verde Di Reggio Emilia,"1701 W Anderson Ln, Austin, TX 78757",5,30.35251567,-97.7233582,78757
243,Sunrise Montessori Preschool,"60 Limmer Lp, Round Rock, TX 78665",4.5,30.561652,-97.6042724,78665
244,St Stephen's Episcopal School,"6000 Fm 3237, Wimberley, TX 78676",5,30.0366823,-98.14012332,78676
245,Prodigy Child Development Center,"2300 Cedar Bend Dr, Austin, TX 78758",4,30.41260552,-97.70255194,78758
246,The Modern Mystery School - Texas,"5555 N Lamar Blvd, Ste J125, Austin, TX 78751",4.5,30.32319529,-97.72499448,78751
247,Wesley School,"6100 Berkman Dr, Austin, TX 78723",5,30.31613731,-97.69291687,78723
248,Texas School For the Blind and Visually Impaired,"1100 W 45th St, Austin, TX 78756",5,30.31615829,-97.73821259,78756
249,Harmony School of Science - Austin,"11800 Stonehollow Dr, Austin, TX 78758",4,30.40058,-97.70852,78758
250,Covenant Presbyterian Preschool and Childs Dayout,"3003 Northland Dr, Austin, TX 78757",5,30.33452034,-97.7531662,78757
251,Creative World School- Leander,"10836 E Crystal Falls Rd, Leander, TX 78641",2,30.56605311,-97.81633432,78641
252,The Learning Experience - Hutto,"20908 Burgan Path, Hutto, TX 78634",4.5,30.4960136,-97.5842666,78634
253,Stepping Stone School - Lakeline/Westwood,"12301 Hymeadow Dr, Austin, TX 78750",4.5,30.45429,-97.79688,78750
254,All His Children Preschool,"9725 Circle Dr, Austin, TX 78736",5,30.244118,-97.925658,78736
255,Auguste Escoffier School of Culinary Arts,"6020-B Dillard Cir, Austin, TX 78752",3,30.32696844,-97.71774894,78752
256,Austin Play Garden-Central,"4915 Airport Blvd, Austin, TX 78751",5,30.3103,-97.71512,78751
257,St Mark Children's Day Out,"601 W Braker Ln, Austin, TX 78753",5,30.37963494,-97.6853564,78753
258,Anderson High School,"8403 Mesa Dr, Austin, TX 78759",1,30.37491153,-97.75186079,78759
259,The Naked Bite,"6600 Betty Cook Dr, Austin, TX 78723",5,30.31218,-97.67396,78723
260,Austin Nature & Science Center,"2389 Stratford Dr, Austin, TX 78746",4.5,30.2721969,-97.7733149,78746
261,Cheer Station National Cheerleading Training Center,"9330 United Dr, Ste 180, Austin, TX 78758",4,30.379776,-97.731743,78758
262,The Goddard School,"2111 Frate Barker Rd, Austin, TX 78748",4.5,30.149037,-97.841689,78748
263,North Austin Montessori School,"12400 Amherst Dr, Austin, TX 78727",4,30.421331,-97.7169333,78727
264,Healthcare Career Centers,"1200 E Palm Valley Blvd, Ste 1212, Round Rock, TX 78664",4,30.518839,-97.667494,78664
265,Paul Mitchell The School Austin,"9503 Research Blvd, Bldg 3, Ste 310, Austin, TX 78759",3,30.38703,-97.74209796,78759
266,Discovery School,"8600-3 White Cliff Dr, Austin, TX 78759",5,30.39394,-97.77907,78759
267,Advancing Robots,"Austin, TX 78735",5,30.25479,-97.88913,78735
268,Shalom Austin,"7300 Hart Ln, Austin, TX 78731",3.5,30.3574432,-97.75716305,78731
269,Marimont Montessori School,"801 Fm 685, Pflugerville, TX 78660",5,30.44229875,-97.6096794,78660
270,GradePower Learning,"4301 W William Cannon, Bldg B, Ste 220, Austin, TX 78749",5,30.2196446,-97.8416454,78749
271,Concordia High School,"1201 S Heatherwilde Blvd, Pflugerville, TX 78660",4.5,30.43541525,-97.64706475,78660
272,Town & Country Children's Montessori School,"3801 Keats Dr, Austin, TX 78704",4.5,30.23618,-97.78683,78704
273,Rocking Horse Academy,"6022 McNaughton, Kyle, TX 78640",4,30.01241,-97.8835,78640
274,La Tribu Rural,"9000 Manchaca, Austin, TX 78748",5,30.182318,-97.818989,78748
275,Texas International Education Consortium,"1103 W 24th St, Austin, TX 78705",1,30.28799438,-97.7497406,78705
276,Curry Tutoring,"Buda, TX 78620",5,30.08165,-97.84301,78620
277,Iron Horse Country Ranch,"9100 E Fm 243, Leander, TX 78646",5,30.4299696,-97.8423018,78646
278,Ladybird Montessori,"2050 Cole Springs Rd, Buda, TX 78610",4.5,30.08257306,-97.87237085,78610
279,Wholesome Generation,"12251 Running Bird Ln, Austin, TX 78758",4,30.408743,-97.692066,78758
280,Magnolia Montessori For All,"5100 Pecan Brook Dr, Austin, TX 78724",4.5,30.31736552,-97.65803298,78724
281,The Goddard School,"1040 E Wells Branch Pkwy, Pflugerville, TX 78660",4.5,30.429476,-97.635017,78660
282,Brentwood Elementary,"6703 Yates Ave, Austin, TX 78757",5,30.34037955,-97.73163861,78757
283,Mt Sinai Christian Academy,"5900 Cameron Rd, Austin, TX 78723",5,30.31652935,-97.70122777,78723
284,Harmony Science Academy - Pflugerville,"1421 Wells Branch Pkwy W, Ste 200, Pflugerville, TX 78660",4,30.43901144,-97.66368968,78660
285,Atelier Dojo,"4704 East Cesar Chavez St, Austin, TX 78702",5,30.25223032,-97.70279507,78702
286,Haley Whatley Swim School,"Round Rock, TX 78681",5,30.51389503,-97.71687317,78681
287,Little Sunshine’s Playhouse and Preschool of Four Points,"7710 N Fm 620 Rd, Bldg 11, Austin, TX 78726",4,30.41251407,-97.85157307,78726
288,Austin CDL Services,"8106 E Parmer Ln, Manor, TX 78653",4,30.35472421,-97.5925533,78653
289,Franklin Music Academy,"9717 Nightjar Dr, Austin, TX 78748",5,30.1804869,-97.83538954,78748
290,Child Craft School,"800 W 30th St, Austin, TX 78705",4.5,30.29841,-97.74518,78705
291,Hays High Scool,"4800 Jack C Hays Trl, Kyle, TX 78610",3.5,30.0323,-97.89015,78610
292,St Andrews Episcopal School,"1112 W 31st St, Austin, TX 78705",3,30.302334,-97.748248,78705
293,Community Montessori School,"500 Pleasant Valley Dr, Georgetown, TX 78626",4,30.615914,-97.676249,78626
294,Tree House Kids,"702 Cedar Ridge Dr, Pflugerville, TX 78660",3.5,30.44101,-97.6119499,78660
295,Above and Beyond Aviation,"Austin, TX 78719",4.5,30.1785215,-97.65759543,78719
296,Manhattan Prep,"1900 University Ave, AT&T Executive Education and Conference Center, Austin, TX 78705",5,30.281578,-97.740217,78705
297,Texas Allstar Cheer and Dance,"4674 Priem Ln, Ste 200, Pflugerville, TX 78660",4,30.49552815,-97.58830856,78660
298,Austin Community College - Rio Grande Campus,"1212 Rio Grande, Austin, TX 78701",3,30.2763429,-97.74796232,78701
299,Casa Montessori Child Development Center,"404 Atlanta St, Austin, TX 78703",4,30.27668762,-97.77146912,78703
300,Math For Keeps,"918 E 40th St, Austin, TX 78751",5,30.29818,-97.7213,78751
301,Cedars International  High School,"6700 Middle Fiskville Rd, Ste 102, Austin, TX 78752",3,30.32856,-97.70735,78752
302,Coastline Academy,"Austin, TX 78756",4,30.32227495,-97.74016927,78756
303,Swim Shaw Method - Round Rock,"1250 S A W Grimes Blvd, Reavis Rehab, Round Rock, TX 78664",5,30.50016859,-97.65750672,78664
304,The University of Texas at Austin,"110 Inner Campus Dr, Austin, TX 78705",4.5,30.28611776,-97.73939436,78705
305,IDEA,"1901 E Wells Branch Pkwy, Pflugerville, TX 78660",1.5,30.42154,-97.621332,78660
306,Marvelous Mandarin,"3818 Spicewood Springs Rd, Ste 300, Inside Duo Works Business Suites, Austin, TX 78759",4,30.3655159,-97.7490812,78759
307,Kumon Math and Reading Center of Austin - West,"3563 Far W Blvd, Ste 104, Austin, TX 78731",5,30.35298,-97.75402,78731
308,Ashford Montessori,"20301 Jackie's Ranch Rd, Pflugerville, TX 78660",2,30.4754715,-97.56160736,78660
309,Wide Awake Defensive Driving School,"Austin, TX 78715",4,30.19816208,-97.80873871,78715
310,Schola International,"12702 Sherbourne St, Unit A, Austin, TX 78729",5,30.4530812,-97.7785585,78729
311,Austin Learning Solutions,"5450 Bee Cave Rd, Ste 3B, Austin, TX 78746",5,30.293254,-97.821747,78746
312,Austin Sports Academy,"275 Lotus Cir, Austin, TX 78737",5,30.1570592,-97.9566925,78737
313,Kirby Hall Summer Camp,"306 W 29th St, Austin, TX 78705",4.5,30.29458,-97.74072,78705
314,Bluebonnet School of Cedar Park,"3420 El Salido Pkwy, Cedar Park, TX 78613",4,30.45944977,-97.82375336,78613
315,Leaps N Bounds,"7010 Village Center Dr, Austin, TX 78731",3.5,30.35339849,-97.75621106,78731
316,The Ride Company,"2100 Avenue Of The Stars, Cedar Park, TX 78613",5,30.54132284,-97.8203092,78613
317,Au Pair Childcare Expert,"Austin, TX 78754",5,30.35566714,-97.64478441,78754
318,Nature Preschool Center,"6030 W Hwy 290, Austin, TX 78735",5,30.235912,-97.852566,78735
319,Grace Garden Child Development Center,"2140 Allandale Rd, Austin, TX 78756",5,30.33547592,-97.74143219,78756
320,Bilingual Early Learning Academy,"12504 Tomanet Trl, Austin, TX 78727",5,30.41935,-97.70058,78727
321,Texas Tactical Training Institute,"Austin, TX 78741",5,30.23413,-97.72238,78741
322,International Montessori,"6420 Hart Ln, Austin, TX 78731",4,30.3450839,-97.7533435,78731
323,Akins ECHS,"10701 S 1st St, Austin, TX 78748",1,30.15041,-97.80145,78748
324,Champions Westlake Gymnastics & Cheer,"2805 Bee Caves Rd, Ste 405, Austin, TX 78746",3.5,30.27030945,-97.78920746,78746
325,JWSD Cross Park,"8701 Cross Park Dr, Austin, TX 78754",3.5,30.34325,-97.67698,78754
326,Stepping Stone School - Southpark Meadows/Onion Creek,"9325 Alice Mae Ln, Austin, TX 78748",4.5,30.16498496,-97.79413006,78748
327,Holy Word Christian Academy,"10601 Bluff Bend Dr, Austin, TX 78753",5,30.368244,-97.675813,78753
328,Stepping Stone School at Kyle-San Marcos,"4624 Ratcliffe, Kyle, TX 78640",4,30.02065,-97.8738,78640
329,Capital Area Speech & Occupational Therapy,"12710 Research Blvd, Ste 395, Austin, TX 78759",4.5,30.43192,-97.76574,78759
330,WonderWell,"7717 Southwest Pkwy, Bldg 2, Austin, TX 78735",5,30.2566176,-97.8755583,78735
331,Ballet Afrique,"8011 Cameron Rd, Ste 500, Austin, TX 78754",4,30.3364997,-97.6834945,78754
332,Clear Choice College Admissions Counseling,"9000 Alderwood Cv, Austin, TX 78717",5,30.5172,-97.74595,78717
333,Academic Answers,"4407 Bee Caves Rd, Ste 413, Austin, TX 78746",4,30.28547,-97.81331,78746
334,Austin Learning Center,"3355 Bee Cave Rd, Ste 203, West Lake Hills, TX 78746",5,30.27541,-97.80274,78746
335,Renaissance Montessori School,"5014 Bull Creek Rd, Austin, TX 78731",4.5,30.32726505,-97.74974778,78731
336,Dell Medical School,"1501 Red River St, Austin, TX 78712",4,30.27556347,-97.73354195,78712
337,Foodie Kids,"3818 Far W Blvd, Ste 107, Austin, TX 78731",4,30.3566799,-97.7589722,78731
338,Learning and Tutoring Center of East Austin,"4613 A E 12th St, Austin, TX 78721",4,30.278243,-97.686215,78721
339,Fantastic Magic Camp,"7500 Woodrow Ave, Austin, TX 78752",5,30.32516362,-97.71248649,78752
340,Sav-A-Heart,"3101 Persimmon Valley Trl, Austin, TX 78732",5,30.37203,-97.89691,78732
341,Jubillee Wells Branch,"3711 Shoreline Dr, Austin, TX 78728",3,30.45771883,-97.68893133,78728
342,Ariana Institute,"522 Grace Ln, Austin, TX 78746",5,30.31045,-97.85928,78746
343,Odyssey School,"4407 Red River St, Austin, TX 78751",3,30.3039083,-97.7200133,78751
344,Firefly Community School,"15913 Windermere Dr, Pflugerville, TX 78660",4,30.448415,-97.647347,78660
345,Mainspring Schools,"1100 W Live Oak St, Austin, TX 78704",5,30.24709,-97.76486,78704
346,Round Rock Kids Day Out,"4010 Sam Bass Rd, Round Rock, TX 78681",5,30.5356598,-97.7409821,78681
347,Ashford Montessori,"5906 Westcreek Dr, Austin, TX 78749",5,30.23343,-97.8461,78749
348,Becker Elementary School,"906 W Milton, Austin, TX 78704",4,30.25051,-97.75982,78704
349,Mathnasium of Westlake,"3201 Bee Caves Rd, Ste 154, Austin, TX 78746",4.5,30.27341281,-97.80032308,78746
350,Spicewood Country School And Camp,"6102 Spicewood Springs Rd, Austin, TX 78759",4,30.391296,-97.774757,78759
351,Temple College - Taylor,"516 N Main St, Taylor, TX 76574",5,30.57213,-97.40927,76574
352,EHAT,"12507 Fitzhugh Rd, Austin, TX 78736",5,30.23138898,-97.9847891,78736
353,Melluzi Academy,"4534 Westgate Blvd, Ste 112, Austin, TX 78745",5,30.2307302,-97.802711,78745
354,Habibi's Hutch Preschool,"2004 Bert Ave, Austin, TX 78704",5,30.23338318,-97.78672028,78704
355,School in the Hills,"10819 Ranch Rd 2222, Austin, TX 78730",1,30.3954713,-97.8471197,78730
356,Bake Austin,"1706 E 38 1/2 St, Austin, TX 78722",5,30.29152868,-97.71213934,78722
357,Stony Point High School,"1801 Tiger Trl, Round Rock, TX 78664",4.5,30.52868296,-97.66078893,78664
358,NeeCee’s Barber College,"11220 N Lamar Blvd, Austin, TX 78753",5,30.38234821,-97.68832498,78753
359,Rukaiya's Kitchen,"12800 Harrisglenn Dr, Ste 1125, Austin, TX 78753",4,30.400724,-97.654133,78753
360,McCombs School of Business,"2100 Speedway, Ste B 6000, Austin, TX 78712",5,30.28337149,-97.73728938,78712
361,My Smart Hands with Kathryn,"11807 Dove Haven Dr, Austin, TX 78753",5,30.5119418,-97.8177601,78753
362,B Golden Jewelry School,"321 W Ben White Blvd, Ste 204, Austin, TX 78704",5,30.223647,-97.767358,78704
363,Austin Driving School,"2049 W Stassney Ln, Austin, TX 78745",3.5,30.21628527,-97.79909985,78745
364,Bluebonnet Trail Elementary School,"11316 Farmhaven Rd, Austin, TX 78754",4.5,30.35145125,-97.6181985,78754
365,Your Growing Child,"100 Commons Rd, Ste 3, Dripping Springs, TX 78620",3.5,30.19285701,-98.08450855,78620
366,Young Minds Montessori Preschool,"2400 S Bagdad Rd, Leander, TX 78641",4.5,30.5443001,-97.8506393,78641
367,Atelier Preescolar,"8305 W Hwy 71, Ste 100, Austin, TX 78735",3.5,30.24686,-97.88908,78735
368,Texas Friendly Defensive Driving School-USA,"Austin, TX 78701",4.5,30.266944,-97.742778,78701
369,Dew Drops Montessori Preschool,"1202 Drake Cv, Leander, TX 78641",5,30.56342,-97.85348,78641
370,The Fellowship Christian Academy Hutto,"6655 Hwy 79, Hutto, TX 78634",1,30.53943947,-97.58089902,78634
371,Guidepost Montessori at Westlake,"4613-B Bee Cave Rd, West Lake Hills, TX 78746",3.5,30.286998,-97.815885,78746
372,The Lauterstein-Conway Massage School & Clinic,"4701 Burnet Rd B, Austin, TX 78756",4.5,30.3177654,-97.7393534,78756
373,St. Louis King of France Catholic School,"2114 Saint Joseph Blvd, Austin, TX 78757",3.5,30.35153,-97.73117,78757
374,Oaksong Nature School,"140 Russell Ln, Dripping Springs, TX 78620",5,30.20877,-98.11968,78620
375,Cowan Elementary School,"2817 Kentish Dr, Austin, TX 78748",5,30.18906,-97.83212,78748
376,Austin Community College - Round Rock Campus,"4400 College Park Dr, Round Rock, TX 78665",2,30.561581,-97.657045,78665
377,Artaculture Academy,"6407 S Pleasant Valley, Austin, TX 78744",1.5,30.18153,-97.74449921,78744
378,Warren Wilson,"1705 Stoneridge Rd, Austin, TX 78746",5,30.2655332,-97.8104749,78746
379,British Swim School of LA Fitness Austin - Slaughter Ln,"1824 W Slaughter Ln, Austin, TX 78748",3.5,30.175103,-97.821322,78748
380,Epic Adventures,"487 Hill Country Trl, San Marcos, TX 78667",4.5,29.986352,-98.098425,78667
381,Austin French Tutor,"Austin, TX 78739",5,30.17389,-97.888992,78739
382,Extend-A-Care for Kids,"801 Fm 1626, Buda, TX 78640",5,30.08917,-97.87328,78640
383,Camp 512,"9411 Bee Cave Rd, Austin, TX 78733",5,30.31602,-97.87067,78733
384,First English Lutheran Child Development Center,"3001 Whitis Ave, Austin, TX 78705",5,30.29549,-97.73871,78705
385,Bella Beauty College,"4631 Airport Blvd, Ste 101, Austin, TX 78751",2,30.30535675,-97.7154746,78751
386,College Nannies + Sitters,"4544 S Lamar Blvd, Ste 370, Austin, TX 78745",5,30.23459799,-97.80083187,78745
387,Lyndon B Johnson School of Public Affairs,"2315 Red River St, The University of Texas at Austin, Sid Richardson Hall, Unit 3, Austin, TX 78712",4,30.28548369,-97.72865656,78712
388,Emerald Wood KinderCare,"610 Emerald Wood Dr, Austin, TX 78745",3.5,30.21320244,-97.7788133,78745
389,ZACH Theatre Performing Arts School,"202 S Lamar Blvd, Austin, TX 78704",2.5,30.2643441,-97.7573051,78704
390,German Texan Heritage Society,"507 E 10th St, Austin, TX 78701",4.5,30.270082,-97.736335,78701
391,Faith Montessori House Of Children,"9006 Anderson Mill Rd, Austin, TX 78729",4.5,30.45316,-97.77793,78729
392,Montessori Oaks,"9006 Anderson Mill Rd, Austin, TX 78729",4,30.45321829,-97.77796508,78729
393,Avila Creative Soccer,"8863 Anderson Mill Rd, Ste 107, Anderson Mill, Austin, TX 78729",4.5,30.45377,-97.77296,78729
394,Crème de la Crème Learning Center of Cedar Park,"11801 W Parmer Ln, Cedar Park, TX 78613",3.5,30.51851659,-97.77488576,78613
395,ATX Kids Club,"Austin, TX 78704",4.5,30.25871,-97.76624,78704
396,The Goddard School,"1905 El Salido Pkwy, Cedar Park, TX 78613",3.5,30.475959,-97.842461,78613
397,Tri-Star Farm,"6648 Spicewood Springs Rd, Austin, TX 78759",4.5,30.398289,-97.780608,78759
398,The Rise School of Austin,"4800 Manor Rd, Bldg J, Austin, TX 78723",5,30.335138,-97.760003,78723
399,Waterloo Swimming - Central,"3200 W Anderson Ln, Austin, TX 78757",5,30.36194216,-97.74150102,78757
400,Austin Driving School,"3109 Slaughter Ln W, Austin, TX 78748",1.5,30.17981339,-97.8429184,78748
401,St. Michael's Episcopal Day school,"1500 N Capital Of Texas Hwy, Austin, TX 78746",5,30.319128,-97.82315,78746
402,Kumon Math and Reading Center of Austin - Circle C,"5700 W Slaughter Ln, Ste 220, Austin, TX 78749",4.5,30.20173351,-97.86843268,78749
403,HOPEcpr,"Austin, TX 78739",5,30.18901,-97.89135,78739
404,Berkeley2 Academy,"12871 Research Blvd, Ste 105, Austin, TX 78750",4.5,30.4361,-97.77201,78750
405,KLA Schools of Sweetwater,"18101 State Hwy 71 W, Austin, TX 78738",3.5,30.330312,-98.023132,78738
406,The Learning Experience - Pflugerville,"701 Fm 685 Rd, Pflugerville, TX 78660",4.5,30.44185909,-97.60973436,78660
407,Life Sustaining Training,"1301 S Ih 35, Ste 109, Austin, TX 78741",5,30.2446395,-97.7343624,78741
408,Austin Community College - Highland Business Center,"5930 Middle Fiskville Rd, Austin, TX 78752",2.5,30.323054,-97.711517,78752
409,Goldfish Swim School - Northwest Hills,"8038 Mesa Dr, Austin, TX 78731",4,30.37081293,-97.75846418,78731
410,Snapdragon Preschool,"6800 West Gate Blvd, Austin, TX 78745",5,30.2087983,-97.81604847,78745
411,Primrose School of Austin at Mueller,"2200 Aldrich St, Ste 130, Austin, TX 78723",4,30.3010434,-97.7034659,78723
412,Kids Academy,"1019 Main St, Ste A, Buda, TX 78610",3.5,30.08643608,-97.83331812,78610
413,Best In Class Education Center - Bee Cave,"12400 Texas 71 W, Ste 505, Bee Cave, TX 78736",5,30.3035405,-97.93125479,78736
414,Kumon Math and Reading Center of Austin - Westlake,"2712 Bee Cave Rd, Ste 114, Austin, TX 78746",5,30.27163069,-97.78622815,78746
415,Texas Culinary Academy,"11400 Burnet Rd, Ste 2100, Austin, TX 78758",2,30.391822,-97.722366,78758
416,University of Texas School of Law Publications Department,"727 E Dean Keeton St, Austin, TX 78705",5,30.2885,-97.73034,78705
417,Colores Spanish Immersion Preschool,"908 Old Koenig Ln, Austin, TX 78756",5,30.32891,-97.72725,78756
418,Sacred Arts Studio,"6001 W William Cannon Dr, Ste 305, Austin, TX 78749",5,30.228101,-97.86285,78749
419,Fusion Academy Austin,"4701 Bee Caves Rd, Ste 101, Austin, TX 78746",5,30.2875574,-97.8161512,78746
420,Little Hands International Preschool,"8830 Cainwood Ln, Austin, TX 78729",5,30.45577,-97.77332,78729
421,Academic Therapy Center,"2500 W William Cannon Blvd, Ste 101, Austin, TX 78745",3,30.2065601,-97.8128815,78745
422,Cordovan Art School & Pottery Parlor,"9217 Hwy 290 W, Ste 140, Austin, TX 78736",5,30.2309159,-97.92832097,78736
423,LifePointe Christian Academy,"1451 Carl Stern Dr, Hutto, TX 78634",3.5,30.533948,-97.544957,78634
424,Austin Elite Gymnastics,"2105 Ranch Rd 620 S, Ste 300, Lakeway, TX 78734",5,30.3418462,-97.96496884,78734
425,Avila Creative Soccer,"1503 Fm 620 N, Ste D, Bldg 2, Lakeway, TX 78734",5,30.37892,-97.94513,78734
426,Code Galaxy,"2028 E Ben White Blvd, Austin, TX 78741",4.5,30.217082,-97.743276,78741
427,Hendrickson High School,"19201 Colorado Sand Dr, Pflugerville, TX 78660",1,30.46462138,-97.58823785,78660
428,Harmony Science Academy,"930 E Rundberg Ln, Austin, TX 78753",4,30.35726929,-97.68483734,78753
429,Bollywood Shake,"10700 Anderson Mill Rd, Ste 208, Austin, TX 78750",3.5,30.44756,-97.811204,78750
430,Hopewell Middle School,"1535 Gulf Way, Round Rock, TX 78665",3.5,30.55261,-97.65881,78665
431,The Nest at Anderson Mill,"11812 Millwright Pkwy, Austin, TX 78750",3.5,30.44787,-97.80431,78750
432,Peace of Mind Children's Center,"5615 Burnet Rd, Ste 05, Austin, TX 78756",4.5,30.3319904,-97.7396757,78756
433,The Goddard School,"5145 N Fm 620, Bldg H, Austin, TX 78732",4,30.389049,-97.886475,78732
434,One World Montessori,"100 Deer Ridge Dr, Round Rock, TX 78681",4,30.4967,-97.70209,78681
435,Avila Creative Soccer,"16501 Bratton Ln, Bldg 2, Ste B, Austin, TX 78728",4.5,30.4697665,-97.6743958,78728
436,Casner Christian Academy,"3838 Steck Ave, Austin, TX 78759",5,30.37316,-97.75014,78759
437,Impulso Salsa,"3425 Bee Caves Rd, Unit C1, West Lake Hills, TX 78746",5,30.276149,-97.803766,78746
438,Westlake Childcare,"3924 Bee Cave Rd, West Lake Hills, TX 78746",3.5,30.28222628,-97.8096009,78746
439,Westwood High School,"12400 Mellow Meadow Dr, Austin, TX 78750",3.5,30.45614959,-97.79736095,78750
440,Sterling Hunter / Jumpers,"13304 Wright Rd, Buda, TX 78610",5,30.0821095,-97.7556305,78610
441,Ace Dances,"1504 Dapplegrey Ln, Austin, TX 78727",5,30.380515,-97.743519,78727
442,Varsity Tutors - Austin,"3201 Duval Rd, Austin, TX 78705",3.5,30.409157,-97.719635,78705
443,Nitro Swimming,"1310 Toro Grande Blvd, Cedar Park, TX 78613",3.5,30.54282,-97.77651,78613
444,Academia Preescolar,"1511 S Congress Ave, Austin, TX 78704",4.5,30.24826,-97.74961,78704
445,Premier High School,"1701 W Ben White Blvd, Ste 100 A, Austin, TX 78704",3.5,30.226578,-97.783439,78704
446,Texas State University Round Rock Campus,"1555 University Blvd, Round Rock, TX 78665",4,30.56862299,-97.65494275,78665
447,New Generation Day Care,"2606 S 1st St, Austin, TX 78704",5,30.23917582,-97.76175218,78704
448,Southwest Family YMCA,"6219 Oakclaire Dr, Austin, TX 78735",4,30.23624,-97.853637,78735
449,Mathnasium of Northwest Hills,"3742 Far West Blvd, Ste 105, Austin, TX 78731",5,30.3561574,-97.75805235,78731
450,Hill Country Kidz,"Fm 1826, Austin, TX 78737",5,30.14896413,-97.98210692,78737
451,Austin Coding Academy,"701 Brazos St, Ste 1616, Austin, TX 78701",4,30.2688755,-97.7405641,78701
452,Art Amore,"6507 Jester Blvd, Ste 107, Austin, TX 78750",5,30.3694914,-97.8003224,78750
453,National Elite Gymnastics,"7632 Hwy 71 W, Austin, TX 78735",4,30.24370427,-97.88063053,78735
454,YMOK Daycare Austin,"510 Clarke St, Austin, TX 78745",4.5,30.22561,-97.76948,78745
455,Escuelita Art-es,"6100 Parkwood Dr, Austin, TX 78735",5,30.239162,-97.8556739,78735
456,INIC Preschool Round Rock - Spanish Immersion,"2960 Jazz St, Round Rock, TX 78664",5,30.48233,-97.65502,78664
457,Irish Dance Center,"12400 Amherst Dr, Ste 112, Austin, TX 78727",5,30.421463,-97.716807,78727
458,Barton Creek Child Development Center,"5611 Travis Cook Rd, Austin, TX 78735",4.5,30.2578,-97.88849,78735
459,Circle C Child Development Center,"5917 La Crosse Ave, Austin, TX 78739",4,30.19276862,-97.88454034,78739
460,Amiguitos Spanish Immersion Academy,"4622 S Lamar Blvd, Austin, TX 78745",5,30.232732,-97.805828,78745
461,Kiddie Academy of Cedar Park West,"1301 North Lakeline Blvd, Cedar Park, TX 78613",3,30.5186057,-97.85336205,78613
462,Foreign Credentials Service of America,"1910 Justin Ln, Austin, TX 78757",4,30.34384248,-97.73346153,78757
463,Woodland Montessori,"13180 Pond Springs Rd, Austin, TX 78729",4.5,30.444602,-97.778152,78729
464,The Number Lab,"1201 W 24th St, Ste 200, Austin, TX 78705",5,30.2881,-97.75075,78705
465,Growing Tree,"2807 Robinson Ave, Austin, TX 78722",4,30.28666,-97.72292,78722
466,La Mère Academy,"16600 Ronald Reagan Blvd, Leander, TX 78641",5,30.5773152,-97.8042271,78641
467,Austin Graduate School of Theology,"7640 Guadalupe St, Austin, TX 78752",5,30.343862,-97.711593,78752
468,Harmony School of Endeavor - Austin,"13415 N FM-620, Austin, TX 78717",2,30.470393,-97.786718,78717
469,Crème de la Crème Learning Center of Lakeline,"1920 S Lakeline Blvd, Cedar Park, TX 78613",2,30.48184905,-97.82534487,78613
470,The Premier Athletic Complex,"8220 183A Toll Rd, Leander, TX 78641",2,30.575141,-97.82878,78641
471,The Children's Center of Austin,"8100 Bee Caves Rd, Austin, TX 78746",4.5,30.3129088,-97.8513426,78746
472,kidsActing Studio,"1400 Tillery St, Austin, TX 78722",4,30.27857,-97.70103,78722
473,Idea Parmer Park,"1438 E Yager Ln, Austin, TX 78853",2,30.38923625,-97.653281,78853
474,Rosewood Oaks,"1507 Lavaca St, Austin, TX 78701",3,30.27819,-97.74131,78701
475,LeafSpring School at Cedar Park,"11651 W Parmer Ln, Cedar Park, TX 78613",4,30.51577,-97.77427,78613
476,Idea Montopolis,"1701 Vargas Rd, Austin, TX 78741",5,30.2261121,-97.6989996,78741
477,Trinity Episcopal School,"3901 Bee Caves Rd, Austin, TX 78746",5,30.28033365,-97.81033538,78746
478,Supreme WakeLife,"Cedar Park, TX 78613",5,30.47716,-97.8152,78613
479,Aim Art Studio,"Austin, TX 78750",5,30.43285,-97.79418,78750
480,Sammy’s House,"2415 Twin Oaks Dr, Austin, TX 78757",4,30.341974,-97.7401001,78757
481,Olas Spanish Immersion School,"4705 Harmon Ave, Austin, TX 78751",5,30.305919,-97.714579,78751
482,I'm Not a Geek,"1011 Olive St, Austin, TX 78702",5,30.27054,-97.72874,78702
483,iCode- Austin,"4301 W William Cannon Dr, Bldg K Ste 200, Austin, TX 78749",5,30.22086286,-97.83819473,78749
484,Hutto Family YMCA,"200 Alliance Blvd, Hutto, TX 78634",3.5,30.54334,-97.56597,78634
485,Nina Berenato Jewelry,"3200 Palm Way, Ste 152, Austin, TX 78758",4,30.403278,-97.722948,78758
486,Learning House Preschool,"1101 S Mays St, Round Rock, TX 78664",5,30.498225,-97.675414,78664
487,Brain Balance of Cedar Park,"920 N Vista Ridge Blvd, Ste 600, Cedar Park, TX 78613",4,30.53081131,-97.7908783,78613
488,Rising Stars Bilingual Daycare,"11406 Conroy Ln, Manchaca, TX 78652",5,30.13991,-97.807332,78652
489,Austin School of Mosaic Art,"1810 W Anderson Ln, Austin, TX 78757",5,30.35393,-97.7254899,78757
490,Mornings in the Nest Montessori,"Parmer And Mopac, Austin, TX 78759",4.5,30.41993,-97.703605,78759
491,Tots N Tutors,"4521 Best Way, Austin, TX 78725",5,30.23675,-97.570925,78725
492,Día de los Niños Spanish Programs,"11201 Parkfield Dr, Austin, TX 78758",5,30.384857,-97.695899,78758
493,Bananahead Swim School,"1250 S A W Grimes Blvd, Round Rock, TX 78664",2,30.5002594,-97.6571732,78664
494,SI Computer School,"5555 N Lamar Blvd, Ste C-102, Austin, TX 78751",5,30.3237,-97.72572,78751
495,Stepping Stone School - Anderson Mill/Westwood,"9914 Woodland Village, Austin, TX 78750",4.5,30.45554,-97.7932,78750
496,St Richard's Episcopal Private Preschool And Kindergarten,"1420 E Palm Valley Blvd, Round Rock, TX 78664",5,30.517628,-97.664056,78664
497,Guidepost Montessori at Brushy Creek,"3017 Polar Ln, Cedar Park, TX 78613",4,30.5171034,-97.77489507,78613
498,Move Your Tale,"4803 Airport Blvd, ColdTowne Theater, Austin, TX 78751",5,30.3079507,-97.7154292,78751
499,Westlake Hills Presbyterian Preschool,"7127 Bee Cave Rd, Austin, TX 78746",5,30.30198,-97.8434,78746
500,Austin Partners in Education,"Austin, TX 78701",5,30.27072906,-97.7432251,78701
501,Sunsational Swim School - Private Swim Lessons,"Austin, TX 78738",5,30.30881,-97.93632,78738
502,Manor High School,"12700 Gregg Manor Rd, Manor, TX 78653",3,30.35352074,-97.56092526,78653
503,Austin GMAT Review,"8705 Shoal Creek Blvd, Ste 107B, Austin, TX 78757",5,30.3737006,-97.736155,78757
504,Elements Preschool,"2205 Ohlen Rd, Austin, TX 78757",5,30.36223,-97.72794,78757
505,Kinder Haus Childcare,"18700 Weiss Ln, Pflugerville, TX 78660",5,30.44975,-97.56132,78660
506,KidSpring Bilingual Learning Center,"7002 Menchaca Rd, Ste 200, Austin, TX 78745",4.5,30.20161597,-97.80744803,78745
507,ARBOR MONTESSORI ACADEMY,"11726 Jollyville Rd, Austin, TX 78759",5,30.4194,-97.75296,78759
508,Blueprint LSAT Preparation,"1900 University Ave, Austin, TX 78705",5,30.28151,-97.7401,78705
509,D-BAT - Austin,"3813 Helios Way, Bld. B/ Ste 240, Austin, TX 78660",4,30.42005192,-97.588729,78660
510,AOMA Herbal Medicine South,"4701 Westgate Blvd, Bldg B, Austin, TX 78745",4,30.2291648,-97.801217,78745
511,Silk & Glow,"Austin, TX 78729",3.5,30.44697,-97.77628,78729
512,ProRider Central Texas,"Austin, TX 78714",5,30.33397,-97.66821,78714
513,Austin Language Learning School,"1111 W 24th St, Ste D, Austin, TX 78705",5,30.2882651,-97.7503865,78705
514,RC Health Services Austin,"223 W Anderson Ln, A101, Austin, TX 78752",3,30.34407,-97.7072,78752
515,Camp On the Move,"Austin, TX 78749",5,30.20635,-97.86486,78749
516,Shining Stars Montessori School,"10500 Lakeline Blvd, Austin, TX 78717",5,30.48213766,-97.7902469,78717
517,Bluebonnet Montessori School of Lakeway,"15099 Debba Dr, Austin, TX 78734",5,30.37343795,-97.93837348,78734
518,Lynn Akins,"204 W Coombs St, Alvin, TX 78704",1.5,30.2456728,-97.7688358,78704
519,Chaparral Ice,"2525 W Anderson Ln, Austin, TX 78757",3,30.35475029,-97.7333969,78757
520,Mathnasium of Pflugerville,"1420 Wells Branch Pkwy, Ste 400, Pflugerville, TX 78660",5,30.44174464,-97.66232801,78660
521,Cedar Creek Middle School,"125 Voss Pkwy, Cedar Creek, TX 78612",1,30.09379581,-97.47895857,78612
522,Dance Institute,"6612 Sitio Del Rio, Austin, TX 78730",3.5,30.3918141,-97.84404124,78730
523,The Rock Enrichment Academy,"Austin, TX 78613",1.5,30.26759,-97.74299,78613
524,All Saints' Episcopal Day School,"209 W 27th St, Austin, TX 78705",4,30.29166057,-97.73970597,78705
525,Hilltop Farm,"2195 County Rd 105, Hutto, TX 78634",5,30.61736,-97.59096,78634
526,The Rosedale Preschool,"5615 Adams Ave, Austin, TX 78756",5,30.33123,-97.73892,78756
527,Extend-A-Care For Kids,"55 N IH-35, Austin, TX 78702",3,30.256167,-97.736022,78702
528,Spike Frog Volleyball,"1800 Clover Ln, Cedar Park, TX 78613",4,30.52903328,-97.84074951,78613
529,Guidepost Montessori at Round Rock,"7210 Wyoming Springs Dr, Round Rock, TX 78681",4.5,30.513734,-97.716074,78681
530,Let it Shine Enrichment Academy,"3701 W Slaughter Ln, Austin, TX 78749",4.5,30.1847,-97.85484,78749
531,BreezeATX,"603 N Lamar Blvd, Austin, TX 78703",5,30.27193,-97.75291,78703
532,St Matthews Episcopal Day School,"8134 Mesa Dr, Austin, TX 78759",5,30.374622,-97.756452,78759
533,Star Montessori School,"3101 Howard Ln, Austin, TX 78728",5,30.43845,-97.69505,78728
534,Stepping Stone School - Crestview/Allendale,"1710 Richcreek Rd, Austin, TX 78757",4.5,30.3473,-97.72709,78757
535,The PREP School of Crystal Falls,"3361 N Lakeline Blvd, Leander, TX 78641",3.5,30.54225183,-97.86429973,78641
536,Huntington-Surrey School,"4700 Grover Ave, Austin, TX 78756",5,30.317632,-97.738264,78756
537,AquaMobile Swim School,"Austin, TX 78704",3.5,30.24350166,-97.76557159,78704
538,Aldea Verde School,"903 Royal Ln, Cedar Park, TX 78613",5,30.517046,-97.837562,78613
539,Parmer Children's Montessori Academy,"1701 Scofield Ln, Austin, TX 78727",3,30.4155125,-97.6891453,78727
540,Pecan Street Christian School,"500 E Pecan St, Pflugerville, TX 78660",4.5,30.43891729,-97.61755603,78660
541,The Real Estate Business School,"1901 Ranch Road 620 N, Ste 105, Austin, TX 78734",3.5,30.38177,-97.9430272,78734
542,St Catherine's Preschool,"4800 Convict Hill Rd, Austin, TX 78749",5,30.218154,-97.849461,78749
543,Lake Hills Montessori Bee Caves,"3930 Ranch Rd 620 S, Austin, TX 78738",4.5,30.31168327,-97.94962668,78738
544,Austin Children's Academy,"12310 Ranch Rd 620 N, Cedar Park, TX 78750",4.5,30.463769,-97.813755,78750
545,Emler Swim School of Austin - Oak Hill,"7100 W US Highway 290, Ste A, Austin, TX 78736",4.5,30.23324,-97.8766669,78736
546,Silver Whisk Cooking School,"Austin, TX 78734",4,30.3665,-97.97594,78734
547,Camp Roadrunner,"8700 South View Rd, Austin Waldorf School, Austin, TX 78737",5,30.2298891,-97.9122397,78737
548,Kids Are First,"2517 Enfield Rd, Austin, TX 78703",1,30.28961,-97.77109,78703
549,AESA Prep Academy,"13730 West US 290, Austin, TX 78737",4,30.198794,-98.005957,78737
550,Nunan's Martial Arts,"2051 Cypress Creek Rd, Ste A, Cedar Park, TX 78613",4,30.476323,-97.841373,78613
551,Guidepost Montessori at Bee Cave,"14058 Bee Cave Pkwy, Austin, TX 78738",4,30.31166,-97.96559,78738
552,YPW Spanish Immersion School,"8014 Mesa Dr, Austin, TX 78731",5,30.37046092,-97.75853532,78731
553,Agni The Dance Company,"Austin, TX 78750",4.5,30.45762,-97.80097,78750
554,Flying Fish Swim Academy,"310 Sportsplex Dr, Dripping Springs, TX 78620",5,30.1952037,-98.0961524,78620
555,The PREP School of Bee Cave,"14001 Bee Cave Pkwy, Bldg A, Bee Cave, TX 78738",2.5,30.31108445,-97.96348685,78738
556,First United Methodist Preschool,"1201 Lavaca St, Austin, TX 78701",5,30.27485,-97.74258,78701
557,LZM Studio,"3810 Medical Pkwy, Ste 132, Austin, TX 78731",5,30.3065099,-97.7441105,78731
558,Academy of Hair Design,"2015 E Riverside Dr, Bldg 6, Austin, TX 78741",3,30.24058,-97.728565,78741
559,All Stars Academy,"275 Lotus Cir, Austin, TX 78737",5,30.1570592,-97.9566925,78737
560,The MegaGym,"80 Mockingbird Hill Ln, Ste 104, Leander, TX 78641",4.5,30.60648877,-97.89294473,78641
561,Dragonfly Preschool and Parents' Day Out,"4622 S Lamar Blvd, Austin, TX 78745",5,30.23303032,-97.80566406,78745
562,YPW Spanish Immersion School,"3640 Bee Caves Rd, Austin, TX 78746",3.5,30.27905323,-97.80647412,78746
563,Endeavor Montessori - Pflugerville,"18817 N Heatherwilde Blvd, Bldg 2, Pflugerville, TX 78660",3.5,30.47963346,-97.61557821,78660
564,Stepping Stone School at Mueller/UT,"3811 Harmon Ave, Austin, TX 78751",3.5,30.2955,-97.7203399,78751
565,Mathnasium of Steiner Ranch,"5145 N Fm 620, Ste B-140, Austin, TX 78732",3.5,30.3895554,-97.8859979,78732
566,Manchaca United Methodist Church Child Dvlpmnt Ctr,"1011 Fm 1626, Manchaca, TX 78652",5,30.140258,-97.832011,78652
567,The PREP School of Journey Parkway,"3421 Journey Pkwy, Leander, TX 78641",3.5,30.564582,-97.7878866,78641
568,Westlake High School,"4100 Westbank Dr, Austin, TX 78746",4.5,30.275683,-97.813797,78746
569,Golf In Schools,"12129 N FM 620, Ste 330, Austin, TX 78750",5,30.46083,-97.816277,78750
570,Growing Imaginations,"5410 S 1st St, Austin, TX 78745",5,30.21046,-97.780404,78745
571,Mariposas Spanish School,"3407 Red River St, Austin, TX 78705",4.5,30.29308379,-97.72357013,78705
572,Austin Classical School,"10500 Jollyville Rd, Bldg A, Austin, TX 78759",5,30.397814,-97.7508516,78759
573,ATX Test Prep,"2900 S Congress, Ste 208, Austin, TX 78704",5,30.23350795,-97.75850131,78704
574,Texas Laser & Aesthetics Training Academy,"4534 W Gate Blvd, Ste 108, Austin, TX 78745",4.5,30.23084294,-97.80282606,78745
575,Hill Country Christian School of Austin,"12124 Ranch Rd 620 N, Austin, TX 78750",4.5,30.464466,-97.818816,78750
576,Cafe Monet,"4477 S Lamar Blvd, Ste 560, Austin, TX 78745",4,30.23083496,-97.79883575,78745
577,Pint-Size Playhouse,"9827 Briar Ridge Dr, Austin, TX 78748",5,30.177997,-97.83057,78748
578,Cold Bore Tactical,"Dripping Springs, TX 78620",5,30.1902067,-98.0866781,78620
579,West Austin Dance Academy,"12918 Shops Pkwy, Ste 500, Bee Cave, TX 78738",4,30.30715,-97.94473,78738
580,Sol Education Abroad,"503 Oakland Ave, Austin, TX 78703",4,30.27313,-97.76101,78703
581,Huntington Learning Center,"1335 E Whitestone Blvd, Ste D 125, Cedar Park, TX 78613",5,30.52898792,-97.81444634,78613
582,Momma Carolyn's Creative Learning Center,"12702 Sherbourne St, Ste A, Austin, TX 78729",2.5,30.45311,-97.77853,78729
583,Cornerstone Christian Academy,"125 Lower Red Rock Rd, Bastrop, TX 78602",5,30.07491,-97.35877,78602
584,McNeil High School,"5720 McNeil Dr, Austin, TX 78729",2.5,30.45034909,-97.73332048,78729
585,The Adderley School,"Austin, TX 78703",5,30.27823,-97.75843,78703
586,Primrose School at Vista Ridge,"910 N Vista Ridge Blvd, Cedar Park, TX 78613",4.5,30.53075305,-97.79022396,78613
587,Austin Driving School,"5700 Manchaca Rd, Ste 399, Austin, TX 78745",2.5,30.21581308,-97.79977945,78745
588,Master Palacios ATA Martial Arts,"7300 Hart Ln, Austin, TX 78731",5,30.35753,-97.75482,78731
589,Robert Gardner Wellness,"1800 Hollow Tree Blvd, Round Rock, TX 78681",5,30.524766,-97.7028714,78681
590,Apple Blossom Center for Discovery,"1607 High Chaparral Dr, Leander, TX 78641",5,30.5564268,-97.8500976,78641
591,Serene Hills Elementary School,"3301 Serene Hills Dr, Austin, TX 78738",5,30.3484177,-97.99656035,78738
592,Xpresso Beans Kinder Pod,"1605 E 38th 1/2 St, Austin, TX 78722",5,30.29176765,-97.7141634,78722
593,Langston Household Services,"Austin, TX 78723",5,30.30478,-97.68457,78723
594,Jett Garner Martial Arts,"8100 Bee Caves Rd, Austin, TX 78746",5,30.3129088,-97.8513426,78746
595,Hutto Driving School,"409 W Front St, Ste 230, Hutto, TX 78634",4,30.54132,-97.549052,78634
596,Austin Community College - Cypress Creek Campus,"1555 Cypress Creek Rd, Cedar Park, TX 78613",2.5,30.47963799,-97.83422719,78613
597,New Magic Academy,"Cedar Park, TX 78613",1,30.50534821,-97.82035065,78613
598,Lone Star School Of Music,"12010 Hwy 290 W, Ste 230, Austin, TX 78737",5,30.21073722,-97.96992783,78737
599,Spunky Kids,"Austin, TX 78750",5,30.45762,-97.80097,78750
600,Alliance Francaise D'austin,"4101 Medical Pkwy, Ste 106, Austin, TX 78756",4,30.31003189,-97.74230957,78756
601,Olympia Hills Gymnastics,"2122 Green Meadows Ln, Buda, TX 78610",4,30.06148338,-97.81943512,78610
602,Georgetown Independent School District,"1703 N Austin Ave, Georgetown, TX 78626",1,30.65610425,-97.67064158,78626
603,La Casa Dei Bambini - Kyle Montessori,"701 Scott St, Kyle, TX 78640",4.5,29.98353,-97.88625,78640
604,Sunrise Neighborhood Youth Program,"4430 Manchaca Rd, Austin, TX 78745",5,30.22863872,-97.78954,78745
605,Snapology Austin,"1910 Fort View Rd, Austin, TX 78704",5,30.2305907,-97.7867809,78704
606,Summit Christian Academy,"2121 Cypress Creek Rd, Cedar Park, TX 78613",3.5,30.475321,-97.842254,78613
607,Mathnasium,"9600 Escarpment Blvd, Austin, TX 78749",5,30.2028345,-97.8788572,78749
608,Stepping Stone School - Hyde Park,"1007 E 40th St, Austin, TX 78751",5,30.29682,-97.71972,78751
609,Mi Casa Es Tu Casa,"2110 White Horse Trl, Ste B, Austin, TX 78757",5,30.339381,-97.7403547,78757
610,Region 13 Education Service Center,"5701 Springdale Rd, Austin, TX 78723",2.5,30.29969426,-97.67166827,78723
611,Abiding Love Lutheran Child Development Center,"4612 Convict Hill Rd, Austin, TX 78749",4,30.21785355,-97.84645081,78749
612,Camp Doublecreek,"3311 Kelly Ln, Pflugerville, TX 78660",4.5,30.501223,-97.647295,78660
613,Natureversity,"Austin, TX 78737",5,30.22137642,-97.90240479,78737
614,Bee Cave Elementary School,"14300 Hamilton Pool Rd, Austin, TX 78738",3,30.30856,-97.96766,78738
615,Julia's Garden Montessori,"Austin, TX 78704",5,30.25869,-97.76625,78704
616,The Little Gym of Round Rock,"3203 S Ih-35, Ste 590, Round Rock, TX 78664",4,30.475857,-97.670368,78664
617,Challenger School - Round Rock,"1521 Joyce Ln, Round Rock, TX 78664",4,30.49549545,-97.64953463,78664
618,Mathnasium,"1821 Westinghouse Rd, Ste 1140, Georgetown, TX 78626",4.5,30.5875045,-97.661264,78626
619,Great Oaks Elementary School,"16455 Great Oaks Dr, Round Rock, TX 78681",5,30.4956099,-97.7386286,78681
620,Nitro Swimming,"15506 W Hwy 71, Ste D, Bee Cave, TX 78738",4,30.31769,-97.98481,78738
621,Covenant United Methodist Church Preschool,"4410 Duval Rd, Austin, TX 78727",4.5,30.41381073,-97.73220062,78727
622,Summitt Elementary School,"12207 Brigadoon Ln, Austin, TX 78727",3,30.418541,-97.719204,78727
623,Kristens Kids,"1911 Mirabeau St, Austin, TX 78727",5,30.41755,-97.69288,78727
624,El Buen Pastor Early Childhood Development Center,"1208 Willow St, Austin, TX 78702",4.5,30.25909,-97.73209,78702
625,Tutoring Austin,"Austin, TX 78735",5,30.25479,-97.88913,78735
626,The Ivy International School,"9511 N Fm 620, Austin, TX 78726",4,30.43575291,-97.83888596,78726
627,SchoolAdmin,"4315 Guadalupe St, Ste 303, Austin, TX 78751",1,30.30919266,-97.73365021,78751
628,The Learning Experience - Buda,"825 Main St, Buda, TX 78610",4.5,30.08553447,-97.83639961,78610
629,Little Folks Bilingual Child Development Center,"5706 Reicher Dr, Austin, TX 78723",5,30.3033886,-97.67749023,78723
630,Cedar Park Middle School,"2100 Sun Chase Blvd, Cedar Park, TX 78613",3.5,30.47550178,-97.83599854,78613
631,Westlake United Methodist Preschool,"1460 Redbud Trl, Austin, TX 78746",3.5,30.29505,-97.82094,78746
632,Carpe Diem Private Preschool - Cedar Park,"14009 Ronald Reagan Blvd, Leander, TX 78641",3.5,30.543828,-97.793197,78641
633,Inishfree Irish Dance Studio Austin,"12636 Research Blvd, Ste C109, Austin, TX 78759",5,30.4306074,-97.7642831,78759
634,Texas CHL,"5508 W Hwy 290, Ste 300, Austin, TX 78735",5,30.237877,-97.841591,78735
635,Austin Spanish Academy,"8650 Spicewood Springs Rd, Ste 123, Austin, TX 78759",5,30.43327,-97.77172,78759
636,Happy Hearts Bilingual Learning Center,"6615 Manchaca Rd, Austin, TX 78745",4.5,30.20592,-97.806,78745
637,French Classes,"Austin, TX 78702",4.5,30.26163,-97.71942,78702
638,Little Acorn Academy,"3200 Hatch Rd, Cedar Park, TX 78613",3.5,30.464908,-97.824567,78613
639,South University - Austin,"1220 W Louis Henna Blvd, Round Rock, TX 78681",2.5,30.47943399,-97.68996214,78681
640,Lionheart Children’s Academy at Celebration Church,"601 Westinghouse Rd, Georgetown, TX 78626",3.5,30.58555754,-97.68594394,78626
641,The Busy Bee Preschool,"11300 US Hwy 290 E, Ste 320, Manor, TX 78653",4,30.34974047,-97.55357665,78653
642,Easy Street Driving School,"6448 E Highway 290, Ste C100, Austin, TX 78723",4,30.324155,-97.694812,78723
643,Extend-A-Care For Kids,"4101 Tannehill Ln, Austin, TX 78701",5,30.27947702,-97.67382614,78701
644,Texas Defensive Firearms,"19101 Sotogrande Dr, Pflugerville, TX 78660",5,30.46564865,-97.57959747,78660
645,Extend-A-Care For Kids,"6700 Arroyo Seco, Austin, TX 78757",5,30.34000397,-97.73176575,78757
646,Swim School of Austin,"1001 W Anderson Ln, austin, TX 78757",4.5,30.348364,-97.7155442,78757
647,Butterfly Christian Preschool,"3525 Bee Caves Rd, West Lake Hills, TX 78746",3.5,30.276167,-97.805407,78746
648,Merlin Works,"1023 Springdale Rd, Bldg 3, Austin, TX 78721",5,30.2675739,-97.69264354,78721
649,Northshore Christian Academy,"7301 Bar K Ranch Rd, Lago Vista, TX 78645",5,30.4730567,-97.990751,78645
650,Outbound Sailing,"16406 Stewart Rd, Lakeway, TX 78734",5,30.38105,-97.95927,78734
651,Austin South Christian Academy,"200 W Stassney Ln, Austin, TX 78745",3,30.20602989,-97.77603149,78745
652,Frog Tutoring,"106 E Sixth St, Ste 900, Austin, TX 78701",3.5,30.268147,-97.74231,78701
653,Austin School of Photography,"500 San Marcos St, Ste 111, Austin, TX 78702",5,30.26463984,-97.73287031,78702
654,Texas Tactical Training Institute,"Pflugerville, TX 78660",4.5,30.45205,-97.65142,78660
655,Westminster Presbyterian Day School,"3208 Exposition Blvd, Austin, TX 78703",5,30.30846,-97.76366,78703
656,Open Door Preschool Central,"1717 W 10th St, Austin, TX 78703",5,30.2801,-97.76223,78703
657,Blue House Preschool,"4015 Bee Cave Rd, West Lake Hills, TX 78746",4,30.28196,-97.810393,78746
658,Discover New Horizons Montessori,"900 Round Rock Ave, Ste 202, Round Rock, TX 78681",5,30.51226656,-97.69041053,78681
659,Achieve Learning Child Development Center,"509 M L K Dr, Elgin, TX 78621",5,30.342552,-97.364828,78621
660,The Salon Professional Academy Georgetown,"901 IH 35, Ste 102, Georgetown, TX 78626",3,30.636037,-97.687879,78626
661,Triumphant Love Lutheran Child Development Center,"9508 Great Hills Trl, Austin, TX 78759",5,30.3945,-97.75593,78759
662,Austin Education Services,"7801 N Lamar, Ste D-109, Austin, TX 78752",4,30.346071,-97.71148,78752
663,Anderson Mill KinderCare,"9706 Anderson Mill Rd, Austin, TX 78750",5,30.44944588,-97.79355461,78750
664,Sky Candy,"1023 Springdale Rd, Bldg 8A, Austin, TX 78721",5,30.267079,-97.692381,78721
665,The Oaks Montessori,"511 S Park Dr, Austin, TX 78704",5,30.23262,-97.76475,78704
666,Le Cordon Bleu,"3110 Esperanza Xing, Ste 100, Austin, TX 78758",3.5,30.40126,-97.721685,78758
667,Pflugerville Martial Arts Academy,"2700 West Pecan St, Ste 500, Pflugerville, TX 78660",4,30.45048669,-97.65583888,78660
668,Trinity Child Development Center,"5801 Westminster Dr, Austin, TX 78723",5,30.312185,-97.690139,78723
669,Travis Driving School,"13000 N Interstate Hwy 35, Unit 212, Austin, TX 78753",4.5,30.415604,-97.675513,78753
670,Hersh Parent Coaching,"Austin, TX 78758",5,30.3825779,-97.71024323,78758
671,Del Valle Independent School District,"4900 McKinney Falls Pkwy, Austin, TX 78744",4,30.19049,-97.71028,78744
672,The College of Health Care Professions,"6330 East Highway 290, Ste 180, Austin, TX 78723",4,30.330033,-97.715121,78723
673,MINDWORX Enrichment Programs & Camps,"111 N Vista Ridge Blvd, Ste 206, Cedar Park, TX 78613",5,30.5186594,-97.79067993,78613
674,Woodland Schoolhouse,"Austin, TX 78745",5,30.20465088,-97.79703522,78745
675,Dahlstrom Middle School,"3600 Fm 967, Buda, TX 78610",3,30.09762289,-97.88221183,78610
676,MoolahU,"4330 Bull Creek Rd, Ste 1418, Austin, TX 78731",3.5,30.2689905,-97.7408003,78731
677,Townlake Branch YMCA,"1100 W Cesar Chavez St, Austin, TX 78703",3.5,30.26896,-97.75697,78703
678,Kiddie Academy of Hutto,"480 Chris Kelley Blvd, Hutto, TX 78634",3.5,30.53315759,-97.56456091,78634
679,Crockett High School Cafeteria,"5601 Manchaca Rd, Austin, TX 78745",2.5,30.2132,-97.79669,78745
680,Sanford-Brown College,"9001 N IH-35, Austin, TX 78753",3,30.35399,-97.68967,78753
681,Brentwood Christian School,"11908 N Lamar Blvd, Austin, TX 78753",4.5,30.392058,-97.686694,78753
682,Tumblepro Austin,"8516 Anderson Mill Rd, Ste 102, Austin, TX 78729",3.5,30.45635,-97.76769,78729
683,Prep N' Play Academy,"1901 S Hwy 183, Unit D, Leander, TX 78641",4.5,30.554573,-97.843027,78641
684,Texas School of Bartenders,"5555 N Lamar Blvd, Austin, TX 78751",4.5,30.32330514,-97.7250102,78751
685,Four Seasons Community School,"3909 Adelphi Ln, Austin, TX 78727",4,30.42166,-97.71754,78727
686,ChampionsTX - Lake Travis,"2105 RR 620 S, Ste 201, Lakeway, TX 78734",4,30.34193752,-97.96545673,78734
687,The Children's Center of Austin,"6507 Jester Blvd, Bldg 2, Austin, TX 78750",4,30.36978,-97.799394,78750
688,KidzToPros Summer Camp - Austin International School,"4001 Adelphi Ln, Austin, TX 78727",1,30.422325,-97.71821,78727
689,Dev Bootcamp,"1705 Guadalupe St, Fl 1, Austin, TX 78701",1,30.27997,-97.74188,78701
690,Austin Child Guidance Center,"810 W 45th St, Austin, TX 78751",2.5,30.31350025,-97.7367901,78751
691,CHILD INCORPORATED CHILD DEVELOPMENT PROGRAM,"3001 S 1st St, Austin, TX 78704",5,30.23516,-97.76384,78704
692,Spicewood Karate Club,"4227 Tyx Trl, Spicewood, TX 78669",5,30.3843765,-98.09096712,78669
693,Target Driving School,"Manor, TX 78653",4.5,30.34239,-97.55737,78653
694,Highland Park Elementary,"4900 Fairview Dr, Austin, TX 78731",5,30.33069,-97.75995,78731
695,Austin Driving School,"7113 Burnet Rd, Austin, TX 78757",1,30.347179,-97.7347532,78757
696,Texas Preparatory School at Austin,"7540 Ed Bluestein Blvd, Austin, TX 78723",2,30.3235451,-97.6714609,78723
697,Switch Willo Stables,"4829 Switch Willo, Austin, TX 78727",3.5,30.41729223,-97.7353591,78727
698,Snapology - Round Rock,"1100 Gattis School Rd, Ste 240, Round Rock, TX 78664",5,30.49648,-97.66591,78664
699,Didactica Spanish Immersion Preschool,"2028 S Lamar Blvd, Austin, TX 78704",4.5,30.24916,-97.76853,78704
700,Texas Spanish Academy,"2471 South A.W. Grimes Blvd, Bldg 200, Bldg 200, Round Rock, TX 78664",5,30.488051,-97.649736,78664
701,Project Management Academy,"Hilton Garden Inn Austin NW/Arboretum, 11617 Research Blvd, Austin, TX 78759",5,30.415201,-97.744133,78759
702,Austin Community College - Hays Campus,"1200 Kohlers Crossing, Kyle, TX 78640",5,30.0279851,-97.8712158,78640
703,BigHeart CPR Training,"331 Baldwin St, Hutto, TX 78634",5,30.51452,-97.5638,78634
704,Ridgeview Middle School,"2000 Via Sonoma, Round Rock, TX 78665",3,30.49880219,-97.62429047,78665
705,Stepping Stone School - Leander/Cedar Park,"225 Block House Dr, Leander, TX 78641",4,30.54488,-97.83801,78641
706,Guiding Steps Montessori,"1000 E Bowman Rd, Round Rock, TX 78664",4,30.53028,-97.669433,78664
707,Austin Massage Academy,"13091 Pond Springs Rd, Ste 400, Austin, TX 78729",3.5,30.44362674,-97.77501385,78729
708,Todays Child Day Care,"9908 Dessau Rd, Austin, TX 78754",4,30.357267,-97.672309,78754
709,"Life Ki-do Martial Arts, Parenting & Life Education","7817 La Crosse Ave, Austin, TX 78749",5,30.19310669,-97.90871734,78749
710,British Swim School - Round Rock,"1000 N Aw Grimes Blvd, LA Fitness, Round Rock, TX 78665",1,30.520618,-97.656327,78665
711,National Institute of Technology,"9100 E Highway 290, Austin, TX 78724",1.5,30.330087,-97.655353,78724
712,Austin Children's Montessori,"8807 Manchaca Rd, Austin, TX 78748",4,30.18377,-97.81711,78748
713,Planet Childbirth,"Austin, TX 78745",5,30.20686392,-97.79738107,78745
714,RideSmart Motorcycle School,"1614 Haskell St, Austin, TX 78702",4.5,30.253839,-97.729401,78702
715,Chisolm Trail Middle School,"500 Oakridge Dr, Round Rock, TX 78681",1,30.502638,-97.702293,78681
716,PFTA Personal Trainer Academy Austin,"8500 Shoal Creek Blvd, 2-H, Austin, TX 78757",1,30.37061818,-97.73888801,78757
717,Kumon Math and Reading Center of Austin - Wells Branch,"2013 Wells Branch Pkwy, Ste 103, Austin, TX 78728",5,30.43496251,-97.68308847,78728
718,Tutor Doctor South Austin,"Austin, TX 78736",1,30.26109243,-97.95943651,78736
719,The Goddard School,"12101 Archeleta Blvd, Unit 1, Austin, TX 78739",5,30.17065,-97.8894,78739
720,Ronda's Montessori Garden,"4300 Mt Vernon Dr, Austin, TX 78745",1,30.2246,-97.77715,78745
721,Program Services Branch YMCA,"3208 Red River St, Austin, TX 78705",2,30.29180717,-97.72709656,78705
722,ESTEAM Learning Labs,"12 Lake Dr, Round Rock, TX 78665",5,30.5457167,-97.6696687,78665
723,Proverbs Place School House,"Kyle, TX 78640",5,29.98835,-97.87736,78640
724,Abacus Children's Academy,"2300 Rowe Lane Suite, Ste 104, Pflugerville, TX 78660",4,30.48371,-97.57354,78660
725,Green Sprout Preschool,"2108 E M Franklin Ave, Austin, TX 78723",4.5,30.2867,-97.69783,78723
726,Austin Educational Theatre,"11530 Manchaca Rd, Bldg 1, Austin, TX 78748",3,30.15241394,-97.8342669,78748
727,Precision Camera & Video,"2438 W Anderson Ln, Ste B-4, Austin, TX 78757",3.5,30.3575044,-97.73198078,78757
728,Round Rock Taekwondo,"1920 Sam Bass Rd, Ste 400, Round Rock, TX 78681",5,30.5237,-97.705415,78681
729,Skye & Wester Ross College,"The Old School, Kyle IV40 8EG, United Kingdom",5,57.286164,-5.586605,ngdom
730,Master School,"8400 Burleson-Manor Rd, Manor, TX 78653",3,30.27750397,-97.52819061,78653
731,Sylvan Learning of South Austin,"4036 S Lamar, Ste 150, Austin, TX 78704",3,30.23758,-97.79381,78704
732,Baldwin Beauty Schools,"3005 S Lamar Blvd, Ste D109, Austin, TX 78704",4,30.24134,-97.78372,78704
733,Bright Horizons Family Center at Oak Hill,"6111 Davis Ln, Austin, TX 78749",3.5,30.211097,-97.8757059,78749
734,On Sight Vision and Hearing Screening Service,"8541 Copano Dr, Austin, TX 78749",5,30.204189,-97.854,78749
735,Community Truck Driving School,"1611 Chisholm Trl, Ste 470, Round Rock, TX 78681",4,30.52402,-97.69248,78681
736,Cordovan Art School & Pottery Parlor,"200 Buttercup Creek, Ste 122, Cedar Park, TX 78613",5,30.50297,-97.82098,78613
737,Kumon Math and Reading Center of Round Rock - West,"16560 N Rm 620 Rd, Ste 108, Round Rock, TX 78681",4,30.49757,-97.72381,78681
738,Kiddie Academy of Bee Cave,"16003 W Highway 71, Bee Cave, TX 78738",5,30.31740072,-97.99326555,78738
739,Primrose School of Dripping Springs,"13832 Sawyer Ranch Rd, Dripping Springs, TX 78620",5,30.19461356,-97.99950516,78620
740,Scudder Primary School,"400 Green Acres Dr, Wimberley, TX 78676",2.5,30.002,-98.11009717,78676
741,Allied Health Careers,"5424 W Hwy 290, Ste 105, Austin, TX 78735",1,30.237638,-97.839283,78735
742,Ann Webb Skin Institute,"11701 Jollyville Rd, Ste 103, Austin, TX 78759",4.5,30.419452,-97.751762,78759
743,Frost Driving School,"2330 Verna Lee Blvd, Ste 112, Harker Heights, TX 76548",3,31.05706,-97.654189,76548
744,DriversEd.com,"Austin, TX 78750",2,30.41384506,-97.80218506,78750
745,World Bible School,"13441 Limecreek Rd, Cedar Park, TX 78613",4,30.49012765,-97.860454,78613
746,Southwest School of Bible Studies,"8900 Manchaca Rd, Austin, TX 78748",5,30.1839,-97.81879,78748
747,Hatch House School - Sendero Campus,"3087 FM 1431, Round Rock, TX 78681",4,30.5489926,-97.7395812,78681
748,Sweet Briar Child Development Center,"205 Sandra St, Austin, TX 78745",4,30.2044,-97.77684,78745
749,Idea Public Schools - Austin,"2800 S IH 35 Frontage Rd, Ste 265, Austin, TX 78704",1,30.228659,-97.745157,78704
750,Live The Language,"2840 Gettysburg Dr, Austin, TX 78745",5,30.19433,-97.82812,78745
751,Cadence Academy Preschool,"12223 Cassady Drive, Austin, TX 78727",5,30.420958,-97.718463,78727
752,HALO Austin Leadership & Sports,"9501 Manchaca Rd, Austin, TX 78748",5,30.17751753,-97.82157965,78748
753,Cadence Academy Preschool,"12223 Cassady Drive, Austin, TX 78727",4,30.420958,-97.718463,78727
754,Neuron Garage,"Austin, TX 78751",5,30.3055711,-97.725376,78751
755,Cadence Academy Preschool,"2101 East Park Street, Cedar Park, TX 78613",4.5,30.517577,-97.792378,78613
756,Extend-A-Care For Kids,"4500 Manchaca Rd, Austin, TX 78745",4,30.228058,-97.790558,78745
757,Nicholson Early Childhood Education Center,"12233 RR 620 N, Ste 201, Austin, TX 78750",5,30.4624543,-97.814797,78750
758,Clifton Career Development School,"1519 Coronado Hills Dr, Austin, TX 78752",5,30.32625,-97.68732,78752
759,Country Home Learning Center,"6900 Escarpment Blvd, Austin, TX 78749",4,30.22984505,-97.86568451,78749
760,La Petite Academy of Austin,"9315 Chisholm Lane, Austin, TX 78748",3,30.17432,-97.810464,78748
761,ATX Doulas,"Austin, TX 78704",5,30.24350166,-97.76557159,78704
762,Montessori School of the Epiphany,"13709 Highway 71 W, Bee Cave, TX 78738",4,30.30758113,-97.95889004,78738
763,Austin Medical Assistant School,"1139 W Braker Ln, Ste 103, Austin, TX 78758",1,30.3843884,-97.6925986,78758
764,Rapid Spanish,"7113 Burnet Rd, Ste 110, Austin, TX 78759",2,30.37346759,-97.70862579,78759
765,The Butterfly Garden,"207 Chisholm Trail Rd, Round Rock, TX 78681",5,30.5078758,-97.6897824,78681
766,Christ Lutheran Learning Center,"510 Luther Dr, Georgetown, TX 78628",5,30.616193,-97.690117,78628
767,Four Elements Aerial and Creative Movement,"314 Congress Ave, Ste 200, Austin, TX 78701",2.5,30.17655409,-97.81973343,78701
768,Kumon Math and Reading Center of Austin - Uplands Ridge,"11805 Bee Cave Rd, Ste 300, Bee Cave, TX 78738",5,30.30766,-97.92092,78738
769,Primrose School at Rancho Sienna,"705 Via De Sienna Blvd, Georgetown, TX 78628",5,30.6326848,-97.8177938,78628
770,IQuest Global Enrichment Center,"5145 Ranch Rd 620 N, Ste F-110, Austin, TX 78732",5,30.3886459,-97.8843297,78732
771,Travis Driving School,"13740 N Hwy 183, Ste N2, Office D, Austin, TX 78750",5,30.458495,-97.79445,78750
772,Pflugerville Montessori School,"2500 Pecan St W, Pflugerville, TX 78660",4.5,30.44808388,-97.65329742,78660
773,DePratter and Young's Education Fund,"Austin, TX 78745",1,30.26696767,-97.74301788,78745
774,The Early Learner Private Preschool,"Buda, TX 78610",5,30.08527855,-97.84399609,78610
775,Mathnasium,"2906 S Bagdad Rd, Ste 240, Leander, TX 78641",5,30.538919,-97.847445,78641
776,Green House Day Care,"1170 County Rd 108, Hutto , CA 78634",5,30.56183969,-97.57057209,78634
777,Nuvani Institute,"801 E William Cannon Dr, Ste 115, Austin, TX 78745",3,30.190187,-97.773498,78745
778,Primrose School of Georgetown,"2205 Wolf Ranch Pkwy, Georgetown, TX 78628",4.5,30.63422873,-97.69970477,78628
779,Stepping Stone School - Round Rock /Teravista,"651 Teravista Pkwy, Round Rock, TX 78664",4.5,30.56365,-97.68144,78664
780,CEI Preschool Spanish Immersion School,"2381 Bebee Rd, Kyle, TX 78640",5,30.00614,-97.82786,78640
781,Waterloo Swimming,"12332 Ranch Rd 620 N, Bldg C, Austin, TX 78750",4.5,30.4634942,-97.8121666,78750
782,Aceable,"610 W 5th St, Ste 604, Austin, TX 78701",2.5,30.26916,-97.74957,78701
783,Loving Learning Preschool,"1345 Neans Dr, Austin, TX 78758",3,30.372713,-97.703407,78758
784,Small World Preschool,"111 E Logan St, Round Rock, TX 78664",4.5,30.50220022,-97.67554277,78664
785,The Goddard School,"1730 Union St, Leander, TX 78641",4.5,30.558116,-97.84034,78641
786,Wee Wisdom School,"9905 Anderson Mill Rd, Austin, TX 78750",5,30.445235,-97.796715,78750
787,Extend-A-Care For Kids,"Austin, TX 78749",4.5,30.233196,-97.8456455,78749
788,Pflugerville Community Church Preschool,"1214 E Pfennig Ln, Pflugerville, TX 78660",5,30.4565,-97.6139199,78660
789,First Presbyterian Day School,"8001 Mesa Dr, Austin, TX 78731",4.5,30.36946,-97.75819,78731
790,Rally Ready Driving School,"304 Blue Jay Rd, Dale, TX 78616",5,29.99810425,-97.55367004,78616
791,Northwest Spanish School,"12101 W Parmer Ln, Ste 201, Cedar Park, TX 78613",5,30.52153628,-97.77458082,78613
792,Avenue Five Institute,"8620 Burnet Rd, Ste 300, Austin, TX 78757",4,30.3693344,-97.72881167,78757
793,Baldwin Beauty Schools,"8440 Burnet Rd, Ste 140, Austin, TX 78757",3.5,30.3663155,-97.7291946,78757
794,Abrakadoodle,"Austin, TX 78704",4.5,30.24350166,-97.76557159,78704
795,Bright Bee Montessori,"900 Nelson Ranch Rd, Cedar Park, TX 78613",5,30.495,-97.83638,78613
796,Bright Beginnings Schoolhouse,"1600 Black Bear Dr, Manchaca, TX 78652",5,30.1369914,-97.8439986,78652
797,Casa De Ninos Bilingual Montessori School,"13584 Pond Springs Rd, Austin, TX 78729",4,30.45358,-97.79035,78729
798,School of Rock,"2525 W Anderson Ln, Ste 138, Austin, TX 78757",5,30.35532343,-97.73268637,78757
799,Solid Foundation Preschool,"2441 County Rd 112, Round Rock, TX 78665",5,30.56204587,-97.62968201,78665
800,British Swim School at 24 Hour Fitness - Austin NW,"10616 Research Blvd, Austin, TX 78759",5,30.397413,-97.747868,78759
801,Capitol CHL,"Austin, TX 78737",5,30.19815063,-97.98445892,78737
802,Club Z,"12741 Research Blvd, Austin, TX 78759",4,30.43403244,-97.76647949,78759
803,Ashlie's Imagination Station Preschool,"12502 Scissortail Dr, Manchaca, TX 78652",4.5,30.135597,-97.829407,78652
804,Hello World,"Austin, TX 73301",5,30.21939087,-97.74754333,73301
805,Texas Driving School-Kyle,"1501 Bunton Creek Rd, Ste 107, Kyle, TX 78640",1.5,29.99807515,-97.84964015,78640
806,Central Texas Youth Ballet,"707 W Hwy 290, Dripping Springs, TX 78620",5,30.19223753,-98.09829505,78620
807,Dancers Workshop,"11150 Research Blvd, Ste 205, Austin, TX 78759",4.5,30.406806,-97.746772,78759
808,Austin Driving School,"10401 Anderson Mill Rd, Austin, TX 78750",1.5,30.446514,-97.805618,78750
809,Tap-n-Toe School of Dance,"4308 N Quinlan Park Rd, Austin, TX 78732",5,30.38275,-97.8843799,78732
810,Forza Campiones,"1909 Hydro Dr, Austin, TX 78728",5,30.43077932,-97.68222945,78728
811,Nameless Valley Ranch Summer Camp,"23421 Nameless Rd, Leander, TX 78641",4,30.5270042,-97.9279479,78641
812,KIS Education,"1645 Main St, Ste A, Buda, TX 78610",4,30.08824348,-97.82282257,78610
813,Laugh and Learn Mother's Day Out,"602 W Center St, Kyle, TX 78640",5,29.9892806,-97.8805455,78640
814,British Swim School Williamson,"Round Rock, TX 78665",3.5,30.56114769,-97.68193054,78665
815,EduCenter by Nets,"1900 Cypress Creek Rd, Ste 101, Cedar Park, TX 78613",5,30.4748993,-97.8405991,78613
816,Skillpoint Alliance,"8868 Research Blvd, Ste 505, Austin, TX 78758",3.5,30.369182,-97.7213,78758
817,Children's Lighthouse Cedar Park,"1801 Bagdad Rd, Cedar Park, TX 78613",3,30.5284359,-97.845198,78613
818,My Little Treasures,"7900 Portland Trl, Austin, TX 78729",5,30.45918,-97.75457,78729
819,Nurture Family Counseling,"201 S Lakeline Blvd, Ste 604, Cedar Park, TX 78613",5,30.500282,-97.848358,78613
820,Frost Driving School,"2805 N Lp 121, Ste C, Belton, TX 76513",4.5,31.086365,-97.468005,76513
821,Aveda Arts & Sciences Institute - Austin,"6001 Middle Fiskville Rd, Austin, TX 78752",3,30.3225615,-97.70925144,78752
822,Learn and Play Preschool,"9207 Amanda Dr, Austin, TX 78729",5,30.4609203,-97.7756729,78729
823,Extend-A-Care For Kids,"9400 Texas Oaks Dr, Austin, TX 78748",5,30.17529,-97.81435,78748
824,Huntington Learning Center Round Rock,"2800 S Interstate 35, Ste 150, Round Rock, TX 78681",4,30.48159123,-97.67781229,78681
825,Primrose School of Four Points,"6606 Sitio Del Rio Blvd, Austin, TX 78730",4.5,30.391451,-97.843235,78730
826,Inside Outside School,"5530 Killingsworth Ln, Pflugerville, TX 78660",4.5,30.39644217,-97.59825351,78660
827,The Expedition School,"Austin, TX 78702",4.5,30.24874957,-97.72781422,78702
828,Tree House Early Learning Center,"989 Old McDade Rd, Elgin, TX 78621",5,30.33765,-97.35451,78621
829,Camp Fire,"1603 E 38th 1/2 St, Austin, TX 78722",3,30.29185677,-97.71444702,78722
830,Mariposa Montessori School,"3338 Paisano Trl, Austin, TX 78745",4.5,30.2089,-97.828874,78745
831,Mathnasium,"110 N Interstate 35, Ste 350, Round Rock, TX 78681",5,30.5081518,-97.6865693,78681
832,Sacred Heart Catholic School,"5909 Reicher Dr, Austin, TX 78723",5,30.30485244,-97.6756636,78723
833,Katherine Anne Porter School,"515 Fm 2325, Wimberley, TX 78676",3,30.0030098,-98.10691071,78676
834,Gap-Plc,"12108 Salem House Way, Austin, TX 78753",2,30.38904591,-97.66252941,78753
835,Hack Reactor Austin,"119 Nueces St, Austin, TX 78701",5,30.2655566,-97.7496985,78701
836,Kids 'R' Kids Learning Academy of North Austin,"15111 Avery Ranch Blvd, Austin, TX 78717",4.5,30.498569,-97.772176,78717
837,Baby Signs by Tina C,"Austin, TX 78731",5,30.35551,-97.75197,78731
838,The Children's Courtyard on Harris Branch Parkway,"11012 Harris Branch Parkway, Austin, TX 78754",2.5,30.34444809,-97.61419678,78754
839,Wiggles N Giggles Child Development Center,"374 Fm 1209, Bastrop, TX 78602",5,30.12878036,-97.43039703,78602
840,INIC Preschool - Spanish Immersion,"2100 W William Cannon Dr, Ste L, Austin, TX 78745",4.5,30.20364132,-97.80823565,78745
841,Children's Discovery Center,"4112 Duval St, Austin, TX 78751",4.5,30.30344,-97.7271899,78751
842,Gray Whale Swim School,"Round Rock, TX 78681",5,30.51604,-97.6943,78681
843,Learning Lions Christian School,"1168 Walter Hoffman Rd, Cedar Creek, TX 78612",5,30.055322,-97.4693955,78612
844,Highland Park Elementary School,"428 Kingston Lacy Blvd, Pflugerville, TX 78660",5,30.47696882,-97.61426385,78660
845,Bright Horizons Family Center at Braker Lane,"2411 W Braker Ln, Austin, TX 78758",4,30.38965,-97.71751,78758
846,Tom's Dive & Swim,"5909 Burnet Rd, Austin, TX 78757",5,30.33518,-97.73926,78757
847,Happy Hearts Bilingual Learning Center,"1112 W Slaughter Ln, Austin, TX 78748",4,30.17430115,-97.81240845,78748
848,School of Rock,"4500 E Palm Valley Blvd, Ste 136, Round Rock, TX 78665",5,30.533108,-97.616333,78665
849,Austin Driving School,"100 12th St Ste, Ste 104, Pflugerville, TX 78660",1.5,30.44345,-97.630627,78660
850,Crystal Challenges,"1509 Rhapsody Ridge Dr, Cedar Park, TX 78613",5,30.48204994,-97.8502121,78613
851,College Funding Specialists,"12885 N Hwy 183, Austin, TX 78750",2.5,30.436759,-97.772484,78750
852,Stepping Stone School - Pflugerville,"2001 Wells Branch Pkwy, Austin, TX 78728",4.5,30.43456,-97.68162,78728
853,Cheer Skillz Academy,"407 W 9th St, Taylor, TX 76574",5,30.5750253,-97.4135598,76574
854,Crestview United Methodist Preschool,"1300 Morrow St, Austin, TX 78757",5,30.34756851,-97.72306061,78757
855,Band Aid School of Music,"2309 Thornton,, Studio E, Austin, TX 78704",4,30.24480744,-97.77145483,78704
856,Austin Film and Maker Camp,"3315 El Salido Pkwy, Cedar Park, TX 78613",2,30.460145,-97.827369,78613
857,Childrens Garden Preschool,"2100 S Bagdad Rd, Leander, TX 78641",4,30.54742038,-97.85203798,78641
858,Ms Cathy Swim Austin,"300 Woodlake Cir, Austin, TX 78733",4.5,30.32471,-97.87458,78733
859,Barbeques Galore Cooking School,"12918 Shops Pkwy, Ste 500, Bee Cave, TX 78738",4,30.30715,-97.94472,78738
860,Casey Elementary,"9400 Texas Oaks Dr, Austin, TX 78748",3.5,30.17705761,-97.81471235,78748
861,The Concordia MBA,"11400 Concordia University Dr, Austin, TX 78726",2.5,30.42014,-97.84012,78726
862,College Tutors,"4412 Spicewood Springs Rd, Ste 104, Austin, TX 78759",3,30.37335185,-97.75820441,78759
863,Pflugerville Driving School,"1501 W Pecan St, Ste 104, Pflugerville, TX 78660",4,30.44692013,-97.63700492,78660
864,Extend-A-Care For Kids,"8301 Furness Dr, Austin, TX 78753",2,30.3423367,-97.68846956,78753
865,Central Market - Westgate,"4477 S Lamar Blvd, Austin, TX 78745",4,30.23124525,-97.79716657,78745
866,Apple Tree Learning Center,"4630 W Gate Blvd, Austin, TX 78745",3.5,30.2299,-97.8014,78745
867,Stepping Stone School - Plum Creek/Buda,"1020 Lightfoot St, Kyle, TX 78640",3.5,30.027373,-97.889162,78640
868,The Sunshine Cottage Preschool and Development Center,"402 Lewis Ln, Buda, TX 78610",4,30.13576508,-97.86830139,78610
869,Harmony Science Academy Cedar Park,"12200 Anderson Mill Rd, Austin, TX 78726",2.5,30.45767674,-97.83209659,78726
870,Winning Learners,"6705 Hwy 290, Ste 502-223, Austin, TX 78735",5,30.2338066,-97.8663559,78735
871,Lasting Learners Academy,"536 S Brook Dr, Leander, TX 78641",5,30.58574,-97.86892,78641
872,The Children's Courtyard of Austin,"11718 Metric Blvd, Austin, TX 78758",3,30.39805794,-97.70580292,78758
873,Jackie's Performing Arts Preschool,"11530 Manchaca Rd, Austin, TX 78748",2.5,30.152399,-97.833837,78748
874,Primrose School of West Lake Hills,"3423 Bee Cave Rd, Ste A, Austin, TX 78746",3.5,30.275262,-97.803876,78746
875,Montessori Kids Universe - Hutto,"2100 Muirfield Bend Dr, Ste 100, Hutto, TX 78634",4.5,30.50533,-97.58094,78634
876,Del Valle Independent School District,"5604 Fm 1327, Creedmoor, TX 78610",1,30.089175,-97.722266,78610
877,The Learning Experience - Leander,"248 W Metro Rd, Leander, TX 78641",4.5,30.586242,-97.859537,78641
878,Virginia College,"14200 N Interstate Hwy 35, Austin, TX 78728",1,30.431902,-97.671239,78728
879,Learning Tree Day School,"2106 Rawhide Dr, Round Rock, TX 78681",4,30.488618,-97.681328,78681
880,Central Texas Gun Works,"321 W Ben White Blvd, Ste 203, Austin, TX 78704",4,30.22379971,-97.76735264,78704
881,Bright Kids Child Development Center,"10713 N Fm 620, Ste 101, Austin, TX 78726",5,30.4466303,-97.83117347,78726
882,Avenue Five Institute,"500 E Ben White Blvd, Austin, TX 78704",5,30.22186588,-97.75626138,78704
883,Primrose School of Round Rock North,"4271 Sunrise Rd, Round Rock, TX 78665",4,30.560341,-97.678924,78665
884,The Episcopal Church of the Holy Spirit,"301 Hays Country Acres Rd, Dripping Springs, TX 78620",4,30.191596,-98.041584,78620
885,Vista Ridge High School,"200 S Vista Ridge Blvd, Cedar Park, TX 78613",3,30.51651517,-97.7878702,78613
886,Tree House Kids,"16051 Dessau Rd, Ste H, Pflugerville, TX 78660",4,30.434162,-97.615279,78660
887,Child's Day,"2525 Wallingwood Dr, Ste 100, Austin, TX 78746",4,30.263924,-97.784543,78746
888,Griffin School,"5001 Evans Ave, Austin, TX 78751",4,30.31288,-97.71933,78751
889,The Love of China,"8650 Spicewood Springs Rd, Ste 116, Austin, TX 78759",3.5,30.43327,-97.77172,78759
890,Lake Life,"Austin, TX 78730",4,30.3649407,-97.83736921,78730
891,Gattis Elementary School,"2920 Round Rock Ranch Blvd, Round Rock, TX 78665",3,30.499079,-97.641564,78665
892,The Fellowship Christian Academy,"3379 Gattis School Rd, Round Rock, TX 78664",4.5,30.49558052,-97.62887926,78664
893,The Goddard School,"2064 Kauffman Lp, Georgetown, TX 78628",3.5,30.64114252,-97.81878551,78628
894,ISA - International Studies Abroad,"5301 Southwest Pkwy, Austin, TX 78735",2,30.2421177,-97.8420947,78735
895,Ebenezer Child Development Center,"1014 E 10th St, Austin, TX 78702",3.5,30.26876,-97.72997,78702
896,First Class Child Development Center,"1901 National Park Blvd, Austin, TX 78747",1.5,30.15484,-97.788924,78747
897,Williamson County Infant Swim,"Round Rock, TX 78664",4.5,30.51038,-97.6655,78664
898,Faraday's Kitchen Store,"12918 Shops Pkwy, Ste 540, Bee Cave, TX 78738",4.5,30.30715,-97.94473,78738
899,Greater Austin Dance Academy,"2641 Forest Creek Dr, Round Rock, TX 78665",4,30.5056304,-97.6443796,78665
900,House of Little Angels,"5611 W Gate Blvd, Austin, TX 78745",2.5,30.21952555,-97.8064179,78745
901,My Friend's House Child Development Center,"7050 Village Center Dr, Austin, TX 78731",5,30.35389,-97.756471,78731
902,Capital City Kids 2,"1900 Gregg Ln, Manor, TX 78653",3,30.401835,-97.633382,78653
903,One of the Kids,"2105 E Park St, Cedar Park, TX 78613",1,30.51764815,-97.79165643,78613
904,Hilltop Children's Center,"9415 W Hwy 29, Liberty Hill, TX 78642",4.5,30.6437897,-97.8451942,78642
905,Art71 Studio,"4208 Crawford Rd, Spicewood, TX 78669",5,30.36534,-98.06617,78669
906,Stepping Stone School - Parmer/McNeil,"7700 West Parmer Ln, Austin, TX 78729",4,30.455965,-97.749692,78729
907,The Learning Experience - Cedar Park,"800 W Whitestone Blvd, Cedar Park, TX 78613",4.5,30.51783307,-97.83796196,78613
908,Emerson Academy,"1 Valley View Dr, Round Rock, TX 78664",4,30.49795,-97.60475,78664
909,Honey Bear Kindercare,"2601 Bliss Spillar Rd, Manchaca, TX 78652",5,30.13646067,-97.85887284,78652
910,Brass Ovaries,"6039 N Interstate Hwy 35, Ste B, Austin, TX 78723",4.5,30.321408,-97.705356,78723
911,Explorers Adventure School,"2105 Ranch Rd 620 S, Lakeway, TX 78734",5,30.34129,-97.96404,78734
912,First Foundations Preschool,"11902 Anderson Mill Rd, Austin, TX 78726",5,30.456979,-97.826027,78726
913,Renzi Tutoring and Guitar,"4 Galloping Rd, Round Rock, TX 78681",5,30.51504,-97.69082,78681
914,Little Munchkins,"2020 Denton Dr, Austin, TX 78758",4.5,30.38530692,-97.71290593,78758
915,Hope Children's Center,"11512 Olson Dr, Austin, TX 78750",5,30.44548863,-97.80548423,78750
916,zero gravity gymnastics,"2041 S Hwy 183 Leander, Leander, TX 78641",4,30.551355,-97.842532,78641
917,ReadyGoSwim,"1201 S Interstate 35, Round Rock, TX 78664",4.5,30.50033,-97.6788032,78664
918,First Class Child Development Center,"1215 Old Black Colony Rd, Buda, TX 78610",3.5,30.0854978,-97.8743052,78610
919,Champions School of Real Estate - Austin Campus,"13801 Ranch Rd 620 N, Ste 100, Austin, TX 78717",4.5,30.47322607,-97.7721633,78717
920,Austin Montessori School,"5006 Sunset Trl, Austin, TX 78745",3.5,30.22763543,-97.8050374,78745
921,Stepping Stone School - Northcross/Domain,"8419 Bowling Green, Austin, TX 78757",4.5,30.36563,-97.72702,78757
922,Velocity Music Academy,"4301 West William Cannon Dr, Ste B-260, Austin, TX 78749",5,30.22141318,-97.84108,78749
923,Kiddie Academy of Pflugerville,"2617 Kelly Ln, Pflugerville, TX 78660",4,30.46527788,-97.58087951,78660
924,AOMA Graduate School of Integrative Medicine,"4701 W Gate Blvd, Austin, TX 78745",4,30.2286539,-97.8006358,78745
925,Pathways Child Development Center,"1100 Egger Ave, Round Rock, TX 78664",3.5,30.51917,-97.67386,78664
926,Wilco Driving School,"201 S Lakeline Blvd, Ste 901, Cedar Park, TX 78613",5,30.50028,-97.84837,78613
927,Primrose School of Crystal Falls,"1781 Osage Dr, Leander, TX 78641",3,30.53830756,-97.8626436,78641
928,Serendipity Learning Center,"900 Nelson Ranch Rd, Cedar Park, TX 78613",3,30.495,-97.83638,78613
929,National American University,"13801 Burnet Rd, Ste 300, Austin, TX 78727",3.5,30.43789291,-97.69709778,78727
930,SoccerZone Lakeline,"920 Old Mill Rd, Cedar Park, TX 78613",4,30.4753,-97.82303,78613
931,Hatch House School,"125 S Lakeline Blvd, Cedar Park, TX 78613",3.5,30.500605,-97.847853,78613
932,Aesthetic Medical Educators Training,"320 N Main St, Ste 102, Buda, TX 78610",2,30.08345,-97.84259,78610
933,Starbright Preschool,"3900 Valley View Rd, Austin, TX 78704",3.5,30.23359,-97.78366,78704
934,Austin Dental Assistant School,"9600 Escarpment Blvd, Ste 770, Austin, TX 78749",4.5,30.202987,-97.8789819,78749
935,Austin Youth Fitness,"Austin, TX 78703",5,30.29414362,-97.76570254,78703
936,Bright Start Learning Center,"751 S Bell Blvd, Cedar Park, TX 78613",4.5,30.50245,-97.8182999,78613
937,Heartsong Music,"2913 Northland Dr, Austin, TX 78757",5,30.3588512,-97.734385,78757
938,Peace Lutheran Church,"10625 N Fm 620, Austin, TX 78726",5,30.44568,-97.831314,78726
939,Jardín del Saber,"Leander, TX 78641",5,30.55635643,-97.86435699,78641
940,Creative Kids Preschool,"208 Hwy 79 E, Hutto, TX 78634",2.5,30.544079,-97.542219,78634
941,Hays Communities YMCA,"465 Buda Sportsplex Dr, Buda, TX 78610",3.5,30.10652388,-97.87719727,78610
942,Blooming Scholars Montessori School,"405 W Main St, Round Rock, TX 78664",5,30.50726,-97.68226,78664
943,Emler Swim School of Austin - Anderson Mill,"13492 N Hwy 183, Ste 500, Austin, TX 78750",4.5,30.449406,-97.792079,78750
944,Reed Elementary School,"1515 Little Elm Trl, Cedar Park, TX 78613",4.5,30.49368584,-97.81746581,78613
945,Austin Independent School District,"5408 Westminster Dr, Austin, TX 78723",5,30.30676079,-97.69068146,78723
946,Total Rider Motorcycle,"304 Carlos G Parker Blvd NW, Taylor, TX 76574",4,30.6001282,-97.4304775,76574
947,Austin Dental Assistant School,"209 Denali Pass, Ste B, Cedar Park, TX 78613",4.5,30.521338,-97.775963,78613
948,Kiddie Academy of Buda,"2448 Main St, Buda, TX 78610",3,30.08926,-97.80979,78610
949,The Learning Experience - Brushy Creek,"15542 Ranch Rd 620 N, Austin, TX 78717",4,30.48332883,-97.74326068,78717
950,Star Montessori School,"3115 Kenai Dr, Bldg 1, Cedar Park, Austin, TX 78613",3,30.523245,-97.776189,78613
951,National Driver Training,"1901 Ranch Rd 620N, Lakeway, TX 78734",3.5,30.3443699,-97.9650803,78734
952,Cedar Park Montessori,"400 E Whitestone Blvd, Cedar Park, TX 78613",5,30.52153,-97.82557,78613
953,Stonepoint Driving School,"1320 Arrow Point Dr, Ste 501-Bldg V, Cedar Park, TX 78613",3.5,30.53549242,-97.80115005,78613
954,Whitestone Elementary School,"2000 Crystal Falls Pkwy, Leander, TX 78641",1,30.54777751,-97.87002109,78641
955,Sylvan Learning of Round Rock,"2000 South Ih 35, Q14, Round Rock, TX 78681",3,30.49055477,-97.68011031,78681
956,Cornerstone Child Development Center,"1204 Pecan St W, Pflugerville, TX 78660",1,30.445,-97.63092,78660
957,Esquina Tango,"209 Pedernales, Austin, TX 78702",4.5,30.25592613,-97.71575928,78702
958,A+ Kids Playschool,"17257 Tobermory Dr, Pflugerville, TX 78660",5,30.4683,-97.64013,78660
959,Country Home Learning Center,"13120 US Hwy 183 N, Austin, TX 78750",4.5,30.439933,-97.781174,78750
960,Brodie Child Develpoment Center,"8105 Brodie Ln, Austin, TX 78745",1,30.202024,-97.83757,78745
961,Tumble Tech,"1301 Toro Grande Ave, Cedar Park, TX 78613",4,30.54205381,-97.77689149,78613
962,Emler Swim School of Round Rock,"2800 I-35 Frontage Rd, Ste 190, Round Rock, TX 78681",4.5,30.48170088,-97.67685263,78681
963,Shirley McPhail School of Dance,"8018 Mesa Dr, Austin, TX 78731",4.5,30.37059423,-97.75877321,78731
964,Round Rock Montessori School,"1818 Sam Bass Rd, Round Rock, TX 78681",4,30.522632,-97.704185,78681
965,Barton Creek Elementary - Eanes Independent School District,"1314 Patterson Rd, Austin, TX 78733",5,30.30730433,-97.8808706,78733
966,The Homegrown School,"16407 Decker Creek Dr, Manor, TX 78653",5,30.249916,-97.558326,78653
967,Northwest Family Branch YMCA,"5807 McNeil Dr, Austin, TX 78729",3.5,30.44606557,-97.73350439,78729
968,More Than a Teacher,"12034 Research Blvd, Ste 5, Austin, TX 78759",2.5,30.4253352,-97.7528654,78759
969,Austin Reptile Shows,"Leander, TX 78641",5,30.53433228,-97.91201782,78641
970,Total Rider,"4601 Pecan Brook Dr, Wilhelmina Delco Ctr, Austin, TX 78704",4.5,30.31778,-97.6607499,78704
971,Twin Lakes Family YMCA,"204 East Little Elm Trl, Cedar Park, TX 78613",3.5,30.49420812,-97.81039036,78613
972,Peak Performance Martial Arts,"500 Brushy Creek Rd, Ste 504, Cedar Park, TX 78613",3.5,30.504365,-97.8136897,78613
973,"First Response Medical Training, LLC","575 Round Rock W Dr, Ste K400, Round Rock, TX 78681",1,30.504078,-97.690338,78681
974,Sprouting Star Children’s Academy,"15913 Windermere Dr, Pflugerville, TX 78660",2.5,30.44838524,-97.64727783,78660
975,PromiseLand Learning Center,"1504 E 51st St, Austin, TX 78723",4,30.305826,-97.701365,78723
976,Capital City Kids Daycare,"13107 Dessau Rd, Austin, TX 78754",2.5,30.399489,-97.640508,78754
977,Jupiter House Preschool,"1602 Medical Pkwy, Cedar Park, TX 78613",3.5,30.5301,-97.80464,78613
978,My Time Kids Academy,"3698 Ranch Rd 620 S, Ste 103, Bee Cave, TX 78738",5,30.31809,-97.95132,78738
979,Mad Science,"Austin, TX 78709",3.5,30.23,-97.85,78709
980,Aqua-Tots Swim Schools Cedar Park,"1335 E Whitestone Blvd, Bldg Y, Ste 100, Cedar Park, TX 78613",3.5,30.528657,-97.814031,78613
981,Giggles Learning Center,"15904 Central Commerce Dr, Pflugerville, TX 78660",2,30.45125,-97.65507,78660
982,Tutor Time of Austin,"6801 Dallas Drive, Austin, TX 78729",3.5,30.449552,-97.747337,78729
983,Ashley’s Playhouse,"13343 N US 183 Svrd Nb, Ste 200, Austin, TX 78750",4.5,30.44649,-97.786601,78750
984,Forest North Elementary School,"13414 Broadmeade Ave, Austin, TX 78729",1,30.470661,-97.781769,78729
985,The Learning Experience - Georgetown,"1821 Westinghouse Rd, Georgetown, TX 78626",4.5,30.58744974,-97.66052812,78626
986,The Children's Courtyard on North Mopac Expressway,"12336 North Mopac Expressway, Austin, TX 78758",3.5,30.41737,-97.70635,78758
987,Kumon Math and Reading Center of Austin - Avery Ranch,"14900 Avery Ranch Blvd, Ste A-200, Austin, TX 78717",5,30.49846,-97.77788,78717
988,Zilker Elementary School,"1900 Bluebonnet Ln, Austin, TX 78704",5,30.25261358,-97.77450676,78704
989,General Assembly Austin,"600 Congress Ave, Austin, TX 78701",4,30.26847,-97.74312,78701
990,Kiddie Academy of Round Rock,"5080 North Aw Grimes Blvd, Round Rock, TX 78665",3,30.573651,-97.651617,78665
991,Cedar Park Charter Academy,"201 Buttercup Creek Blvd, Cedar Park, TX 78613",3,30.50361289,-97.82194544,78613
992,Texas School for the Deaf,"1102 S Congress Ave, Austin, TX 78704",4.5,30.253445,-97.751262,78704
993,College Nannies and Tutors Cedar Park,"11901 W Parmer Ln, Ste 220, Cedar Park, TX 78613",5,30.519482,-97.774284,78613
994,Stepping Stone School - McNeil/Jollyville,"6616 McNeil Dr, Austin, TX 78729",4.5,30.43912,-97.75644,78729
995,Buda's Bright Beginnings,"1750 Fm 967, Buda, TX 78610",4,30.10102171,-97.85222748,78610
996,Kids R Kids of Round Rock,"1455 Red Bud Ln, Round Rock, TX 78664",3.5,30.50782,-97.61269,78664
997,Total Rider - Motorcycle Safety Training,"500 Vfw Rd, Austin, TX 78753",4,30.392645,-97.66889,78753
998,Children's Lighthouse Round Rock,"4350 E Old Settlers Blvd, Round Rock, TX 78665",4.5,30.54711548,-97.616971,78665
999,Papas And Nanas Daycare,"11301 Hornsby St, Austin, TX 78753",1,30.38028,-97.6832,78753
1000,CHASCO Family YMCA,"1801 N Is Hwy 35, Round Rock, TX 78664",3,30.52630771,-97.68810007,78664
