park_id,park_name,park_address,park_ratings,latitude,longitude,zipcode
1,Pease Park,"1100 Kingsburry St, Austin, TX 78799",4.5,30.28141849,-97.75193428,78799
2,Zilker Park,"2100 Barton Springs Rd, Austin, TX 78704",4.5,30.26685246,-97.77584898,78704
3,Town Lake Metropolitan Parks,"Austin, TX 78701",5,30.27089473,-97.76485992,78701
4,Mueller Lake Park,"4550 Mueller Blvd, Austin, TX 78723",4.5,30.3051045,-97.7034921,78723
5,Barton Creek Greenbelt,"3755-B Capital Of Texas Hwy, Austin, TX 78704",4.5,30.2471838,-97.81268786,78704
6,Mount Bonnell,"3800 Mt Bonnell Rd, Austin, TX 78731",4.5,30.32104,-97.7735299,78731
7,McKinney Falls State Park,"5808 Mckinney Falls Pkwy, Austin, TX 78744",4,30.18365795,-97.72219172,78744
8,Tom Hughes Park,"12714 Hughes Park Rd, Austin, TX 78732",4.5,30.39714042,-97.88055499,78732
9,Northwest District Park,"7000 Ardath St, Austin, TX 78757",4.5,30.34913383,-97.7399307,78757
10,Mayfield Park,"3505 W 35th St, Austin, TX 78703",4.5,30.3124609,-97.77061702,78703
11,Walnut Creek Metropolitan Park,"12138 N Lamar Blvd, Austin, TX 78758",4.5,30.3991227,-97.6794893,78758
12,Alliance Children’s Garden,"1000 Barton Springs Rd, Butler Park, Austin, TX 78704",5,30.26188389,-97.75432805,78704
13,Hippie Hollow Park,"7000 Comanche Trl, Austin, TX 78732",4,30.4142657,-97.88651177,78732
14,Lou Neff Point,"Ann And Roy Butler Hike And Bike Trl, Austin, TX 78746",4.5,30.26713417,-97.76195917,78746
15,Emma Long Metropolitan Park,"1600 City Park Rd, Austin, TX 78730",4,30.3318538,-97.8368792,78730
16,Jacobs Well Natural Area,"1699 Mt Sharp Rd, Wimberley, TX 78676",4.5,30.039093,-98.126352,78676
17,Commons Ford Ranch Metropolitan Park,"614 Commons Ford Rd, Austin, TX 78733",4,30.336394,-97.89123,78733
18,St Edwards Park,"7301 Spicewood Springs Rd, Austin, TX 78798",4,30.407987,-97.791113,78798
19,Roy G Guerrero Colorado River Park,"400 Grove Blvd, Austin, TX 78741",4.5,30.241888,-97.701233,78741
20,Dick Nichols District Park,"8011 Beckett Rd, Austin, TX 78749",4.5,30.21241179,-97.8598902,78749
21,Ramsey Park and Pool,"4301 Rosedale Ave, Austin, TX 78756",4.5,30.31329,-97.74388,78756
22,Waterloo Greenway,"1111 Red River, Austin, TX 78701",5,30.2715314,-97.7349442,78701
23,Shipe Park,"4400 Avenue G, Austin, TX 78751",4,30.30709,-97.72748,78751
24,Arboretum Duck Pond,"10000 Research Blvd, Austin, TX 78759",3.5,30.39282,-97.74701,78759
25,East Metropolitan Park,"18701 Blake Manor Rd, Manor, TX 78653",4.5,30.2883655,-97.5230464,78653
26,Rollingwood Municipal Park,"403 Nixon Dr, Austin, TX 78746",4.5,30.27535061,-97.78826794,78746
27,Mansfield Dam Park,"4370 Mansfield Dam Rd, Austin, TX 78734",3.5,30.39639451,-97.91120768,78734
28,Little Stacy Park,"1400 Alameda Dr, Austin, TX 78704",4.5,30.24661144,-97.74334431,78704
29,Lindshire Park,"10228 Lindshire Ln, Austin, TX 78748",4.5,30.1748806,-97.8409345,78748
30,Katherine Fleischer Park,"2106 Klattenhoff Dr, Austin, TX 78728",4.5,30.44278874,-97.67894364,78728
31,Walter E Long Park,"6614 Blue Buff Rd, Austin, TX 78724",4,30.2823591,-97.6088665,78724
32,Adams-Hemphill Park,"201 W 30th St, Austin, TX 78705",4,30.29469,-97.73864,78705
33,Brushy Creek Lake Park,"3300 Brushy Creek Rd, Austin, TX 78717",4.5,30.50824371,-97.77223421,78717
34,Pace Bend Park,"2805 Pace Bend Rd, Spicewood, TX 78734",4,30.4596509,-98.0192471,78734
35,Mary Moore Searight Metropolitan Park,"907 Slaughter Ln, Austin, TX 78748",4.5,30.16397903,-97.80756536,78748
36,Bull Creek Greenbelt,"7806 N Capital Of Texas Hwy, Austin, TX 78731",4.5,30.3781,-97.78014,78731
37,Dittmar Recreation Center,"1009 W Dittmar Rd, Austin, TX 78745",4,30.18466,-97.80232,78745
38,Lost Creek Park,"1305 Quaker Ridge Dr, Austin, TX 78746",4.5,30.28348047,-97.83358767,78746
39,West Enfield Park,"2008 Enfield Rd, Austin, TX 78703",4,30.28650306,-97.76497163,78703
40,Bull Creek District Park,"6701 Lakewood Dr, Austin, TX 78731",4,30.36868479,-97.7844607,78731
41,Springwoods MUD Park,"9117 Anderson Mill Rd, Austin, TX 78729",4.5,30.45143,-97.7806,78729
42,Butler District Park,"1000 Barton Springs Rd, Austin, TX 78701",4.5,30.26217833,-97.7544394,78701
43,Balcones District Park,"12017 Amherst Dr, Austin, TX 78759",4,30.41304,-97.72032,78759
44,Stone Hill Park,"1124 Town Center Dr, Pflugerville, TX 78660",4.5,30.4684249,-97.6041399,78660
45,Allen Park,"6413 Westside Dr, Austin, TX 78731",4,30.34397,-97.75432,78731
46,Hatley Park,"2603 Rollingwood Dr, Rollingwood, TX 78746",4.5,30.271889,-97.78359,78746
47,Wooldridge Park,"400-498 W 9th St, Austin, TX 78701",4,30.27236905,-97.7456135,78701
48,Bailey Park,"1101 W 33rd St, Austin, TX 78705",4,30.30221171,-97.74710154,78705
49,Old Baldy,"33 La Toya Cir, Wimberley, TX 78676",4.5,30.009812,-98.11615,78676
50,Garrison District Park,"6001 Manchaca Rd, Austin, TX 78745",4,30.21202181,-97.80052203,78745
51,Wildflower Park,"5000 Tiger Lily Way, Austin, TX 78739",5,30.19029886,-97.86983811,78739
52,Hamilton Pool Preserve,"24300 Hamilton Pool Rd, Dripping Springs, TX 78620",4,30.34327165,-98.1319465,78620
53,Green Meadows Park,"2357 Green Meadows Ln, Buda, TX 78610",4.5,30.06273,-97.81535,78610
54,Stillhouse Hollow Nature Preserve,"7810 Sterling Dr, Austin, TX 78731",5,30.36910374,-97.762094,78731
55,Elizabeth Milburn Park,"1901 Sun Chase Blvd, Cedar Park, TX 78613",4.5,30.4774985,-97.84039272,78613
56,Lakeline Park,"1510 Alexis Dr, Cedar Park, TX 78613",5,30.48969,-97.81463,78613
57,Rosewood Park and Pool,"2300 Rosewood Ave, Austin, TX 78702",4,30.2705428,-97.7145276,78702
58,Cat Hollow Park,"8600 O'Connor Dr, Austin, TX 78717",5,30.504081,-97.731652,78717
59,Windy Point Park,"6506 Bob Wentz Park Rd, Austin, TX 78732",3.5,30.41633305,-97.89892541,78732
60,John Gaines Park,"2708 Sorin St, Austin, TX 78723",5,30.29317107,-97.6966012,78723
61,Nicholas Dawson Park,"614 Gibson St, Austin, TX 78704",4.5,30.252552,-97.754851,78704
62,Domain Central Park,"11100 Alterra Pkwy, Austin, TX 78758",4,30.39724535,-97.72222188,78758
63,Sparky Park,"3701 Grooms St, Austin, TX 78705",4,30.29903412,-97.73219299,78705
64,Blue Hole Regional Park,"100 Blue Hole Ln, Wimberley, TX 78676",4,30.001188,-98.090703,78676
65,Lake Pflugerville,"18216 Weiss Ln, Pflugerville, TX 78660",4,30.44303,-97.56444,78660
66,Old Settlers Park,"3300 E Palm Valley Blvd, Round Rock, TX 78665",4,30.52640996,-97.63493634,78665
67,The Turtle Pond,"2300-2328 University Ave, Austin, TX 78712",4.5,30.2866077,-97.7394791,78712
68,Mueller Southwest Greenway,"2501 Tom Miller St, Austin, TX 78723",4.5,30.28927924,-97.70235728,78723
69,Gracywoods Park,"12133 Metric Blvd, Austin, TX 78758",4.5,30.404962,-97.696346,78758
70,Westcave Outdoor Discovery Center,"24814 Hamilton Pool Rd, Round Mountain, TX 78663",5,30.33736727,-98.14090624,78663
71,Govalle Park,"Bolm Rd, Austin, TX 78721",3.5,30.2594932,-97.69184858,78721
72,Muleshoe Bend Recreation Area,"2820 County Rd 414, Spicewood, TX 78669",4.5,30.48696546,-98.09883331,78669
73,Triangle Park,"4800 Guadalupe St, Austin, TX 78798",3.5,30.31484127,-97.73040734,78798
74,South Austin Park,"1100 Cumberland Rd, Austin, TX 78704",4.5,30.24174,-97.76846,78704
75,Seiders Springs Park,"1380 W 34th St, Austin, TX 78705",4.5,30.30533678,-97.74802344,78705
76,Central Park Walking Track,"Guadalupe St And 38th St, Austin, TX 78798",5,30.30418058,-97.73791226,78798
77,Play For All Abilities Park,"151 N A W Grimes Blvd, Round Rock, TX 78664",5,30.51484886,-97.65308374,78664
78,Onion Creek District Park,"7001 Onion Creek Dr, Austin, TX 78744",4,30.16826817,-97.74626543,78744
79,Oak Parke Greenbelt,"100 Idalia Dr, Austin, TX 78749",4.5,30.18133,-97.86078,78749
80,Eastwoods Park,"3001 Harris Park Ave, Austin, TX 78705",4,30.290519,-97.731825,78705
81,Longhorn Cavern State Park,"6211 Park Rd 4 S, Burnet, TX 78611",4.5,30.68286827,-98.35086832,78611
82,Windmill Run Park,"8102 Kirkham Dr, Austin, TX 78736",4.5,30.2375409,-97.89218904,78736
83,Cypress Falls Swimming Hole,"50 Marina Cir, Wimberley, TX 78676",4,30.020376,-98.115953,78676
84,Blue Hole Park,"101 S Rock St, Georgetown, TX 78626",4,30.64215463,-97.67904181,78626
85,Colorado River Wildlife Sanctuary,"5827 Levander Lp, Austin, TX 78702",4,30.24677393,-97.695284,78702
86,Mabel Davis District Park,"3427 Parker Ln, Austin, TX 78741",4,30.22010906,-97.74081871,78741
87,Fiesta Gardens,"2101 Jesse E Segovia St, Austin, TX 78702",4,30.24964,-97.7248199,78702
88,Pepe's Park,"414 Attayac St, Austin, TX 78702",5,30.26330915,-97.72989687,78702
89,Bee Cave Sculpture Park,"13333 Hwy 71, Bee Cave, TX 78738",4,30.306413,-97.947273,78738
90,Wilbarger Creek Park,"1211 Kingston Lacy Blvd, Pflugerville, TX 78660",5,30.4698678,-97.61508586,78660
91,Waterloo Park,"403 E 15th St, Austin, TX 78701",3.5,30.27266596,-97.73763293,78701
92,Bartholomew District Park,"1701-1723 Greenbrook Pkwy, Austin, TX 78723",3.5,30.305597,-97.696883,78723
93,The Tom Lasseter South Lamar Neighborhood Park,"3000 Del Curto, Austin, TX 78704",4,30.24132538,-97.7790451,78704
94,Riata Park,"12501 Riata Trace Pkwy, Austin, TX 78727",4,30.43079665,-97.7397235,78727
95,Lake Creek Trail,"Lake Creek Trl, Austin, TX 78729",4,30.46767854,-97.77750593,78729
96,Swede Hill Pocket Park,"907 E 14th St, Austin, TX 78702",3,30.27409237,-97.72961387,78702
97,Bob Wentz Park At Windy Point,"7144 Comanche Trl, Austin, TX 78732",4,30.41506919,-97.89657981,78732
98,West Austin Park & Wading Pool,"1317 W 10th St, Austin, TX 78703",4,30.27653881,-97.75796584,78703
99,Webberville Park,"2305 Park Ln, Webberville, TX 78621",4.5,30.212627,-97.495872,78621
100,Dottie Jordan Park,"2803 Loyola Ln, Austin, TX 78723",4.5,30.31407516,-97.67393947,78723
101,Pierce Park,"326 Porter St., Taylor, TX 76574",5,30.57004339,-97.40863327,76574
102,Selma Hughes Park,"12021 Selma Hughes Park Rd, Austin, TX 78732",4.5,30.337266,-97.907218,78732
103,Patterson Park and Pool,"4200 Brookview Rd, Austin, TX 78722",4,30.296127,-97.709425,78722
104,Balcones Canyonlands National Wildlife Refuge,"24518 Fm 1431, Marble Falls, TX 78654",4.5,30.585831,-98.039918,78654
105,Covert Park At Mount Bonnell,"3800 Mt Bonnell Rd, Austin, TX 78731",4.5,30.32161673,-97.77321444,78731
106,Veterans Park,"600 Pecan Ave, Round Rock, TX 78664",4.5,30.51488921,-97.67574755,78664
107,Texas Skateboarding Club,"13317 Fitzhugh Rd, Austin, TX 78737",5,30.23191,-98.00219,78737
108,Milton Reimers Ranch Park,"23610 Hamilton Pool Rd, Dripping Springs, TX 78620",4.5,30.333724,-98.12231011,78620
109,McKinney Roughs Nature Park,"1884 Hwy 71 W, Cedar Creek, TX 78612",4.5,30.135552,-97.45825768,78612
110,Benbrook Ranch Park,"1100 Halsey Dr, Leander, TX 78641",5,30.5901791,-97.8763045,78641
111,Rattan Creek Park,"7614 Elkhorn Mountain Trl, Austin, TX 78729",4.5,30.448421,-97.757151,78729
112,Gregg Hill Pocket Park,"4105 Jefferson St, Austin, TX 78731",3,30.313993,-97.74923644,78731
113,Republic Square,"422 Guadalupe St, Austin, TX 78701",4,30.26775,-97.74694,78701
114,Duncan Park,"900 W 9th St, Austin, TX 78703",4,30.274702,-97.75172,78703
115,Colorado River,"1 Riverside Dr, Austin, TX 78701",5,30.26363945,-97.75457001,78701
116,Lakewood Park,"2040 Artesian Springs Crossing, Leander, TX 78641",5,30.560449,-97.814255,78641
117,Slaughter Creek Trail,"9901 Fm 1826, Austin, TX 78737",4.5,30.206884,-97.904842,78737
118,Little Webberville Park,"910 Water St, Manor, TX 78653",4,30.23041,-97.517512,78653
119,Bright Leaf Preserve,"Ranch Rd 2222 & Creek Mountain Rd, Austin, TX 78731",4.5,30.34131,-97.77145,78731
120,Auditorium Shores - Leash-free Dog Zone,"Town Lake - South Side, Austin, TX 78704",4.5,30.26151369,-97.74982452,78704
121,Robinson Playground Park,"13340 Humphrey Dr, Austin, TX 78729",4,30.457159,-97.76133,78729
122,Alderbrook Pocket Park,"12444 Lamplight Village Ave, Austin, TX 78758",4,30.41483269,-97.69738066,78758
123,Jessica Hollis Park,"Low Water Crossing Rd, Austin, TX 78732",3.5,30.38739,-97.911661,78732
124,Round Rock West Park,"500 Round Rock W Dr, Round Rock, TX 78681",4.5,30.503228,-97.690816,78681
125,Walnut Creek Greenbelt,"2611 Park Bend Dr, Austin, TX 78757",4.5,30.40962335,-97.7080609,78757
126,Bohls Park,"200 Immanuel Rd, Pflugerville, TX 78691",4,30.43448445,-97.61176586,78691
127,Alamo Pocket Park,"2100 Alamo St, Austin, TX 78722",3.5,30.28255587,-97.72032164,78722
128,Convict Hill Quarry Park,"6511 Convict Hill Rd, Austin, TX 78749",4,30.22712,-97.87224,78749
129,Playground At The Grove,"4511 Lacey Cup Dr, Austin, TX 78731",2,30.31737234,-97.75110729,78731
130,Big Stacy Park,"700 E Live Oak St, Austin, TX 78704",4,30.240218,-97.747114,78704
131,The Watering Bowl,"820 FM-1626, Austin, TX 78748",4.5,30.1409257,-97.8291679,78748
132,Georgian Acres Neighborhood Park,"500 E Powell Ln, Austin, TX 78753",4,30.34691253,-97.69866873,78753
133,Comal Pocket Park,"300 Comal St, Austin, TX 78702",5,30.260715,-97.728226,78702
134,Lakeway City Park,"502 Hurst Creek Rd, Lakeway, TX 78734",3,30.3779,-97.9671,78734
135,Ella Wooten Park,"4015 Pinckney St, Austin, TX 78723",4,30.29206762,-97.70269311,78723
136,Chestnut Community Park,"2207 E 16th St, Austin, TX 78702",4,30.27702259,-97.71696637,78702
137,Northeast Metropolitan Park,"15500 Sun Light Near Way, Pflugerville, TX 78660",3.5,30.420534,-97.603115,78660
138,Veloway,"4900 La Crosse Ave, Austin, TX 78739",4.5,30.188088,-97.8712591,78739
139,Yard Bar,"6700 Burnet Rd, Austin, TX 78757",4,30.34303,-97.73921,78757
140,Mt Bonnell Shores,"Austin, TX 78731",3.5,30.3382874,-97.78329849,78731
141,Scofield Farms Park,"12901 Scofield Farms Dr, Austin, TX 78727",5,30.41553116,-97.68232727,78727
142,Godzilla Preserve Trail,"303 Shea Dr, Cedar Park, TX 78613",4,30.494035,-97.852241,78613
143,Red Bud Dog Park,"3569 Lake Austin Blvd, Austin, TX 78703",4,30.29087598,-97.78713942,78703
144,Creekside Park,"4300 Brushy Creek Rd, Round Rock, TX 78681",4,30.51973681,-97.73825883,78681
145,Lott Pocket Park,"1180 Curve St, Austin, TX 78702",4,30.271085,-97.72985096,78702
146,Franklin Park,"4800 Copperbend Blvd, Austin, TX 78744",4,30.1989,-97.73979,78744
147,Wells Branch Park,"14676 Wells Port Dr, Austin, TX 78728",4.5,30.44033378,-97.67609529,78728
148,Ricky Guerrero Splash Pad,"1100 Brodie St, Austin, TX 78704",3.5,30.247444,-97.76438,78704
149,Reed Park,"2614 Pecos St, Austin, TX 78703",4,30.30492,-97.7704,78703
150,Mills Pond,"15108 Wells Port Dr, Austin, TX 78728",4.5,30.44963086,-97.67942413,78728
151,Brushy Creek Sports Park,"2300 Brushy Creek Rd, Cedar Park, TX 78613",5,30.50542083,-97.7797215,78613
152,Lake Kyle Park,"700 Lehman Rd, Kyle, TX 78640",4.5,29.9867824,-97.8627729,78640
153,Ann & Roy Butler Hike & Bike Trail,"900 W Riverside Dr, Austin, TX 78704",4.5,30.26302813,-97.7506836,78704
154,River Ranch County Park,"194 Reveille Way, Liberty Hill, TX 78642",5,30.6349845,-97.91471221,78642
155,Grelle Recreation Area,"640 County Rd 412, Spicewood, TX 78669",4.5,30.4761937,-98.143626,78669
156,Nelson Park,"905 Nelson Ranch Rd, Cedar Park, TX 78613",4,30.49447,-97.83425,78613
157,Richard Moya Park,"10001 Burleson Rd, Austin, TX 78617",4.5,30.169961,-97.6699,78617
158,Boulder Trail Park,"Whitemarsh Valley Walk, Lost Creek, TX 78746",4,30.28849508,-97.83205032,78746
159,Loop 360 Boat Ramp,"5001-5099 N Capital Of Texas Hwy, Austin, TX 78746",3,30.3493003,-97.79789428,78746
160,Pioneer Crossing Park,"1628 Payton Falls Dr, Austin, TX 78754",3,30.37188184,-97.66132085,78754
161,Northwest Greenway,"1311 Philomena St, Austin, TX 78723",4,30.30114798,-97.70916354,78723
162,Woodlands Park,"8820 Big View Dr, Austin, TX 78730",5,30.3569977,-97.86372046,78730
163,Cedar Bark Park,"2525 W New Hope Dr, Cedar Park, TX 78613",4.5,30.519943,-97.869379,78613
164,Clarksville Park And Splash Pad,"1811 W 11th St, Austin, TX 78703",4,30.28188852,-97.76433599,78703
165,Ortega Playground,"1135 Garland Ave, Austin, TX 78721",3,30.26997402,-97.68427611,78721
166,Chandler Creek Recreation Center,"2323 Agarita Trl, Round Rock, TX 78665",5,30.53001022,-97.64951324,78665
167,Doug Sahm Hill,"836-898 W Riverside Dr, Austin, TX 78704",5,30.26254,-97.754054,78704
168,North Acres Greenbelt,"1112 Hermitage Dr, Austin, TX 78753",3,30.34775872,-97.68606115,78753
169,Bee Cave Central Park,"13676 Bee Cave Pkwy, Bee Cave, TX 78738",4,30.31478612,-97.95192962,78738
170,Legend Oaks Neighborhood park,"7724 Escarpment Blvd, Austin, TX 78749",4,30.22299469,-97.87396788,78749
171,Circle C Metropolitan Park,"6301 W Slaughter Ln, Austin, TX 78749",4,30.20105023,-97.88725056,78749
172,Ponciana park,"5201 Freidrich Ln, Austin, TX 78744",4,30.2013659,-97.7552024,78744
173,Wuthrich Park,"99 Mountain View Dr, Pflugerville, TX 78660",4,30.42981576,-97.62441265,78660
174,Cherrywood Pocket Park,"1600 E 34th St, Austin, TX 78722",3.5,30.28994827,-97.71546326,78722
175,Little Walnut Creek Greenbelt,"5100 E 51st St, Austin, TX 78723",3,30.29771674,-97.67494792,78723
176,Shaylah Dame Skatepark,"1600 Gattis School Rd, Round Rock, TX 78664",4,30.49823652,-97.6606679,78664
177,Barkley Meadows Park,"4529 County Rd 130, Del Valle, TX 78617",4,30.184515,-97.62642096,78617
178,Johnson Creek Greenbelt,"2100 Enfield Rd, Austin, TX 78703",4.5,30.28615389,-97.76459846,78703
179,Charro Ranch Park,"22690 Ranch To Market Rd 150, Driftwood, TX 78619",5,30.159702,-98.0753275,78619
180,Trailhead Park,"11021 Boulder Ln, Austin, TX 78726",4,30.43910137,-97.82239497,78726
181,Tarrytown Park,"2106 Tower Dr, Austin, TX 78703",4,30.29693943,-97.76021741,78703
182,Springdale Park,"1175 Nickols Ave, Austin, TX 78721",2,30.27783866,-97.68369877,78721
183,Bruning Green park,"E 52nd St & Bruning Ave, Austin, TX 78751",3,30.314579,-97.717706,78751
184,Jessie Andrews Park,"2601 Philomena St, Austin, TX 78723",4,30.29950876,-97.69626097,78723
185,Onion Creek Soccer Complex,"5600 E William Cannon, Austin, TX 78744",4.5,30.177199,-97.740316,78744
186,Barton Creek Greenbelt,"200 S Lamar Blvd, Austin, TX 78704",4.5,30.24896526,-97.79563699,78704
187,Festival Beach Park,"2101 Bergman St, Austin, TX 78702",4,30.2497588,-97.7253972,78702
188,Sendero Springs Pool,"4203 Pasada Ln, Round Rock, TX 78681",4,30.54606479,-97.73574519,78681
189,Barton Creek Habitat Preserve,"1700 Bee Cave Rd, Austin, TX 78738",5,30.30833,-97.9268699,78738
190,San Gabriel Park,"Lower Park Rd, Georgetown, TX 78626",4.5,30.65068706,-97.67247707,78626
191,Anderson Mill West Park,"2702 Dagama Ct, Cedar Park, TX 78613",4.5,30.46624226,-97.83753558,78613
192,Chris Mosqueda Hike and Bike trail,"1041 Mearns Meadow Blvd, Austin, TX 78758",4,30.36823707,-97.70008564,78758
193,Ben E Fisher Park,"600 W Carrie Manor St, Manor, TX 78653",4,30.3402259,-97.56431699,78653
194,Heritage Square city park,"400 N Main St, Taylor, TX 76574",4,30.57139966,-97.40887895,76574
195,Flower Hill Community Park,"3002 Hill St, Round Rock, TX 78664",3,30.48986754,-97.62026827,78664
196,Colony Park District Park,"7201 Colony Loop Dr, Austin, TX 78724",4,30.30027673,-97.63866632,78724
197,Fritz Hughes Park,"3100 Fritz Hughes Park Rd, Austin, TX 78732",4,30.382546,-97.911917,78732
198,Pepper Rock Park,"8609 Pepper Rock Park Dr, Austin, TX 78746",3.5,30.49806603,-97.74037841,78746
199,Fern Bluff park,"17829 Park Valley Dr, Round Rock, TX 78681",4,30.516026,-97.72217623,78681
200,Neighbors,"5609 S Congress Ave, Austin, TX 78745",4.5,30.20396,-97.77479,78745
201,Wooten Park,"1406 Dale Dr, Austin, TX 78757",3.5,30.35347901,-97.71883273,78757
202,Jennie Lane Park,"102 E Rector St, Manor, TX 78653",4,30.34616723,-97.5559993,78653
203,Buda City Park,"204 San Antonio St, Buda, TX 78610",4.5,30.0852032,-97.84279347,78610
204,Veterans Memorial Park,"17813 Park Valley Dr, Round Rock, TX 78681",4,30.51423477,-97.71946698,78681
205,North Oaks Neighborhood Park,"820 Plaza Dr, Austin, TX 78753",4,30.37981131,-97.6713551,78753
206,Heritage Oak Park,"875 Quest Pkwy, Cedar Park, TX 78613",3,30.52126757,-97.82393622,78613
207,Stage Coach Park,"880 Main St, Buda, TX 78610",4.5,30.08172333,-97.84289315,78610
208,Alexander Neighborhood Park,"2901 E 16th St, Austin, TX 78702",4,30.27846206,-97.708517,78702
209,Mayfield Ranch Owners Association,"3817 Bram Cv, Round Rock, TX 78681",4,30.5569681,-97.74581168,78681
210,Arrowhead Park Disc Golf Course,"21606 Arrowhead Point, Lago Vista, TX 78645",4,30.44802,-98.01015,78645
211,Battle Bend Park,"4600 Suburban Dr, Austin, TX 78745",3.5,30.21326249,-97.76871421,78745
212,Murphy Park,"1600 Veterans Dr, Taylor, TX 76574",4.5,30.58107101,-97.41517772,76574
213,Timmerman Park,"12616 Skimmer Run, Manor, TX 78653",4,30.343005,-97.5374128,78653
214,Meadowview Triangle,"7501 Meadowview Ln, Austin, TX 78752",3,30.3398241,-97.71142507,78752
215,Cambridge Heights park,"17500 Marfa Lights Trl, Round Rock, TX 78664",3,30.47309283,-97.64701451,78664
216,Southeast Metropolitan Park,"4511 Hwy 71 E, Dell Valley, TX 78617",4,30.18851033,-97.60988427,78617
217,Settlement Park,"1401 David Curry Dr, Round Rock, TX 78664",5,30.53620991,-97.67071679,78664
218,Heroes Memorial Park,"4100 S FM 1626, Kyle, TX 78640",5,30.02569031,-97.87261382,78640
219,North Meadow Park,"14943 Doria Dr, Austin, TX 78728",4,30.448176,-97.681687,78728
220,Tanglewood Park,"11406 Rustic Rock Dr, Austin, TX 78750",4.5,30.43101136,-97.78142181,78750
221,Piney Bend Neighborhood Park,"8601 Piney Creek Bend, Austin, TX 78745",3,30.19397446,-97.83205172,78745
222,Kendra Page park,"2203 Blue Meadow Dr, Austin, TX 78744",4,30.18155146,-97.76437665,78744
223,Cherry Creek Neighborhood Park,"3403 Silk Oak Dr, Austin, TX 78748",3,30.188767,-97.844877,78748
224,North Star Greenbelt,"11701 Tallow Field Way, Austin, TX 78758",5,30.3948803,-97.7040329,78758
225,Gabriel's Overlook Park,"517 Lake Side Dr, Georgetown, TX 78628",4,30.61416829,-97.79695926,78628
226,Hutto Lake Park,"805 Estate Dr, Hutto, TX 78634",4,30.51299083,-97.57056226,78634
227,Fannie Robinson Park,"206 S Dolan St, Taylor, TX 76574",4.5,30.56590473,-97.39810107,76574
228,Buda Sportsplex Dog Park,"465 Buda Sportsplex Dr, Buda, TX 78610",4,30.10118,-97.8814699,78610
229,Tanglewood Forest Park,"9801 Curlew Dr, Austin, TX 78748",4,30.17742033,-97.83324592,78748
230,Champion Park,"3830 Brushy Creek Rd, Cedar Park, TX 78613",4.5,30.510639,-97.7586141,78613
231,Kinningham Park,"1000 Southcreek Dr, Round Rock, TX 78664",4,30.49999,-97.65472,78664
232,Founders Memorial Park,"480 Founders Park Rd, Dripping Springs, TX 78620",5,30.19836642,-98.08195111,78620
233,Water Tower Park,"200 Round Rock Ave, Round Rock, TX 78664",3,30.50901829,-97.67966628,78664
234,Shadow Glen,"11525 Shadowglen Trce, The Clubhouse, Manor, TX 78653",4,30.3578674,-97.546452,78653
235,Brush Square Park,"409 E 5th St, Austin, TX 78701",4,30.26576271,-97.73913611,78701
236,Sarah's Creek HOA Park,"15336 Sarah's Creek Dr, Pflugerville, TX 78660",3,30.44439937,-97.65755794,78660
237,Oakview Neighborhood Park,"10902 Oak View Dr, Austin, TX 78759",4,30.41761313,-97.76915029,78759
238,Edward Rendon Sr Park at Festival Beach,"2101 Jesse E Segovia St, Austin, TX 78702",4,30.24964,-97.72482,78702
239,Davis White Northeast Neighborhood Park,"6705 Crystalbrook Dr, Austin, TX 78724",4,30.303516,-97.654133,78724
240,Rivery Park,"1125 Woodlawn Ave, Georgetown, TX 78628",4,30.64891492,-97.68499813,78628
241,JJ Seabrook Greenbelt Park,"2000 Pershing Dr, Austin, TX 78723",3,30.28499412,-97.70077181,78723
242,Harris Branch neighborhood Park,"11200 Farmhaven Rd, Austin, TX 78754",4,30.34998119,-97.61954784,78754
243,Settlers Valley Greenbelt,"553 10th St, Pflugerville, TX 78660",4,30.43842847,-97.6306439,78660
244,Pan American Recreation Center,"2100 E 3rd St, Austin, TX 78702",4.5,30.25799,-97.72069,78702
245,Northtown Park and Disc Golf Course,"14508 Harris Ridge Blvd, Pflugerville, TX 78660",4.5,30.42146492,-97.64428711,78660
246,Hidden Lake Park,"4317 Hidden Park Dr, Pflugerville, TX 78660",3,30.449582,-97.566885,78660
247,Chisholm Trail Crossing Park,"500 Chisholm Trail Rd, Round Rock, TX 78681",3,30.511796,-97.689419,78681
248,Barking Springs,"2206 William Barton Dr, Austin, TX 78746",5,30.264511,-97.772438,78746
249,Vic Mathias Shores,"900 West Riverside Dr, Town Lake Metropolitan Park, Austin, TX 78701",5,30.26191548,-97.74949574,78701
250,J Lorraine TX Ghost Town,"14219 Littig Rd, Manor, TX 78653",4.5,30.33287,-97.50916,78653
251,Givens Recreation Center and District Park,"3811 E 12th St, Austin, TX 78721",4,30.27668051,-97.69028061,78721
252,Williamson County Parks,"219 Perry Mayfield, Round Rock, TX 78681",5,30.56136,-97.76726,78681
253,Gillis Park,"2526 Durwood St, Austin, TX 78704",3,30.2407814,-97.75843941,78704
254,Shenandoah Soccer park and Greenbelt,"1486 N Ave C, Elgin, TX 78621",3,30.360753,-97.3982149,78621
255,Texas State Cemetery,"909 Navasota St, Austin, TX 78702",4.5,30.2670932,-97.7266103,78702
256,Cambridge Estates Linear Park,"700 E Oxford Dr, Pflugerville, TX 78660",3,30.42844677,-97.61458667,78660
257,Austin BMX & Skate Park,"1213 Shoal Creek Blvd, Austin, TX 78701",5,30.27707,-97.74981,78701
258,Sandy Creek Park,"9500 Lime Creek Rd, Leander, TX 78641",3.5,30.469866,-97.9054932,78641
259,Sunset park,"2013 Union St, Leander, TX 78641",3,30.55264047,-97.83938543,78641
260,Brookfield Park 3,"Whittard Of Chelsea Ln, Pflugerville, TX 78660",2,30.42014141,-97.63361867,78660
261,Bark Park,"151 Holly St, Georgetown, TX 78626",4.5,30.64316752,-97.6692376,78626
262,Garey Park,"6450 RM 2243, Georgetown, TX 78628",4,30.595118,-97.78892,78628
263,Westcreek Pocket Park,"6044 Westcreek Dr, Austin, TX 78749",3,30.22901053,-97.84337759,78749
264,Brookfield Pool and Park,"1041 Tudor House Rd, Pflugerville, TX 78660",4,30.41981401,-97.63962023,78660
265,Lake Travis,"Austin, TX 78732",4.5,30.37528992,-97.89369202,78732
266,Longview Park,"7609 Longview Rd, Austin, TX 78745",3,30.201694,-97.827164,78745
267,Rabb Park,"151 N Aw Grimes Blvd, Round Rock, TX 78664",5,30.51514548,-97.65381853,78664
268,Ellen Higgins Pocket park,"2711 Cameron Lp, Austin, TX 78745",3,30.191922,-97.826779,78745
269,Bee Cave Dog Park,"13676 Bee Cave Pkwy, Bee Cave, TX 78738",4,30.31591681,-97.95161915,78738
270,Fritz Park,"100 Park St, Hutto, TX 78634",3.5,30.54803318,-97.54225468,78634
271,Thomas Memorial park,"411 Madison St, Elgin, TX 78621",4,30.34347967,-97.36278711,78621
272,Huffstickler Green,"3801 Duval St, Austin, TX 78751",5,30.298661,-97.7294302,78751
273,Northwest Balcones Park,"10225 Talleyran Dr, Austin, TX 78750",4.5,30.42687798,-97.80319977,78750
274,Black Locust Park,"608 Black Locust Dr W, Pflugerville, TX 78660",3,30.46054205,-97.63704571,78660
275,Stoney Creek Park,"14101 Maricella Ln, Pflugerville, TX 78660",4,30.4195863,-97.64440829,78660
276,Schroeter Park,"11701 Big Trl, Austin, TX 78759",4,30.41386,-97.73841,78759
277,T A Brown Neighborhood Park,"520 Northway Dr, Austin, TX 78752",3,30.34472952,-97.70954466,78752
278,Windemere Park,"16800 Gower St, Pflugerville, TX 78660",4,30.45797212,-97.64177702,78660
279,Dove Springs District Park,"5401 Ainez Dr, Austin, TX 78744",4.5,30.18751,-97.73964,78744
280,Williamson County Regional Park,"3005 County Rd 175, Leander, TX 78641",4.5,30.55998,-97.77017,78641
281,Memorial Park,"N Lee St, Round Rock, TX 78664",4,30.51229308,-97.68541166,78664
282,Splash Jam Milburn Park,"1901 Sunchase Blvd, Elizabeth Milburn Park, Cedar Park, TX 78613",5,30.4774985,-97.84039272,78613
283,VFW Park,"401 E. 2nd St, Georgetown, TX 78626",5,30.641706,-97.6741469,78626
284,Bell Farms Park,"12633 Bella Pkwy, Manor, TX 78653",3,30.34124445,-97.53018917,78653
285,North Austin Optimist,"1105 Morrow St, Austin, TX 78757",4,30.345804,-97.72047,78757
286,Brushy Creek Trail East,"151 N Aw Grimes Blvd, Round Rock, TX 78664",5,30.51535386,-97.65531212,78664
287,Somerset Park,"1600 Somerset Dr, Round Rock, TX 78681",3,30.52292675,-97.699796,78681
288,Carriage Hills Park #1,"1613 Carriage Hills Trl, Cedar Park, TX 78613",3,30.52206,-97.85993,78613
289,Carriage Hills park #2,"1600 Country Squire Dr, Cedar Park, TX 78613",3,30.52181,-97.85734,78613
290,Prize Oaks park,"1407 Cedar Park Dr, Cedar Park, TX 78613",3,30.50923,-97.84543,78613
291,Saxony Linear Park,"1104 Split Oak Cv, Pflugerville, TX 78660",3,30.44655672,-97.60891075,78660
292,Springbrook Glen Community Park,"1100 Springbrook Rd, Pflugerville, TX 78660",3,30.47508681,-97.63443184,78660
293,Creekmont West Park,"1100 Oakridge Dr, Round Rock, TX 78681",3,30.49861038,-97.7034159,78681
294,Mary Quinlan Park,"1601 Quinlan Park Rd S, Austin, TX 78732",4,30.3276988,-97.9268374,78732
295,Lakeline Oaks Park & Pavilion,"1000 Old Mill Rd, Cedar Park, TX 78613",4,30.47494483,-97.82398868,78613
296,Robin Bledsoe Park,"601 S Bagdad Rd, Leander, TX 78641",4,30.565942,-97.866796,78641
297,"Northeast District Park, Leash-Free Dog Park","5909 Crystalbrook Dr, Austin, TX 78724",2,30.30404091,-97.65319824,78724
298,Meadow Lake Park,"2901 Settlement Dr, Round Rock, TX 78664",3.5,30.54372777,-97.66464408,78664
299,Devine Lake Park,"1807 Waterfall Dr, Leander, TX 78641",4,30.58177497,-97.88391489,78641
300,Harris Ridge Owners Association Park,"1001 Weatherford Dr, Austin, TX 78753",3,30.40772492,-97.6493351,78753
301,Western Oaks Karst Preserve,"Davis Ln At La Cresada, Austin, TX 78749",5,30.20845245,-97.86456687,78749
302,Olson Meadows Park,"4200 Brushy Creek Rd, Cedar Park, TX 78613",4,30.51886916,-97.74189249,78613
303,Laurel Ridge park,"751 Satellite View, Round Rock, TX 78665",3,30.56348344,-97.67067977,78665
304,Twin Creeks Historic Park,"2900 King Monument Lane, Cedar Park, TX 78613",4,30.5374076,-97.7861757,78613
305,Century Oaks Park,"11410 Century Oaks Ter, Ste 104, Austin, TX 78758",3,30.40219486,-97.72623718,78758
306,Highland Neighborhood Park and Reznicek Field,"401 West Saint Johns Ave, Austin, TX 78752",3,30.33595163,-97.7142353,78752
307,Mcneil park,"N Interstate 35 Frontage Rd, Round Rock, TX 78665",1,30.55428244,-97.69188077,78665
308,Doak Park,"200 N Doak St, Taylor, TX 76574",3,30.56819408,-97.41602037,76574
309,Elgin Memorial Park,"Hwy 95 And Main St, Elgin, TX 78621",3.5,30.35649,-97.3832,78621
310,Brush Square Triangle,"4621 Lake View, Austin, TX 78731",2,30.3322194,-97.7667647,78731
311,Highland Park Linear Park,"Badlands Dr, Pflugerville, TX 78660",3,30.4660293,-97.6109089,78660
312,Old Stage Park - Anderson Mill Limited District,"12819 Hymeadow Dr, Austin, TX 78729",1.5,30.46118096,-97.78778293,78729
313,Mountain View Park,"9000 Middlebie Dr, Austin, TX 78750",5,30.43068013,-97.79154038,78750
314,Bark Park,"19417 Murchison Ridge Trl, Pflugerville, TX 78660",2.5,30.47282003,-97.5852415,78660
315,Oak View Park,"10800 Oak View Dr, Austin, TX 78759",5,30.4178773,-97.7710476,78759
316,Yett Creek Park,"12520 Riata Vista Cir, Austin, TX 78727",3,30.4301757,-97.73277461,78727
317,Mountain Creek Park,"1108 S 10th St, Pflugerville, TX 78660",3,30.43180326,-97.63395747,78660
318,1849 Park,"16430 Cameron Rd, Pflugerville, TX 78660",4.5,30.41185029,-97.555842,78660
319,Kensington  Park,"1891 Oxford St, Round Rock, TX 78664",4.5,30.49317015,-97.66692985,78664
320,Mesa village park,"1403 N Georgetown St, Round Rock, TX 78664",4,30.52182284,-97.67107221,78664
321,Davis Spring,"14814 Thatcher Dr, Austin, TX 78717",4.5,30.48881927,-97.76794907,78717
322,Central Park,"18720 Falcon Pointe Blvd, Pflugerville, TX 78660",4.5,30.45997224,-97.58649459,78660
323,Willow Bend Dog Park,"2801 Sauls Dr, Austin, TX 78728",4.5,30.45525194,-97.6805839,78728
324,Shadow Brook park,"Round Rock, TX 78681",3,30.49255262,-97.70439208,78681
325,Doghouse Drinkery Dog Park,"3800 County Rd 175, Leander, TX 78641",4.5,30.551958,-97.765327,78641
326,Lakeline Village Pud Park,"902 S Lakeline Blvd, Cedar Park, TX 78613",5,30.49244733,-97.81511019,78613
327,Joslin Park,"Austin, TX 78745",4.5,30.20706367,-97.79702759,78745
328,Greenlawn park,"211 Greenlawn Blvd, Round Rock, TX 78664",3,30.50857393,-97.6616889,78664
329,Morris Memorial park,"802 N Avenue C, Elgin, TX 78621",4,30.35041933,-97.3769808,78621
330,HYSA Riverwalk Fields,"1 Riverwalk Dr, Hutto, TX 78634",4,30.5258481,-97.5650512,78634
331,Moose Park,"1218 Settlers Valley Dr, Pflugerville, TX 78660",4,30.44057711,-97.63447572,78660
332,Work and Woof,"4930 S Congress, Bldg A, Austin, TX 78745",4.5,30.2127493,-97.77155161,78745
333,Bauerle Ranch at Slaughter Creek Greenbelt,"2700 Lynnbrook Dr, Austin, TX 78748",4,30.16844864,-97.83926166,78748
334,Rosemary Denny Park,"2400 E Riviera Dr, Cedar Park, TX 78613",3.5,30.47857499,-97.81239868,78613
335,East View RV Ranch,"552 Eastview Dr, Georgetown, TX 78626",5,30.65213,-97.62422,78626
336,Presidential Glen Playground and Gazebo Rules,"19513 Smith Gin St, Manor, TX 78653",3,30.35462442,-97.51110344,78653
337,Royal Pointe Park,"18712 Candace Lp, Pflugerville, TX 78660",3,30.47838,-97.62340391,78660
338,MUTTS Canine Cantina® - Austin,"9825 N Lake Creek Pkwy, Austin, TX 78717",4.5,30.47293044,-97.79261024,78717
339,Falcon Pointe Public Park,"2809 Barley Field Pass, Pflugerville, TX 78660",3,30.46041594,-97.58091023,78660
340,Silverado Ranch Park,"2210 Kasdan Pass, Cedar Park, TX 78613",5,30.52253327,-97.79170524,78613
341,Forest North neighborhood park,"13320 Lyndhurst St, Austin, TX 78729",4,30.46815788,-97.78337838,78729
342,Paggi Square,"2101 Robert Browning, Austin, TX 78723",4.5,30.3007713,-97.7074924,78723
343,Hutto Community Park,"514 S Pauley Dr, Hutto, TX 78634",4,30.53267925,-97.55522793,78634
344,Veteran's Park,"Ranch Rd 1431 & Ridgeway St, Jonestown, TX 78645",4,30.4955,-97.92434,78645
345,Crestland Triangle,"700 W Crestland Dr, Austin, TX 78752",2,30.34161679,-97.71532261,78752
346,Oakmont Forest Park,"1414 Colby Ln, Cedar Park, TX 78613",4,30.50181695,-97.84192533,78613
347,Georgetown Park & Recreation,"1101 N College St, Georgetown, TX 78626",4.5,30.6505,-97.66467,78626
348,Dayna Lawson Park,"1704 Continental Pass, Cedar Park, TX 78613",3,30.51707784,-97.85395267,78613
349,Park Central,"12400 N Ih 35, Austin, TX 78753",3.5,30.40216508,-97.67612815,78753
350,North Park,"1407 Suzi Ln, Pflugerville, TX 78660",3,30.4584898,-97.65337661,78660
351,Ricky Guerrero Park,"2006 South 6th St, Austin, TX 78704",4,30.24747147,-97.76432281,78704
352,Quest village park,"614 Stallion Dr, Cedar Park, TX 78613",4,30.51957725,-97.8200112,78613
353,Texas Parks & Wildlife,"4200 Smith School Rd, Austin, TX 78744",4,30.19683212,-97.71398082,78744
354,Zola Park,"17403 Zola Ln, Round Rock, TX 78664",3,30.47513267,-97.65373288,78664
355,Mary Elizabeth Branch Park,"2006 Philomena St, Austin, TX 78723",5,30.30018,-97.70265,78723
356,Gaines Creek Park,"4801 Republic Of Texas Blvd, Austin, TX 78735",2.5,30.24957903,-97.84216634,78735
357,Butler Pitch & Putt,"201 Lee Barton Dr, Austin, TX 78704",4,30.26319992,-97.75653641,78704
358,Heron Hollow Pocket park,"801 Payton Gin Rd, Austin, TX 78758",2,30.35791824,-97.70073435,78758
359,Mueller Dog Park,"2201 Aldrich St, Austin, TX 78723",2.5,30.30116273,-97.70284247,78723
360,Round Rock Dog Depot,"800 Deerfoot Dr, Round Rock, TX 78683",3.5,30.51007542,-97.66568105,78683
361,Plaza Saltillo,"412 Comal St, Austin, TX 78702",4,30.2619933,-97.72744776,78702
362,Veteran's Memorial Park,"2525 W New Hope Dr, Cedar Park, TX 78613",4.5,30.5212002,-97.868988,78613
363,Silk Oak Park Community Garden,"3204 Silk Oak Dr, Austin, TX 78748",3,30.18592571,-97.83984505,78748
364,Rivery Park  & Disc Golf Course,"Georgetown, TX 78628",4.5,30.63957977,-97.74980164,78628
365,Oakwood Glen park,"2600 Oakwood Glen Dr, Cedar Park, TX 78613",3,30.47126,-97.83153,78613
366,Margret Hoffman Oaks Park,"100 S 1st St, Austin, TX 78704",3,30.26400741,-97.7475796,78704
367,Lake Forest Park,"3590 Gattis School Rd, Round Rock, TX 78664",3,30.49688112,-97.620571,78664
368,Del Curto Neighborhood Park,"3000 Del Curto, Austin, TX 78704",4,30.24132538,-97.7790451,78704
369,Northcreek ranch park,"1001 N Creek Blvd, Leander, TX 78641",3,30.58069923,-97.87198883,78641
370,East Fourth Street park,"217 N Dolan St, Taylor, TX 76574",1,30.57128161,-97.40047867,76574
371,Mallard Pond Park,"19500 Mallard Pond Trail, Pflugerville, TX 78660",3.5,30.47312422,-97.582336,78660
372,Lone Tree Park,"2500 Stapleford Dr, Cedar Park, TX 78613",3,30.53912,-97.84305,78613
373,Old Town park,"300 2nd St S, Pflugerville, TX 78660",3,30.43821839,-97.62342202,78660
374,Houston School park,"5506 Tallow Tree Dr, Austin, TX 78744",3,30.1964787,-97.7554729,78744
375,Harris Ridge Dog Park,"14400 Harris Ridge Blvd, Pflugerville, TX 78660",4,30.42048,-97.64474,78660
376,Veterans Memorial park,"110 Depot St, Elgin, TX 78621",3,30.3476858,-97.3710493,78621
377,San Jose Splash Pad,"1707 San Jose St, Georgetown, TX 78626",4.5,30.62939331,-97.66873531,78626
378,Little Village Park,"16810 Whitebrush Lp, Austin, TX 78717",4,30.508337,-97.738243,78717
379,Edwards park,"704 Ash St, Georgetown, TX 78626",3,30.63693944,-97.67337882,78626
380,Creekside Park,"418 Settlers Valley Dr, Pflugerville, TX 78660",4,30.4342277,-97.6259948,78660
381,Park at Blackhawk at Lakeside,"3111 Speidel Dr, Pflugerville, TX 78660",4.5,30.47637,-97.5658,78660
382,Hanging Rock Park,"2001 Hanging Rock Dr, Pflugerville, TX 78660",3,30.47112363,-97.585981,78660
383,Founders park,"814 S Church St, Georgetown, TX 78626",3,30.63596584,-97.67619866,78626
384,Far West Dog Park,"7099 Great Northern Blvd, Austin, TX 78757",2.5,30.35223774,-97.74711147,78757
385,Family Viewing Area,"3600 Presidential Blvd, Austin, TX 78719",4.5,30.20064541,-97.6547852,78719
386,Hidden Glen park,"1001 Hidden Glen Dr, Round Rock, TX 78681",3,30.54526886,-97.70286806,78681
387,Chisholm Valley Park,"1201 Trey St, Round Rock, TX 78681",4,30.49655476,-97.68762743,78681
388,Lago Vista City Pool,"8012 Bar K Ranch Rd, Lago Vista, TX 78645",3,30.48197651,-97.97927902,78645
389,Secluded Willow Park,"1701 Secluded Willow Cv, Pflugerville, TX 78660",3,30.47167071,-97.58987351,78660
390,Springbrook Nieghborhood park,"17910 Wilke Ridge Lane, Pflugerville, TX 78664",3,30.468693,-97.6244907,78664
391,Old Town Park,"1262 S Austin Ave, Georgetown, TX 78626",3,30.63050118,-97.67871987,78626
392,Ninth Street BMX Jumps,"800 9th St, Austin, TX 78701",5,30.2730544,-97.7495581,78701
393,Ridgewood North park,"1402 Ridgewood Dr, Leander, TX 78641",3,30.56480755,-97.83244037,78641
394,Highland Park North,"18805 Huntingtower Castle Blvd, Pflugerville, TX 78660",5,30.47512381,-97.61142812,78660
395,Norwood Estate Dog Park,"1009 Edgecliff Ter, Austin, TX 78704",3.5,30.249328,-97.737106,78704
396,Wells Creek Greenbelt,"13120 Metric Blvd, Austin, TX 78727",2,30.4205026,-97.68388467,78727
397,Heppner Bend park,"1208 Heppner Dr, Cedar Park, TX 78613",3,30.46651,-97.82488,78613
398,Narrows Recreation Area,"2550 Cr 411, Spicewood, TX 78669",2,30.522394,-98.155943,78669
399,Cedar Creek Park,"5540 Fm 535, Cedar Creek, TX 78612",5,30.0819206,-97.4969864,78612
400,Buttercup Creek Park,"411 Twin Oak Trl, Cedar Park, TX 78613",5,30.50229819,-97.82611426,78613
401,Jester Farms Neighborhood Park,"2539 Vernell Way, Round Rock, TX 78664",3,30.53579043,-97.66172569,78664
402,Mason Creek park,"801 Eagles Way, Leander, TX 78641",3,30.5666776,-97.8606683,78641
403,San Gabriel Park - Disc Golf Course,"1003 N Austin Ave, Georgetown, TX 78626",4,30.65117,-97.67388,78626
404,myrtle pfluger teer park,"Willow St & E Pecan St, Pflugerville, TX 78660",3,30.43778107,-97.61556412,78660
405,Earl J. Pomerleau Pocket Park,"1906 Patton Ln, Austin, TX 78723",3,30.318343,-97.686881,78723
406,Hancock Dog Park,"3307 Kim Ln, Austin, TX 78705",3.5,30.29174,-97.72402,78705
407,Calla Lilly park,"1350 Calla Lily Blvd, Leander, TX 78641",4,30.56596777,-97.83067035,78641
408,Brownie Nieghborhood park,"10000 Brownie Dr, Austin, TX 78753",2,30.3639728,-97.68679577,78753
409,Oak Ridge Park,"808 Birch Brook Ln, Leander, TX 78641",4,30.56310339,-97.83377753,78641
410,Anderson Mill Limited District,"11500 El Salido Pkwy, Austin, TX 78750",3.5,30.44984189,-97.81107878,78750
411,Kelley Park,"805 W 17th St, Georgetown, TX 78626",3,30.62942104,-97.68370958,78626
412,Hatch Pond,"3301 Hatch Rd, Cedar Park, TX 78613",2,30.462911,-97.8239849,78613
413,Creekside Park,"305 Orchard Way, Hutto, TX 78634",4,30.53879492,-97.54011739,78634
414,Pfennig Park,"400 Immanuel Road, Pflugerville, TX 78660",3,30.4325319,-97.6129043,78660
415,Quail Creek Nieghborhood Park,"1101 Mearns Meadow Blvd, Austin, TX 78758",3,30.36896357,-97.7012809,78758
416,Town Center Park,"1906 Big Bend Dr, Cedar Park, TX 78613",4,30.5340318,-97.82845518,78613
417,Leander Veterans Park,"1011 Bagdad Rd, Leander, TX 78641",5,30.5600365,-97.86247496,78641
418,Katmai Circle Park,"Katmai Cir, Pflugerville, TX 78660",2,30.46470209,-97.62332958,78660
419,Chautauqua Park,"602 Rucker St, Georgetown, TX 78626",3.5,30.63735288,-97.68438051,78626
420,Sarita Valley,"3009 Silver Fountain Dr, Leander, TX 78641",2,30.581278,-97.802422,78641
421,Heritage Park,"901 Old Austin Hutto Rd, Pflugerville, TX 78660",3,30.44261346,-97.60681397,78660
422,Turkey Bend Recreation Area,"4906 Shaw Dr, Marble Falls, TX 78654",3.5,30.50341529,-98.11024492,78654
423,Pflugerville Heights Park,"18301 Stevie Ray Dr, Pflugerville, TX 78660",3,30.48089705,-97.63715305,78660
424,Plumbago Greenbelt,"505 Plumbago Dr, Pflugerville, TX 78660",1,30.43686394,-97.60341395,78660
425,Carriage Hills Park,"1801 Lakeline Blvd, Cedar Park, TX 78613",2,30.52554299,-97.85519873,78613
426,Treeline Park,"1400 Treeline Dr, Cedar Park, TX 78613",2,30.51633807,-97.84921958,78613
427,Zilker Park Kite Festival,"Austin, TX 78704",4,30.24350166,-97.76557159,78704
428,St John Park,"901 Wilks Ave, Austin, TX 78752",1,30.33247411,-97.70007692,78752
429,New Hope Park,"1900 N Lakeline Blvd, Cedar Park, TX 78613",1,30.52651332,-97.85427941,78613
430,Timberwood park,"1914 Ascot Ln, Cedar Park, TX 78613",1,30.52902191,-97.84719933,78613
431,Millrun Park,"12100 Millwright Pkwy, Austin, TX 78750",3.5,30.45166206,-97.80319214,78750
432,Springbrook Apts Parkland,"1201 New Meister Ln, Pflugerville, TX 78660",2,30.48082279,-97.63019749,78660
433,Chandler Park,"106 Spring Valley Rd, Georgetown, TX 78628",4.5,30.6535069,-97.69767528,78628
434,Morris Park & Pool,"803 N Avenue C, Elgin, TX 78621",4,30.35085632,-97.3765851,78621
435,Memorial Park,"11400 Lake Creek Pkwy, Austin, TX 78750",2,30.46009,-97.81505,78750
436,River Ranch County Park,"219 Perry Mayfield, Leander, TX 78641",3,30.56138789,-97.7672911,78641
437,Janet Bartles Park,"1111 Buttercup Creek Blvd, Cedar Park, TX 78613",4,30.49789212,-97.83527919,78613
438,River Chase Park,"878 Memorial Dr, Georgetown, TX 78628",2,30.63466494,-97.70615867,78628
439,House Park,"1212 Rio Grande St, Austin, TX 78701",4.5,30.27652,-97.74761,78701
440,"Lakeview Pavillion, Old Settlers Park","3300 E Palm Valley Blvd, Round Rock, TX 78665",5,30.526414,-97.634935,78665
441,Wells Branch MUD,"2106 Klattenhoff Dr, Austin Tx, TX 78728",4.5,30.44216909,-97.67957009,78728
442,Ron Rigsby Park,"1110 Little Elm Park, Austin, TX 78758",1,30.36435,-97.70514,78758
443,Hidalgo park,"1403 Welch St, Taylor, TX 76574",1,30.56475303,-97.42292882,76574
444,Plum Creek Dog Park,"Fairway, Kyle, TX 78640",2.5,30.015539,-97.882793,78640
445,Agave Neighborhood park,"5900 Sendero Hills Pkwy, Austin, TX 78724",3,30.29148663,-97.64693109,78724
446,Williams School park,"605 Blue Valley Dr, Austin, TX 78748",3,30.18232829,-97.79078891,78748
447,City of Elgin,"802 N Avenue C, Elgin, TX 78621",4,30.35071,-97.37681,78621
448,Buck Egger Park,"900 S Mays St, Round Rock, TX 78664",4,30.50195,-97.67714,78664
449,Buttermilk Branch Greenbelt,"7500 Meador Ave, Austin, TX 78752",2,30.33249,-97.69438,78752
450,Hunters Chase Park,"12400 Hunters Chase Dr, Austin, TX 78729",3,30.4449199,-97.77030051,78729
451,City of Round Rock,"301 Deepwood Dr, Round Rock, TX 78681",4,30.507309,-97.69892,78681
452,Amber Oaks Park,"13601 Briarwick Dr, Austin, TX 78729",3,30.46931,-97.769658,78729
453,St.John's Park,"889 Wilks Ave, Austin, TX 78752",2,30.33268782,-97.70019133,78752
454,Bowman Park,"950 E Bowman Rd, Round Rock, TX 78664",3,30.52942929,-97.6715742,78664
455,Wells Point Park,"800 S Heatherwilde Blvd, Pflugerville, TX 78660",3.5,30.44058761,-97.64592534,78660
456,Austin Affordable Fitness,"708 Robert E Lee Rd, Austin, TX 78704",5,30.262825,-97.7670593,78704
457,Wild Rose park,"700 Cluck Creek Trl, Cedar Park, TX 78613",3,30.498465,-97.827108,78613
458,Wells Branch Dog Park,"3000 Shoreline Dr, Austin, TX 78728",2.5,30.4544459,-97.6829712,78728
459,Harper Park,"Deerbrook Trail & Lake Creek Pkwy, Austin, TX 78750",4,30.45855864,-97.81045373,78750
460,Schieffer Tract,"3404 Hycreek Dr, Austin, TX 78723",1,30.30717914,-97.67091902,78723
461,Del Valle Adult Softball Fields,"3614 FM 973, Austin, TX 78617",3.5,30.200602,-97.643523,78617
462,El Salido Park,"11449 Morning Glory Trl, Austin, TX 78750",4.5,30.45546,-97.81957,78750
463,Horizon park,"300 Presidio Dr, Leander, TX 78641",4,30.55536293,-97.8394938,78641
464,City of Hutto,"306 E Live Oak St, Hutto, TX 78634",4,30.5468611,-97.5423962,78634
465,Gilleland Creek Park,"700 N Railroad Ave, Pflugerville, TX 78660",4,30.44457882,-97.61887003,78660
466,Sunchase Park,"2450 Sunchase Blvd, Cedar Park, TX 78613",3.5,30.4809,-97.84039,78613
467,Westview Meadow Park,"903 Municipal Dr, Leander, TX 78641",4,30.57095626,-97.86607593,78641
468,Spectrum Trail Racing,"410 Pressler, Austin, TX 78703",5,30.2719498,-97.7613983,78703
469,Lennar Walsh Trails,"503 Walsh Hill Trl, Cedar Park, TX 78613",3,30.52435,-97.75535,78613
470,Old Mill Gazebo,"1215 Old Mill Rd, Cedar Park, TX 78613",4,30.473325,-97.829126,78613
