rest_id,rest_name,rest_address,rest_ratings,latitude,longitude,zipcode
1,Qi Austin,"835 West 6th St, Unit 114, Austin, TX 78703",4.5,30.27058605,-97.75251468,78703
2,1618 Asian Fusion,"1618 E Riverside Dr, AMLI South Shore Bldg, Austin, TX 78741",4.5,30.245474,-97.730411,78741
3,Aba - Austin,"1011 S Congress Ave, Bldg 2, Ste 180, Austin, TX 78704",4.5,30.25357,-97.74803,78704
4,Anthem,"91 Rainey St, Ste 120, Austin, TX 78701",4.5,30.2604995,-97.73794654,78701
5,Moonshine Patio Bar & Grill,"303 Red River St, Austin, TX 78701",4.5,30.26375388,-97.73807686,78701
6,Salty Sow,"1917 Manor Rd, Austin, TX 78722",4.5,30.28364973,-97.72131801,78722
7,Suerte,"1800 E 6th St, Austin, TX 78702",4.5,30.26228,-97.72331,78702
8,Odd Duck,"1201 S Lamar Blvd, Austin, TX 78704",4.5,30.25452,-97.762064,78704
9,Higher Ground,"720 Congress Ave, Austin, TX 78701",4,30.26978,-97.7424,78701
10,Gather & Forge,"2823 Hancock Dr, Austin, TX 78731",5,30.3277447,-97.7498273,78731
11,Loro,"2115 S Lamar Blvd, Austin, TX 78704",4.5,30.24775,-97.77127,78704
12,La Plancha,"1701 E Martin Luther King Jr Blvd, Austin, TX 78702",4.5,30.27927,-97.72297,78702
13,Patrizi's,"2307 Manor Rd, Austin, TX 78722",4.5,30.28397151,-97.71721015,78722
14,SOHA,"911 W Anderson Ln, Ste 114, Austin, TX 78757",4.5,30.3481588,-97.71484877,78757
15,Vic & Al's,"2406 Manor Rd, Ste D, Austin, TX 78722",4.5,30.2849835,-97.7168484,78722
16,TenTen,"501 W 6th St, Austin, TX 78701",4.5,30.26916,-97.74771,78701
17,Electric Shuffle Austin,"91 Red River St, Ste 102, Austin, TX 78701",4.5,30.26095988,-97.7388282,78701
18,La Piscina,"600 W 2nd St, Proper Hotel, Austin, TX 78701",4.5,30.2660716,-97.7499454,78701
19,Estelle's,"400 Colorado St, Austin, TX 78701",4,30.26689654,-97.7449805,78701
20,Launderette,"2115 Holly St, Austin, TX 78702",4,30.25193,-97.72273,78702
21,Wax Myrtle's,"506 San Jacinto Blvd, Austin, TX 78701",4,30.26694003,-97.740851,78701
22,Canje,"1914 E 6th St, Ste C, Austin, TX 78702",4.5,30.26177,-97.72232,78702
23,Este,"2113 Manor Rd, Austin, TX 78722",4.5,30.2842074,-97.71961014,78722
24,Irene's,"506 W Ave, Austin, TX 78701",4,30.269838,-97.751213,78701
25,Gràcia Mediterranean,"4800 Burnet Rd, Ste 450, Austin, TX 78756",4.5,30.319075,-97.739501,78756
26,Red Ash,"303 Colorado St, Austin, TX 78701",4.5,30.26588,-97.744672,78701
27,Franklin Barbecue,"900 E 11th St, Austin, TX 78702",4.5,30.2701348,-97.73134511,78702
28,The Peacock,"600 W 2nd St, Austin, TX 78701",4,30.266299,-97.7501055,78701
29,Seoulju,"9515 N Lamar Blvd, Ste 230, Austin, TX 78753",4.5,30.36478975,-97.69449782,78753
30,Quince Lakehouse,"3825 Lake Austin Blvd, Ste 201, Austin, TX 78703",4.5,30.29547127,-97.7841556,78703
31,Smash ATX,"213 W 5th St, Austin, TX 78701",4.5,30.26751,-97.74546,78701
32,Phoebe's Diner,"533 W Oltorf St, Austin, TX 78704",4.5,30.2416132,-97.7588755,78704
33,Acre 41,"1901 San Antonio St, Austin, TX 78705",4,30.28223,-97.74291,78705
34,Eureka!,"200 E 6th St, Austin, TX 78701",4,30.26784275,-97.74124011,78701
35,J Carver’s,"509 Rio Grande St, Austin, TX 78701",4.5,30.26952488,-97.74944737,78701
36,Roaring Fork,"701 Congress Ave, Austin, TX 78701",4,30.26912394,-97.74220162,78701
37,Nido,"1211 W Riverside Dr, Austin, TX 78704",4,30.26410527,-97.75668343,78704
38,Khon Thai Kitchen By Seeda,"5800 Burnet Rd, Ste 400, Austin, TX 78756",4.5,30.3334,-97.74101,78756
39,Kemuri Tatsu-ya,"2713 E 2nd St, Austin, TX 78702",4,30.25386,-97.7129,78702
40,Laurel Restaurant,"320 S Capital Of Texas Hwy, West Lake Hills, TX 78746",4,30.3022045,-97.8298978,78746
41,Swift's Attic,"315 Congress Ave, Ste 200, Austin, TX 78701",4,30.26563,-97.74337,78701
42,Garrison,"101 Red River St, Austin, TX 78701",4.5,30.26228671,-97.73855939,78701
43,Apt 115,"2025 E 7th St, Austin, TX 78702",5,30.2616,-97.71982,78702
44,Phoebe's Diner,"408 W 11th St, Unit 100, Austin, TX 78701",4.5,30.27404,-97.74493,78701
45,DipDipDip Tatsu-Ya,"7301 Burnet Rd, Ste 101, Austin, TX 78757",4,30.34867062,-97.7350106,78757
46,Dean's Italian Steakhouse,"110 East 2nd St, Austin, TX 78701",4.5,30.26438,-97.7434,78701
47,June's,"1722 S Congress Ave, Austin, TX 78704",4,30.24630833,-97.75114586,78704
48,Barley Swine,"6555 Burnet Rd, Ste 400, Austin, TX 78757",4.5,30.34127377,-97.73838864,78757
49,Caroline,"621 Congress Ave, Ste 101, Austin, TX 78701",4,30.26882842,-97.7422982,78701
50,Hestia,"607 West 3rd St, Ste 105, Austin, TX 78701",4.5,30.266775,-97.74998,78701
51,Paperboy,"1203 E 11th St, Austin, TX 78702",4.5,30.2684012,-97.72755585,78702
52,Lin Asian Bar And Dim Sum,"1203 W 6th St, Austin, TX 78703",4,30.27281,-97.75799,78703
53,FTG ATX,"4301 Duval St, Austin, TX 78751",5,30.30477662,-97.7257366,78751
54,Corinne Austin,"304 E Cesar Chavez St, Unit 100, Austin, TX 78701",4.5,30.26273,-97.74158,78701
55,Perla's,"1400 S Congress Ave, Ste B100, Austin, TX 78704",4,30.24995732,-97.75009197,78704
56,Comedor,"501 Colorado St, Austin, TX 78701",4,30.267721,-97.744204,78701
57,Intero Restaurant,"2612 E Cesar Chavez St, Austin, TX 78702",4.5,30.25380783,-97.71465332,78702
58,Toshokan,"807 E 4th St, Austin, TX 78702",5,30.26341834,-97.7346683,78702
59,El Raval,"1500 South Lamar Blvd, Austin, TX 78704",4.5,30.25209,-97.76445,78704
60,Yamas Greek Kitchen + Bar,"5308 Balcones Dr, Austin, TX 78731",4,30.33557611,-97.75912693,78731
61,Péché,"208 W 4th St, Austin, TX 78701",4,30.26699,-97.74524,78701
62,Rose Gose,"5201 Airport Blvd, Austin, TX 78751",4.5,30.313105,-97.714725,78751
63,Las Perlas,"405 E 7th St, Austin, TX 78701",4.5,30.26766,-97.73864,78701
64,Boteco,"1720 Barton Springs Rd, Austin, TX 78704",4.5,30.263624,-97.763001,78704
65,Jewboy Burgers,"5111 Airport Blvd, Austin, TX 78751",4.5,30.3127408,-97.71508227,78751
66,Gus's World Famous Fried Chicken - Austin,"117 San Jacinto Blvd, Austin, TX 78701",4.5,30.2634862,-97.7417305,78701
67,Gabriela's Downtown,"900 E 7th St, Austin, TX 78702",4,30.2666,-97.73302,78702
68,Emmer & Rye,"51 Rainey St, Austin, TX 78701",4,30.25694136,-97.73933237,78701
69,Summer House on Music Lane,"1101 Music Ln, Austin, TX 78704",4,30.25261777,-97.74769523,78704
70,Uncle Nicky's,"4222 Duval St, Austin, TX 78751",4,30.30489,-97.72621,78751
71,North Italia,"500 W 2nd St, Ste 120, Austin, TX 78701",4,30.26579507,-97.748924,78701
72,La Popular - Austin,"5 SW Pkwy Building, Ste 100, Austin, TX 78735",4,30.25524023,-97.86736998,78735
73,Lutie’s Garden Restaurant,"4100 Red River St, Austin, TX 78751",4,30.300784,-97.722215,78751
74,Velvet Taco,"522 Congress Ave, Ste 100, Austin, TX 78701",4.5,30.26795908,-97.74317306,78701
75,Baretto Bistro,"1206B W 38th St, Austin, TX 78705",4.5,30.30654796,-97.74520127,78705
76,Bar Peached,"1315 W 6th St, Austin, TX 78703",4.5,30.27354,-97.76001,78703
77,Ember Kitchen,"800 W Cesar Chavez St, Ste PP110, Austin, TX 78701",4.5,30.266578,-97.752637,78701
78,Oseyo,"1628 E Cesar Chavez St, Austin, TX 78702",4,30.25831,-97.72757,78702
79,The Peached Tortilla,"5520 Burnet Rd, Ste 100, Austin, TX 78756",4,30.33075,-97.74021,78756
80,Olamaie,"1610 San Antonio St, Austin, TX 78701",4,30.2799,-97.74367,78701
81,Bird Bird Biscuit,"2701 Manor Rd, Austin, TX 78722",4.5,30.284804,-97.713964,78722
82,Wu Chow,"500 W 5th St, Austin, TX 78701",4,30.26859266,-97.74788225,78701
83,Terry Black's Barbecue,"1003 Barton Springs Rd, Austin, TX 78704",4.5,30.25969157,-97.75480136,78704
84,Arlo Grey by Kristen Kish,"111 E Cesar Chavez St, Austin, TX 78701",4,30.26272416,-97.74410643,78701
85,CARVE American Grille - Central Austin ,"2613 Perseverance Dr, Austin, TX 78731",4,30.3181159,-97.7528127,78731
86,Olive & June,"3411 Glenview Ave, Austin, TX 78703",4,30.30726,-97.75113,78703
87,Bar 508 Mezcalerita,"508 E 8th St, Austin, TX 78701",4.5,30.2686,-97.73665,78701
88,Soupleaf Hot Pot,"6929 Airport Blvd, Ste 127, Austin, TX 78752",4.5,30.33867074,-97.7182056,78752
89,Tiki Tatsu-Ya,"1300 S Lamar Blvd, Austin, TX 78704",4,30.25382,-97.76331,78704
90,Ezov,"2708 E Cesar Chavez St, Austin, TX 78702",4,30.25345964,-97.71351897,78702
91,Nomade,"1506 South 1st St, Austin, TX 78704",4.5,30.24973495,-97.7553113,78704
92,Cooper's Old Time Pit Bar-B-Que,"217 Congress Ave, Austin, TX 78701",4,30.26489,-97.74361,78701
93,Austin Rotisserie,"111 Congress Ave, P400, Austin, TX 78701",4.5,30.263536,-97.7435761,78701
94,Hopfields,"3110 Guadalupe St, Ste 400, Austin, TX 78705",4,30.29855386,-97.74098936,78705
95,Proud Mary,"2043 S Lamar Blvd, Austin, TX 78704",4.5,30.24830039,-97.7693827,78704
96,Sawyer & Co,"4827 E Cesar Chavez St, Austin, TX 78702",4,30.25133324,-97.70178223,78702
97,Flo's Wine Bar & Bottle Shop,"3111 W 35th St, Austin, TX 78703",4.5,30.31326372,-97.7669042,78703
98,Bufalina,"2215 E Cesar Chavez St, Austin, TX 78702",4,30.25518,-97.719656,78702
99,Veracruz Fonda & Bar,"1905 Aldrich St, Ste 125, Austin, TX 78723",4.5,30.29819579,-97.70524986,78723
100,POCHA IS BACK,"6808N N Lamar Blvd, Ste B-110, Austin, TX 78752",4.5,30.336184,-97.720611,78752
101,Bouldin Creek Cafe,"1900 S 1st St, Austin, TX 78704",4.5,30.24646,-97.75677,78704
102,TLC Austin,"1100 S Lamar Blvd, Ste 1150, Austin, TX 78704",4,30.25576,-97.76252,78704
103,Goldy’s,"2401 Winsted Ln, Austin, TX 78703",5,30.2928937,-97.76049269,78703
104,El Alma,"1025 Barton Springs Rd, Austin, TX 78704",4,30.2601,-97.75562,78704
105,Salt Traders Zilker,"1101 S MoPac Expy, Austin, TX 78746",4.5,30.26297,-97.784594,78746
106,Vamonos,"4807 Airport Blvd, Austin, TX 78751",4.5,30.30854,-97.71537,78751
107,District Kitchen - Anderson Lane,"7858 Shoal Creek Blvd, Bldg B, Austin, TX 78757",4.5,30.36068,-97.74139,78757
108,Jack Allen's Kitchen,"3600 North Capital Of Texas Hwy, Bldg D, Austin, TX 78746",4.5,30.33524346,-97.8075081,78746
109,Ling Kitchen,"8423 Research Blvd, Austin, TX 78758",4.5,30.35927,-97.71592,78758
110,The Diner Bar - Austin,"500 San Jacinto Blvd, Austin, TX 78701",4.5,30.26661947,-97.7408417,78701
111,House of Three Gorges,"8557 Research Blvd, Ste 144, Austin, TX 78758",4.5,30.36172808,-97.71534968,78758
112,Juniper,"2400 E Cesar Chavez St, Ste 304, Austin, TX 78702",4,30.254867,-97.717182,78702
113,Lee’s Kitchen + Cocktails,"701 S Capital Of Tx Hwy, Ste G700, West Lake Hills, TX 78746",5,30.28992038,-97.82719318,78746
114,Pecan Square Cafe,"1200 W 6th St, Ste B, Austin, TX 78703",4,30.27311679,-97.75724508,78703
115,Numero28,"452 W 2nd St, Austin, TX 78701",4,30.26566,-97.74841,78701
116,Titaya's Thai Cuisine,"5501 N Lamar Blvd, Ste C101, Austin, TX 78751",4,30.32360519,-97.72736819,78751
117,TraphouseATX,"310 Colorado St, Austin, TX 78701",4,30.266269,-97.745228,78701
118,Tweedy's,"2908 Fruth St, Austin, TX 78705",5,30.295514,-97.74173,78705
119,Golden Tiger,"1816 E 6th St, Austin, TX 78702",4,30.261993,-97.7226715,78702
120,Jjim Korean Braised BBQ,"1100 S Lamar Blvd, Ste 2140, Austin, TX 78704",4.5,30.25576,-97.76252,78704
121,Hold Out Brewing,"1208 W 4th St, Austin, TX 78703",4,30.271378,-97.758904,78703
122,Holiday on 7th,"5020 E 7th St, Austin, TX 78702",4.5,30.2537018,-97.6976313,78702
123,Meat & Bread,"360 Nueces St, Ste 20, Austin, TX 78701",5,30.26707466,-97.74983827,78701
124,Domo Alley Gato Tatsu-Ya,"1606 E 6th St, Austin, TX 78702",4,30.26310552,-97.72626063,78702
125,Uchibā,"601 W 2nd St, Austin, TX 78701",4.5,30.2658,-97.74998,78701
126,Prim and Proper,"1007 S Congress Ave, Ste 120, Austin, TX 78704",4.5,30.25422464,-97.74761894,78704
127,Picnik - Burnet Road,"4801 Burnet Rd, Austin, TX 78756",4,30.3189,-97.73897,78756
128,Revelry Kitchen + Bar,"1410 E 6th St, Austin, TX 78702",4,30.2637173,-97.72772209,78702
129,Fabrik - Austin,"1701 E Martin Luther King Jr Blvd, Ste 102, Austin, TX 78702",5,30.279202,-97.722964,78702
130,RedFarm,"201 W 3rd St, Austin, TX 78701",4,30.26563383,-97.74543609,78701
131,Hula Hut,"3825 Lake Austin Blvd, Austin, TX 78703",3.5,30.29471208,-97.78439585,78703
132,Bat City Pies,"1505 Town Creek Dr, Austin, TX 78741",5,30.241716,-97.726887,78741
133,Jeffrey's,"1204 W Lynn St, Austin, TX 78703",4,30.28036214,-97.75907211,78703
134,Sammie’s Italian,"807 W 6th St, Austin, TX 78703",4,30.27019,-97.75102,78703
135,888 Pan Asian Restaurant,"2400 E Oltorf St, Ste 1A, Austin, TX 78741",4,30.22965592,-97.73000412,78741
136,Dai Due,"2406 Manor Rd, Ste A, Austin, TX 78722",4,30.28488713,-97.71678397,78722
137,Industry - Eastside,"1211 E 5th St, Ste 150, Austin, TX 78702",4,30.2629956,-97.73012466,78702
138,NADC Burger,"85 Rainey St, Austin, TX 78701",4,30.259519,-97.738185,78701
139,68 Degrees Kitchen,"2401 Lake Austin Blvd, Austin, TX 78703",4,30.27786,-97.7729,78703
140,ARTIPASTA,"6406 N Interstate 35 Frontage Rd, Ste 2510, Austin, TX 78752",4.5,30.32530101,-97.70749083,78752
141,Daiboku,"609 W 29th St, Austin, TX 78705",4.5,30.29543757,-97.74365142,78705
142,Ling Wu Asian Restaurant,"7415 Southwest Pkwy, Austin, TX 78735",4,30.2565206,-97.8704907,78735
143,El Alma South,"4521 Westgate Blvd, Austin, TX 78745",4.5,30.23169,-97.80013,78745
144,Tsuke Edomae,"4600 Mueller Blvd, Ste 1035, Austin, TX 78723",5,30.298973,-97.70816,78723
145,Juliet Italian Kitchen,"1500 Barton Springs Rd, Austin, TX 78704",4,30.26164582,-97.76005464,78704
146,Lucky Robot,"1303 S Congress Ave, Austin, TX 78704",4,30.25085148,-97.74900629,78704
147,ATX Cocina,"110 San Antonio St, Ste 170, Austin, TX 78701",4,30.26494587,-97.74925853,78701
148,Choo Sando Omakase,"5222 Burnet Rd, Ste 535, Austin, TX 78758",4.5,30.32468184,-97.7403971,78758
149,WU Chow - North Lamar,"3800 N Lamar Blvd, Ste 170, Austin, TX 78756",4,30.305832,-97.743182,78756
150,True Food Kitchen,"222 W Ave, Ste HR100, Austin, TX 78701",4.5,30.26751023,-97.75199286,78701
151,Justine's Brasserie,"4710 E 5th St, Austin, TX 78702",4,30.253236,-97.700576,78702
152,South African Food Affair,"71 Rainey St, Austin, TX 78701",4.5,30.25812,-97.73869,78701
153,The Grove Wine Bar & Kitchen,"800 W 6th St, Ste 100, Austin, TX 78701",4,30.27053,-97.750899,78701
154,Kalimotxo,"607 W 3rd St, Ste 105, Austin, TX 78701",4,30.26677752,-97.74938708,78701
155,Stella San Jac,"310 East 5th St, Austin, TX 78701",4,30.26656361,-97.74057563,78701
156,Lou’s - Barton Springs,"1608 Barton Springs Rd, Austin, TX 78704",4,30.2624471,-97.7616614,78704
157,Colleen's Kitchen,"1911 Aldrich St, Ste 100, Austin, TX 78723",4,30.2984,-97.704748,78723
158,Jade Restaurant,"3801 N Capital Of Texas Hwy, C200, Austin, TX 78746",4,30.3352979,-97.804464,78746
159,Koriente,"621 E 7th St, Austin, TX 78701",4.5,30.267,-97.73597,78701
160,Culinary Dropout,"11721 Rock Rose, Ste 100, Austin, TX 78758",4,30.403437,-97.721694,78758
161,Craft Omakase,"4400 N Lamar Blvd, Ste 102, Austin, TX 78756",5,30.312563,-97.738624,78756
162,Two Hands,"1011 South Congress Ave, Ste 170, Austin, TX 78704",4,30.25357919,-97.74792418,78704
163,The Grove Wine Bar & Kitchen,"6317 Bee Caves Rd, Austin, TX 78746",4,30.29631849,-97.83285499,78746
164,Geraldine's,"605 Davis St, Austin, TX 78701",3.5,30.26005795,-97.73925847,78701
165,Oakmont Food,"1106 W 38th St, Austin, TX 78705",4,30.306147,-97.744355,78705
166,Jewboy Sub Shop,"6701 Burnet Rd, Ste A3, Austin, TX 78757",4.5,30.3428948,-97.73830716,78757
167,Café No Sé,"1603 S Congress Ave, Austin, TX 78704",4,30.24711909,-97.75042803,78704
168,Marufuku Ramen,"1900 Aldrich St, Ste 180, Austin, TX 78723",4.5,30.298142,-97.705115,78723
169,Bacalar,"44 East Ave, Ste 100, Austin, TX 78701",4,30.25575297,-97.73899577,78701
170,Saffron - South,"3201 Bee Cave Rd, Ste 148, Austin, TX 78746",4.5,30.273408,-97.80037,78746
171,Lazarus Brewing,"1902 E 6th St, Austin, TX 78702",4.5,30.26169,-97.72204,78702
172,Mama Kong Cambodian,"2211 Webberville Rd, Austin, TX 78702",5,30.26181,-97.71642,78702
173,Il Brutto,"1601 E 6th St, Austin, TX 78702",4,30.26282047,-97.72633188,78702
174,Bufalina Due,"6555 Burnet Rd, Austin, TX 78757",4,30.34135607,-97.73850519,78757
175,De Nada Cantina,"4715 E Cesar Chavez St, Austin, TX 78702",4.5,30.251447,-97.702184,78702
176,Old Thousand,"1000 E 11th St, Ste 150, Austin, TX 78702",4,30.26959554,-97.7296569,78702
177,Arturo's Underground Cafe,"314 W 17th St, Austin, TX 78701",4.5,30.2797094,-97.74192,78701
178,Devil May Care,"500 W 6th St, Austin, TX 78701",4,30.26955,-97.74751,78701
179,Monk's Momo,"318 E 5th St, Austin, TX 78701",4.5,30.26653,-97.74005,78701
180,Patrizi's,"1705 Cuernavaca, Austin, TX 78733",4.5,30.34027,-97.86307,78733
181,Tumble 22,"2304 Lake Austin Blvd, Austin, TX 78703",4,30.27792538,-97.77173683,78703
182,Spread & Co,"1601 W 38th St, Ste 1, Austin, TX 78731",4.5,30.3086982,-97.7504555,78731
183,KAPATAD Kitchen and Cafe,"3742 Far W Blvd, Ste 113, Austin, TX 78731",4.5,30.35636386,-97.75849581,78731
184,Chi'Lantro,"5222 Burnet Rd, Austin, TX 78756",4,30.32455931,-97.74005587,78756
185,Super Thai Cuisine,"2024 S Lamar Blvd, Austin, TX 78704",4.5,30.24915,-97.76841,78704
186,Birdie's,"2944 E 12th St, Austin, TX 78702",4,30.27645,-97.70456,78702
187,Yuki Handroll Bar,"6317-3 FM2244, Ste 330, Austin, TX 78746",4.5,30.29558743,-97.83178288,78746
188,DosiROK,"5610 North Interstate  35, Austin, TX 78751",5,30.31616649,-97.7084916,78751
189,Drop Kick,"1630 E 6th St, Ste 100, Austin, TX 78702",4,30.262616,-97.724536,78702
190,Revelry on the Boulevard,"6215 N Lamar Blvd, Austin, TX 78752",4.5,30.3307413,-97.72302349,78752
191,Truluck's Ocean's Finest Seafood & Crab,"300 Colorado St, Ste 100, Austin, TX 78701",4.5,30.265954,-97.745301,78701
192,Lamberts Downtown Barbecue,"401 W 2nd St, Austin, TX 78701",4,30.26523508,-97.74790507,78701
193,The Cavalier ATX,"2400 Webberville Rd, Ste A, Austin, TX 78702",4,30.262942,-97.714676,78702
194,BussinBuns,"1805 Airport Blvd, Austin, TX 78702",5,30.28154514,-97.702829,78702
195,Foxy's Proper Pub,"201 Brazos St, Austin, TX 78701",4,30.264078,-97.742585,78701
196,Nervous Charlie's Bagels,"5501 N Lamar Blvd, Ste B101, Austin, TX 78751",4.5,30.32317,-97.72758,78751
197,Steamies Dumplings,"6929 Airport Blvd, Austin, TX 78752",4.5,30.33866959,-97.71820627,78752
198,DeSano Pizzeria Napoletana,"301 Lavaca St, Ste 200, Austin, TX 78701",4.5,30.26629006,-97.745975,78701
199,Baldinucci Pizza Romana,"3300 Bee Caves Rd, Ste 110, West Lake Hills, TX 78746",4.5,30.27514817,-97.80066552,78746
200,Eberly,"615 S Lamar Blvd, Austin, TX 78704",4,30.258668,-97.758881,78704
201,Troy ATX,"8105 Mesa Dr, Ste A, Austin, TX 78759",4.5,30.3717533,-97.75642246,78759
202,JewBoy Sliders,"1111 E 6th St, Austin, TX 78702",4.5,30.26433454,-97.73065075,78702
203,Another Broken Egg Cafe,"6406 N Interstate 35 Frontage Rd, Ste 1600, Austin, TX 78752",4.5,30.32630147,-97.70780583,78752
204,Gina's on Congress,"314 Congress Ave, Austin, TX 78701",5,30.265866,-97.743919,78701
205,Licha's Cantina,"1306 E 6th St, Austin, TX 78702",4,30.264108,-97.728966,78702
206,1417 French Bistro,"1417 S 1st St, Austin, TX 78704",4,30.25006604,-97.75453119,78704
207,Nixta Taqueria,"2512 E 12th St, Austin, TX 78702",4.5,30.27496,-97.71324,78702
208,Jacoby's Restaurant & Mercantile,"3235 E Cesar Chavez St, Austin, TX 78702",4,30.2515,-97.70737,78702
209,Murray's Tavern,"2316 Webberville Rd, Austin, TX 78702",5,30.26275248,-97.71528028,78702
210,Yeni’s Fusion,"6507 Burnet Rd, Austin, TX 78757",4.5,30.34023,-97.73859,78757
211,P6,"111 E Cesar Chavez St, Austin, TX 78701",3.5,30.26278,-97.74396,78701
212,Eldorado Cafe,"3300 W Anderson Ln, Austin, TX 78757",4.5,30.362224,-97.74235715,78757
213,Ramen Tatsu-Ya,"1600 E 6th St, Austin, TX 78702",4,30.26326,-97.72624,78702
214,Underdog,"1600 S 1st St, Ste 100, Austin, TX 78704",4,30.24887,-97.755709,78704
215,Xian Sushi and Noodle - Mueller,"1801 E 51st St, Ste C370, Bldg C370, Austin, TX 78723",4,30.30309152,-97.69916454,78723
216,Playground ATX,"5001 Airport Blvd, Austin, TX 78751",5,30.3111864,-97.7150455,78751
217,Hideaway Kitchen & Bar,"4323 S Interstate 35, Austin, TX 78744",4,30.21180396,-97.75300058,78744
218,Hawaiian Bros Island Grill,"8023 Burnet Rd, Austin, TX 78757",4,30.35914131,-97.72965053,78757
219,Veracruz All Natural,"111 E Cesar Chavez St, Austin, TX 78701",4,30.262738,-97.743737,78701
220,Nosh & Bevvy,"8440 Burnet Rd, Austin, TX 78757",4,30.36547721,-97.72888854,78757
221,REVUE,"101 Red River St, Austin, TX 78701",4,30.26222356,-97.73837281,78701
222,KG BBQ,"3108 Manor Rd, Austin, TX 78723",4.5,30.28681,-97.70528,78723
223,Rice Ball,"6929 Airport Blvd, Austin, TX 78752",4,30.33866556,-97.71820024,78752
224,Juan In A Million,"2300 E Cesar Chavez St, Austin, TX 78702",4,30.25526606,-97.71905929,78702
225,J’s Hibachi,"43 N IH-35 Service Rd, Austin, TX 78702",4,30.2551044,-97.7362835,78702
226,Otherside Deli and Sub,"1104 W 34th St, Austin, TX 78705",4.5,30.30346,-97.74572,78705
227,Bouldin Acres,"2027 S Lamar Blvd, Austin, TX 78704",4,30.24826991,-97.76866492,78704
228,Love C Spot,"2027 E Cesar Chavez St, Austin, TX 78702",5,30.2560832,-97.7223636,78702
229,Austin Daily Press,"1900 E Martin Luther King Blvd, B, Austin, TX 78702",4,30.28021766,-97.72110933,78702
230,Fresa's - 360 and Westlake Dr,"3600 N Capital of Texas Hwy, Ste A110, Austin, TX 78746",4.5,30.33438975,-97.80814742,78746
231,Tommy Want Wingy,"94 Rainey St, Austin, TX 78701",4,30.26069027,-97.73829919,78701
232,bb.q Chicken - Austin,"6929 Airport Blvd, Ste 158, Austin, TX 78752",4,30.33719,-97.71732,78752
233,L'Oca d'Oro,"1900 Simond Ave, Austin, TX 78723",4,30.29726271,-97.704674,78723
234,WEH? Asian Fusion,"1023 Springdale Rd, Bldg 1 Ste I, Austin, TX 78721",5,30.26764074,-97.69392514,78721
235,Bamboo House Austin,"7010 Easy Wind Dr, Austin, TX 78752",4,30.33919,-97.71833,78752
236,Zoé Tong,"1530 Barton Springs Rd, Austin, TX 78704",4.5,30.262104,-97.761259,78704
237,P Thai’s Khao Man Gai,"8557 Research Blvd, Ste 130, Austin, TX 78758",4.5,30.36152178,-97.7152364,78758
238,Analog Bar + Bites,"301 West 17th St, Austin, TX 78701",4,30.2792498,-97.7416591,78701
239,Forthright,"35 Brazos St, Austin, TX 78701",4,30.26273857,-97.74310461,78701
240,Vespaio Ristorante,"1610 S Congress Ave, Austin, TX 78704",4,30.24735,-97.75074,78704
241,Turf N Surf Po' Boy,"407 Lavaca St, Austin, TX 78701",4.5,30.2670779,-97.7456564,78701
242,Josephine House,"1601 Waterson Ave, Austin, TX 78703",3.5,30.2805822,-97.759015,78703
243,Tatsumi Sushi,"2700 W Anderson Ln, Ste 212, Austin, TX 78757",4.5,30.359108,-97.734542,78757
244,La Volta Pizza Club,"900 W 10th St, Austin, TX 78703",4.5,30.27501,-97.751686,78703
245,Sapori Italian Roots,"800 Brazos St, Ste 215, Austin, TX 78701",5,30.269996,-97.741054,78701
246,Rayan Lebanese Cuisine,"1012 Clermont Ave, Austin, TX 78702",4.5,30.25498,-97.73608,78702
247,Salt & Time,"1912 E 7th St, Austin, TX 78702",3.5,30.26266,-97.72113,78702
248,Bureau De Poste,"4300 Speedway, Austin, TX 78751",4,30.30706221,-97.7299159,78751
249,Julie's Noodles,"8557 Research Blvd, Ste 110, Austin, TX 78758",4,30.36114062,-97.71579572,78758
250,Fukumoto Sushi & Yakitori,"514 Medina St, Austin, TX 78702",4.5,30.26470513,-97.73169535,78702
251,Renuka’s Kitchen,"1023 Springdale Rd, Unit 1, Austin, TX 78721",5,30.267597,-97.6926715,78721
252,Mongers Market + Kitchen,"4119 Guadalupe St, Austin, TX 78751",4,30.30693,-97.73519,78751
253,Paprika ATX,"6519 N Lamar Blvd, Austin, TX 78752",5,30.333323,-97.721302,78752
254,NADC Burger,"1007 E 6th St, Austin, TX 78702",3.5,30.26482,-97.73221,78702
255,Ramen Tatsu-Ya,"1234 S Lamar Blvd, Austin, TX 78704",4,30.25389979,-97.7631826,78704
256,The Well Westlake,"6317 Bee Caves Rd, Austin, TX 78746",4.5,30.29614353,-97.8328859,78746
257,Fixe Austin's Southern House,"500 W 5th St, Austin, TX 78701",4,30.26853,-97.74773,78701
258,Chi'Lantro,"1509 S Lamar Blvd, Austin, TX 78704",4,30.25191476,-97.76376701,78704
259,Nifty Fifty Diner,"4110 Guadalupe St, Austin, TX 78751",4.5,30.30765,-97.73534,78751
260,The Grub House,"519 E 7th St, Austin, TX 78701",4.5,30.26729198,-97.73738554,78701
261,Mandala Kitchen & Bar,"1100 S Lamar Blvd, Ste 1125, Austin, TX 78704",4.5,30.255356,-97.762147,78704
262,The Beer Plant,"3110 Windsor Rd, Austin, TX 78703",4,30.2966658,-97.7676046,78703
263,Tumble 22 Chicken Joint,"7211 Burnet Rd, Austin, TX 78757",4,30.347971,-97.735312,78757
264,Ellis,"111 Congress Ave, Austin, TX 78701",4.5,30.263536,-97.743585,78701
265,Llama Queen,"4620 E Cesar Chavez, Ste 1, Austin, TX 78702",4,30.25219486,-97.7029244,78702
266,Fonda San Miguel,"2330 W North Loop Blvd, Austin, TX 78756",4,30.32545,-97.7435,78756
267,Julie's Handmade Noodles,"2512 Rio Grande St, Austin, TX 78705",4,30.29051,-97.74464,78705
268,15th Street Cafe,"303 W 15th St, Austin, TX 78701",4,30.27749651,-97.74288937,78701
269,Tiny Boxwoods,"1503 W 35th St, Austin, TX 78703",3.5,30.30598409,-97.74959881,78703
270,Granny's Tacos,"1401 E 7th St, Austin, TX 78702",4.5,30.26436683,-97.72800189,78702
271,Chapulín Cantina,"1610 S Congress Ave, Austin, TX 78704",4,30.2472698,-97.75078138,78704
272,Maiko Sushi,"207 San Jacinto Blvd, Ste 202, Austin, TX 78701",4,30.26427,-97.74127,78701
273,Mattie's,"811 W Live Oak St, Green Pastures, Austin, TX 78704",4,30.245335,-97.7628288,78704
274,Soto South Lamar,"1100 S Lamar Blvd, Ste 2115, Austin, TX 78704",4.5,30.25570084,-97.76207951,78704
275,Joann’s Fine Foods,"1224 S Congress Ave, Austin, TX 78704",4,30.25157,-97.74915,78704
276,J Prime Steakhouse - Austin,"301 Brazos St, Ste 150, Austin, TX 78701",4.5,30.2648096,-97.74160646,78701
277,Mai Thai Restaurant,"207 San Jacinto Blvd, Ste 201, Austin, TX 78701",4,30.26427,-97.74127,78701
278,Sugar Pine,"8578 Research Blvd, Austin, TX 78758",4.5,30.36184,-97.71761,78758
279,Verbena,"612 W 6th St, Austin, TX 78701",3.5,30.26992426,-97.74890707,78701
280,Elementary,"2026 S Lamar Blvd, Austin, TX 78704",3.5,30.24921697,-97.7685598,78704
281,Moody's Kitchen and Bar,"2530 Guadalupe St, Austin, TX 78705",3.5,30.28992422,-97.74158495,78705
282,Lima Criolla,"6406 N Interstate 35 Frontage Rd, Ste 1550, Austin, TX 78752",4,30.326379,-97.707544,78752
283,Blue Dahlia Bistro,"3663 Bee Cave Rd, West Lake Hills, TX 78746",4,30.27857485,-97.80769711,78746
284,The Brewtorium Brewery & Kitchen,"6015 Dillard Cir, Ste A, Austin, TX 78752",4,30.32588843,-97.71753391,78752
285,Bento Teppanyaki,"1201 Barbara Jordan Blvd, Ste 1230, Austin, TX 78723",4,30.30597587,-97.70823417,78723
286,Ma’Coco,"501 Comal St, Austin, TX 78702",4,30.26225,-97.7267,78702
287,Saveurs la Boulangerie,"3801 N Capital Of Texas Hwy, Ste D 180, Austin, TX 78701",4,30.33684787,-97.8042941,78701
288,Camp Out,"6700 Burnet Rd, Austin, TX 78757",3.5,30.34306158,-97.7392194,78757
289,Taquero Mucho,"508 West Ave, Austin, TX 78701",3.5,30.27009,-97.75113,78701
290,Uroko,"1023 Springdale Rd, Bldg 1, Ste C, Austin, TX 78721",4.5,30.26768004,-97.69384849,78721
291,Lou's,"1900 E Cesar Chavez St, Austin, TX 78702",4,30.25722,-97.72439,78702
292,Out of Nowhere ATX,"308 Congress Ave, Austin, TX 78701",5,30.26569,-97.74394,78701
293,White Tiger,"1321 S Congress Ave, Austin, TX 78704",4,30.250329,-97.749101,78704
294,Cantina 512,"70 Rainey St, Ste 100, Austin, TX 78701",3.5,30.2586098,-97.73893455,78701
295,Epicerie At The Contemporary,"3809 W 35th St, Austin, TX 78703",5,30.31218253,-97.77433388,78703
296,Bangers Sausage House & Beer Garden,"79 81 & 81.5 Rainey St, Austin, TX 78701",4,30.258905,-97.738413,78701
297,5280 Burger and Taphouse,"7034 Wood Hollow Dr, Austin, TX 78731",4.5,30.3524974,-97.75417057,78731
298,Gino's Vino Osteria,"1239 E 51st St, Austin, TX 78723",4.5,30.307265,-97.706995,78723
299,The OASIS on Lake Travis,"6550 Comanche Trl, Austin, TX 78732",2.5,30.40550206,-97.87414164,78732
300,Oye Chico,"406 Walsh St, Austin, TX 78703",4.5,30.27132812,-97.75866057,78703
301,Ahhan Lao Kitchen,"5610 N Interstate 35 Frontage Rd, Austin, TX 78751",4.5,30.31648,-97.70811,78751
302,Jan Chi Korean Cuisine & BBQ,"3808 Spicewood Springs Rd, Ste 104, Austin, TX 78759",4,30.3650066,-97.74901643,78759
303,Nori,"3208 Guadalupe St, Ste B, Austin, TX 78705",4.5,30.2999,-97.74031,78705
304,Double Trouble,"103 E North Lp Blvd, Austin, TX 78751",4,30.31748761,-97.722124,78751
305,The Front Page,"1023 Springdale Rd, Bldg 1 Ste F, Austin, TX 78721",4.5,30.26742675,-97.69386486,78721
306,Fareground At One Eleven,"111 Congress Ave, Austin, TX 78701",4,30.26368,-97.74367,78701
307,Nightcap,"1401 W 6th St, Austin, TX 78703",4,30.27371,-97.76045,78703
308,Otoko,"1603 S Congress Ave, Austin, TX 78704",4.5,30.2474,-97.75006,78704
309,Heo Eatery,"6929 Airport Blvd, Ste 132, Austin, TX 78752",4.5,30.3371041,-97.7167195,78752
310,The Jackalope,"404 E 6th St, Austin, TX 78701",4,30.26732,-97.73892,78701
311,De Smash Burger,"705 W 6th St, Austin, TX 78701",5,30.26984802,-97.749945,78701
312,Texas Chili Parlor,"1409 Lavaca St, Austin, TX 78701",4,30.27696,-97.74197,78701
313,Sushi Junai Omakase,"315 Congress Ave, Ste 100, Austin, TX 78701",4.5,30.265615,-97.743268,78701
314,Neighborhood Sushi,"1716 S Congress Ave, Austin, TX 78704",4,30.24653,-97.75109,78704
315,L&L Hawaiian Barbecue,"3601 W William Cannon Dr, Ste 300, Austin, TX 78749",4,30.21531013,-97.83335123,78749
316,Players,"300 W Martin Luther King Dr, Austin, TX 78701",3.5,30.281663,-97.7412463,78701
317,Carpenters Hall,"400 Josephine St, Austin, TX 78704",4,30.26215,-97.75871,78704
318,Bep Co Tham - KN Kitchen,"10901 N Lamar Blvd, Ste A101, Austin, TX 78753",4.5,30.378012,-97.68594,78753
319,Love Supreme,"2805 Manor Rd, Austin, TX 78722",4,30.28511423,-97.71167836,78722
320,Food Food,"2727 Exposition Blvd, Ste 112, Austin, TX 78703",4,30.303975,-97.763838,78703
321,Taco Flats - Clarksville,"1110 W Lynn St, Austin, TX 78703",3.5,30.280099,-97.759509,78703
322,Masa y Más,"1817 S Lamar Blvd, Austin, TX 78704",4,30.24966,-97.76647,78704
323,Chi'Lantro BBQ,"1201 Barbara Jordan Blvd, Ste 1460, Austin, TX 78723",4,30.30527465,-97.70825859,78723
324,Flower Child - West Lake Hills,"3300 Bee Cave Rd, Ste 150, West Lake Hills, TX 78746",4.5,30.274805,-97.799185,78746
325,Mezze Cafe,"504 W Oltorf St, Austin, TX 78704",4.5,30.24181762,-97.7581593,78704
326,Tyson's Tacos,"4905 Airport Blvd, Austin, TX 78751",4,30.30962298,-97.7153486,78751
327,The Git Out,"4930 South Congress Ave, Ste C-304, Austin, TX 78745",4.5,30.21218186,-97.77126587,78745
328,Mary's Cafe,"3209 Red River St, Austin, TX 78705",4.5,30.2914204,-97.7269608,78705
329,Cuba 512,"6800 West Gate Blvd, Ste 112, Austin, TX 78745",4,30.209067,-97.816031,78745
330,Jack Allen's Kitchen Anderson Lane,"3010 W Anderson Ln, Ste D, Austin, TX 78757",4.5,30.361396,-97.739671,78757
331,Bun Belly,"6929 Airport Blvd, Ste 132, Austin, TX 78752",4,30.33716328,-97.71672222,78752
332,DEE DEE,"4204 Manchaca Rd, Austin, TX 78745",4.5,30.2315332,-97.7877942,78745
333,CAVA,"515 Congress Ave, Austin, TX 78701",4.5,30.26783809,-97.74269919,78701
334,Hank's,"5811 Berkman Dr, Ste 100, Austin, TX 78723",3.5,30.312447,-97.692931,78723
335,Doc B's Restaurant + Bar,"3001 Palm Way, Ste 120, Austin, TX 78758",4.5,30.402758,-97.719745,78758
336,The Carillon,"1900 University Ave, Austin, TX 78705",4.5,30.2818694,-97.74003574,78705
337,Ciclo,"98 San Jacinto Blvd, Austin, TX 78701",4,30.26152727,-97.74175913,78701
338,Kismet Cafe,"1000 E 41st St, Ste 200, Austin, TX 78751",4.5,30.29983596,-97.72141602,78751
339,Taco Joint,"134 E Riverside Dr, Austin, TX 78704",4.5,30.25637,-97.74552,78704
340,Bombay To Kathmandu Kitchen and Curry Pizza,"6700 Middle Fiskville Rd, Suits 406, Austin, TX 78752",4.5,30.32887,-97.70751,78752
341,K BBQ,"6929 Airport Blvd, Ste 176, Austin, TX 78752",4,30.33644594,-97.71723552,78752
342,Buenos Aires Café - Este,"1201 E 6th St, Austin, TX 78702",4,30.26414,-97.73044,78702
343,Oddwood Ales,"3108 Manor Rd, Austin, TX 78723",4.5,30.28681,-97.70528,78723
344,Galaxy Cafe,"1000 W Lynn St, Austin, TX 78703",4,30.27937,-97.75999,78703
345,Mission Burger,"2209 S Congress Ave, Austin, TX 78704",5,30.240896,-97.752317,78704
346,Picnik - South 1st,"1600 S First St, Ste 110, Austin, TX 78704",4,30.24887,-97.75568,78704
347,USTA KABABGY,"9310 North Lamar Blvd, Austin, TX 78753",4.5,30.3625187,-97.6984345,78753
348,Littlefield's Tacos + Coffee,"2401 Winsted Ln, Austin, TX 78722",4,30.2929146,-97.76049962,78722
349,Casa do Brasil,"10515 N Mopac Expy Nb, Austin, TX 78759",4.5,30.38592971,-97.73426931,78759
350,Sway,"3437 Bee Cave Rd, West Lake Hills, TX 78746",3.5,30.27650369,-97.8040124,78746
351,Bill’s Oyster,"205 West 3rd St, Austin, TX 78701",4,30.26566006,-97.745661,78701
352,Oh K-Dog,"6929 Airport Blvd, Ste 133, Austin, TX 78752",4,30.33689885,-97.71666048,78752
353,Mason's Famous Lobster Rolls - Austin,"200 Congress Ave, Austin, TX 78701",4,30.26473613,-97.74460337,78701
354,Zombie Taco,"2552 Guadalupe St, Unit 100, Austin, TX 78705",4,30.2900268,-97.7412256,78705
355,FoodHeads,"616 W 34th St, Austin, TX 78705",4.5,30.30091,-97.7403,78705
356,Vaquero Taquero,"603 Sabine St, Austin, TX 78751",4.5,30.2665073,-97.7358353,78751
357,Lebowski's Grill,"8909 Burnet Rd, Austin, TX 78757",4.5,30.37186,-97.72586,78757
358,Gyu-Kaku Japanese BBQ,"1211 East 5th St, Ste 100, Austin, TX 78702",4,30.26330222,-97.73076914,78702
359,Ichi Umi Sushi,"9503 Research Blvd, Ste 500, Austin, TX 78759",4.5,30.386785,-97.741872,78759
360,Little Wu,"111 Congress Ave, Austin, TX 78701",3.5,30.26374,-97.74365,78701
361,Bar Louie,"3401 N Interstate Hwy 35, Ste 2002, Austin, TX 78722",4.5,30.29169,-97.72115,78722
362,Allday,"3111 W 35th St, Austin, TX 78703",4,30.313242,-97.766923,78703
363,The Southern Soul Bowl,"6500 Springdale Rd, Austin, TX 78723",5,30.30841,-97.66945,78723
364,Happy Chicks,"214 E 6th St, Austin, TX 78701",3.5,30.26763931,-97.740781,78701
365,Westlake Wine Bar,"3801 N Capital Of Texas Hwy, Ste A-180, Austin, TX 78746",4,30.33540382,-97.80542063,78746
366,Honest Mary's,"4800 Burnet Rd, Ste C300, Austin, TX 78756",4,30.31884361,-97.73968188,78756
367,Soup Man,"1819 S Pleasant Valley Rd, Austin, TX 78741",4.5,30.23452,-97.7210007,78741
368,Yellow Jacket Social Club,"1704 E 5th St, Austin, TX 78702",4,30.26159,-97.72456,78702
369,Ceviche7,"502 W 30th St, Austin, TX 78705",5,30.29634,-97.74139,78705
370,Pearl Dive Oyster Bar,"1611 W 5th St, Ste 105, Austin, TX 78703",4,30.2739251,-97.7644631,78703
371,Tillery Kitchen & Bar,"3201 E Cesar Chavez St, Austin, TX 78702",4,30.25153,-97.70872,78702
372,Honey Moon Spirit Lounge,"624 W 34th St, Austin, TX 78705",4.5,30.301011,-97.740579,78705
373,Blue Lacy,"1825 McBee St, Austin, TX 78723",2.5,30.29800783,-97.70460676,78723
374,"Snooze, an A.M. Eatery","3800 North Lamar Blvd, Ste 120, Austin, TX 78756",4,30.305832,-97.743182,78756
375,Brooklyn Dumpling Shop,"1401 E 6th St, Austin, TX 78702",3.5,30.26356985,-97.72838422,78702
376,Austin's Very Own Saltt,"2525 W Anderson Ln, Ste 130 -Bldg 3, Austin, TX 78757",5,30.35496183,-97.7328861,78757
377,Jim’s Smokehouse,"6900 Ranch Rd 620, Austin, TX 78732",5,30.40277368,-97.85523623,78732
378,Greenade,"2100 University Ave, Austin, TX 78705",4.5,30.28289,-97.74072,78705
379,Komé,"5301 Airport Blvd, Ste 100, Austin, TX 78751",4,30.31427,-97.71463,78751
380,Thyme Out Cafe,"4900 Mueller Blvd, Dell Children's Medical Center, Austin, TX 78723",5,30.30319562,-97.7064343,78723
381,Wee's Cozy Kitchen,"2400 Rio Grande St, Austin, TX 78705",4.5,30.28823337,-97.74500371,78705
382,Las Bis,"721 Congress Ave, Fl 8, Austin, TX 78701",4.5,30.269708,-97.741973,78701
383,K-Bop,"2002 Guadalupe St, Ste B, Austin, TX 78705",4,30.2829,-97.74238,78705
384,Cosmic Saltillo,"1300 E 4th St, Austin, TX 78702",4.5,30.26229966,-97.72998693,78702
385,Honest Mary's,"9828 Great Hills Trl, Ste 300, Austin, TX 78759",4.5,30.39510173,-97.74837785,78759
386,Pool Burger,"2315 Lake Austin Blvd, Austin, TX 78703",3.5,30.2778,-97.7725899,78703
387,Pho Please,"1920 East Riverside Dr, Ste D140, Austin, TX 78741",4.5,30.243163,-97.72809,78741
388,Sunny's Backyard,"3526 E 7th St, Austin, TX 78702",4.5,30.256489,-97.701921,78702
389,Sa-Tén - Canopy,"916 Springdale Rd, Bldg 3, Ste 101, Austin, TX 78702",4.5,30.2619598,-97.6990253,78702
390,Lefty's Brick Bar,"1813 E 6th St, Austin, TX 78702",4.5,30.26178361,-97.72313335,78702
391,Fourth & CO,"208 W 4th St, Unit D, Austin, TX 78701",3.5,30.26698,-97.74524534,78701
392,Taste Of Home Handmade Dumplings,"10901 N Lamar Blvd, Ste B-203, Austin, TX 78753",4,30.37783784,-97.68486143,78753
393,Dosa Shack,"5000 Burnet Rd, Austin, TX 78756",4.5,30.32118718,-97.7395378,78756
394,Saffron - Austin,"3616 Far W Blvd, Ste 113, Austin, TX 78731",4.5,30.355001,-97.755511,78731
395,Curra’s Hyde Park,"4215 Duval St, Austin, TX 78751",4,30.30437,-97.72601,78751
396,CAVA,"3201 Bee Caves Rd, Ste 100, Austin, TX 78746",4,30.27309274,-97.79921539,78746
397,Bird Bird Biscuit,"1401 W Koenig Ln, Austin, TX 78756",4.5,30.33079727,-97.73199202,78756
398,La Santa Barbacha,"2806 Manor Rd, Austin, TX 78722",4.5,30.28575604,-97.7115952,78722
399,Spicy Town Fresh Indian Cuisine,"5610 N Interstate Hwy 35, Austin, TX 78751",4.5,30.31616,-97.708469,78751
400,Bao’d Up - Mueller Aldrich,"1911 Aldrich St, Ste A1, Austin, TX 78723",4,30.29839335,-97.70454002,78723
401,Lonesome Dove Western Bistro - Austin,"123 W 6th St, Austin, TX 78701",3.5,30.2682,-97.74402,78701
402,Bobo’s Snack Bar,"3850 Airport Blvd, Austin, TX 78722",5,30.28994,-97.70774,78722
403,Elizabeth Street Cafe,"1501 S First St, Austin, TX 78704",3.5,30.24980758,-97.75468551,78704
404,Kerbey Lane Cafe - Central,"3704 Kerbey Ln, Austin, TX 78731",4,30.30803,-97.75047,78731
405,Bulevar,"9400 Arboretum Blvd, Austin, TX 78759",4,30.3896653,-97.7530075,78759
406,Ichi-Umi Sushi & Ramen,"2525 W Anderson Ln, Ste 120, Austin, TX 78757",4,30.354756,-97.73306667,78757
407,Spicy Boys Fried Chicken - Rainey,"75 1/2 Rainey St Austin Tx 78701, Austin, TX 78701",4.5,30.2584,-97.73859,78701
408,Buddy's Burger,"9001 Cameron Rd, Ste 101, Austin, TX 78754",4.5,30.34604078,-97.67666464,78754
409,The Backspace,"507 San Jacinto St, Austin, TX 78701",4,30.26701965,-97.7404066,78701
410,Uchiko,"4200 N Lamar Blvd, Ste 140, Austin, TX 78756",4.5,30.31067,-97.74,78756
411,Kiin Di,"1901 S Lamar Blvd, Austin, TX 78704",4.5,30.24942,-97.76701,78704
412,Ah Sing Den,"1100 E 6th St, Austin, TX 78702",3.5,30.26485,-97.7313,78702
413,East Side King,"2310 S Lamar Blvd, Austin, TX 78704",4,30.24757576,-97.77505493,78704
414,Aviary Wine & Kitchen,"2110 S Lamar Blvd, Ste C, Austin, TX 78704",4.5,30.24824,-97.7715,78704
415,Sammataro ,"2907 E 12th St, Austin, TX 78702",4,30.27564547,-97.70702802,78702
416,Luminaire,"721 Congress Ave, Austin, TX 78701",4,30.26976142,-97.74191788,78701
417,Second Bar & Kitchen - Austin,"1108 East Sixth St, Austin, TX 78702",4.5,30.26468759,-97.73054099,78702
418,Foreign & Domestic,"306 E 53rd St, Austin, TX 78751",4,30.31705799,-97.71956551,78751
419,Tender Thighs,"1016 E 6th St, Shangri-La Patio, Austin, TX 78702",4.5,30.264986,-97.731585,78702
420,The Chuckwagon Cafe,"1601 N Congress, Austin, TX 78701",4.5,30.27822084,-97.73865821,78701
421,Mour Cocina | Bodega,"1414 Shore District Dr, Ste 120, Austin, TX 78741",4,30.2438494,-97.7285157,78741
422,Hook & Reel Cajun Seafood & Bar,"9070 Research Blvd, Ste 305, Austin, TX 78758",4,30.3719203,-97.72744025,78758
423,Via 313 Pizza,"96 Rainey St, Austin, TX 78701",4.5,30.26083,-97.73825,78701
424,Lua Brazil,"Austin, TX 78702",4.5,30.26163,-97.71942,78702
425,Capriotti's Sandwich Shop,"1200 Barbara Jordan Blvd, Ste 360, Austin, TX 78723",4,30.30651562,-97.70741047,78723
426,Chef Choo,"8309 Research Blvd, Ste B, Austin, TX 78758",5,30.35622924,-97.71485677,78758
427,Pedroso's Pizza,"8315 Burnet Rd, Austin, TX 78757",5,30.36399425,-97.72843132,78757
428,Oma's Kitchen,"2025 Guadalupe St, Austin, TX 78701",4,30.28290056,-97.74179601,78701
429,The Mansion at the Commodore Perry Estate,"4100 Red River, Austin, TX 78751",5,30.300425,-97.7222856,78751
430,Space Cowboy,"1917 East 7th St, Austin, TX 78702",3,30.26213602,-97.721464,78702
431,The Peached Tortilla,"3600 Presidential Blvd, East Food Court, Austin, TX 78719",4,30.20490358,-97.66713552,78719
432,The Bon Aire,"9070 Research Blvd, Ste 101, Austin, TX 78758",4.5,30.37267,-97.7280278,78758
433,SoCo Bar & Bites,"300 S Congress Ave, Austin, TX 78704",4,30.25849,-97.74729,78704
434,Home Slice Pizza,"501 E 53rd St, Austin, TX 78751",4.5,30.3163524,-97.71839582,78751
435,Grizzelda's,"105 Tillery St, Austin, TX 78702",3.5,30.25219698,-97.70821112,78702
436,Foxtrot,"1804 S 1st St, Austin, TX 78704",3.5,30.24716,-97.75617,78704
437,Hi Hat Public House,"2121 E 6th St, Austin, TX 78702",4.5,30.26024761,-97.71887076,78702
438,The Kebab Shop,"1201 Barbara Jordan Blvd, Ste 200, Austin, TX 78723",4,30.30636635,-97.70898874,78723
439,Salsa Limón,"3001 Guadalupe St, Austin, TX 78705",4,30.29665,-97.74181,78705
440,Spicy Boys Fried Chicken - East 6th,"1701 E 6th St, Austin, TX 78702",4.5,30.26212008,-97.72451989,78702
441,Austin Taco Project,"500 E 4th St, Austin, TX 78701",3.5,30.26506,-97.73862,78701
442,34th Street Cafe,"1005 W 34th St, Austin, TX 78705",3.5,30.30264854,-97.745224,78705
443,The backYard at Waller Creek,"701 E 11th St, Austin, TX 78701",3.5,30.270172,-97.734031,78701
444,Nasha,"1614 E 7th St, Austin, TX 78702",4,30.26379,-97.7248,78702
445,Cypress Grill,"4404 W William Cannon Dr, Ste L, Austin, TX 78749",4,30.22384809,-97.83891132,78749
446,El Naranjo South Lamar,"2717 S Lamar Blvd, Ste 1085, Austin, TX 78704",4,30.24419821,-97.78098814,78704
447,Swedish Hill,"1120 West 6th St, Austin, TX 78703",3.5,30.2726635,-97.756528,78703
448,Roots Chicken Shak,"1801 E 51st St, Austin, TX 78723",4.5,30.3011623,-97.6989346,78723
449,School House Pub,"2207 Manor Rd, Austin, TX 78722",4,30.28420879,-97.71881621,78722
450,Dovetail Pizza,"1816 S 1st St, Austin, TX 78704",4.5,30.24682065,-97.75640011,78704
451,Blind Salamander Kitchen & Bar,"8212 Barton Club Dr, Austin, TX 78735",4.5,30.29126842,-97.85830338,78735
452,El Pollo Rico,"1815 Airport Blvd, Austin, TX 78702",5,30.28181023,-97.70299937,78702
453,Santorini Cafe,"11800 N Lamar Blvd, Austin, TX 78753",4.5,30.38775433,-97.6841092,78753
454,1886 Cafe & Bakery,"604 Brazos St, Austin, TX 78701",4,30.268032,-97.74195,78701
455,Central Machine Works Brewery and Beer Hall,"4824 E Cesar Chavez St, Austin, TX 78702",4,30.25201,-97.70154,78702
456,Uchi,"801 S Lamar Blvd, Austin, TX 78704",4.5,30.257552,-97.759778,78704
457,SLAB BBQ & Beer,"9012 Research Blvd C4, Ste C4, Austin, TX 78758",4.5,30.3714463,-97.72451034,78758
458,Roaring Fork,"10850 Stonelake Blvd, Austin, TX 78759",4,30.40064,-97.73747,78759
459,Clay Pit,"1601 Guadalupe St, Austin, TX 78701",4,30.2791,-97.74233,78701
460,Better Half Coffee & Cocktails,"406 Walsh St, Austin, TX 78703",4,30.27137,-97.75839,78703
461,Hoodoo Crawfish,"Austin, TX 78701",5,30.27048574,-97.74234639,78701
462,Iron Cactus Mexican Restaurant and Margarita Bar,"606 Trinity St, Austin, TX 78701",3.5,30.26734,-97.73941,78701
463,Counter Cafe West Campus,"603 W 29th St, Austin, TX 78705",4,30.29543333,-97.74336333,78705
464,Honduras Food,"7207 East Riverside Dr, Austin, TX 78741",4.5,30.22046797,-97.6946317,78741
465,Cisco's Municipal Cafe,"2901 Enfield Rd, Austin, TX 78703",5,30.29045,-97.77697,78703
466,Fifteen26,"5610 N Interstate Hwy 35, Austin, TX 78751",0,30.316163,-97.7084916,78751
467,Lady Bird Kitchen & Bar,"810 Red River St, Hotel Indigo Austin Downtown - University, Austin, TX 78701",4.5,30.2690628,-97.7363848,78701
468,Asador,"405 E 7th St, Austin, TX 78701",4.5,30.26766,-97.73864,78701
469,The Black Forest,"1615 Crozier Ln, Del Valle, TX 78617",4.5,30.22101,-97.66054,78617
470,KA Bean Crew,"2515 Leon St, Austin, TX 78705",4.5,30.29051114,-97.74888873,78705
471,Little House,"4112 Medical Pkwy, Austin, TX 78756",4,30.31106,-97.74289,78756
472,Yard House,"11800 Domain Blvd, Ste 700, Austin, TX 78758",4,30.40435174,-97.72148318,78758
473,Lick It Up - East Austin,"2421 Webberville Rd, Austin, TX 78702",3.5,30.26265604,-97.7144728,78702
474,Wayside,"2906 Fruth St, Austin, TX 78705",4.5,30.2953157,-97.7420522,78705
475,Champions Austin Restaurant & Bar,"300 East 4th, Ste 1, Austin, TX 78701",3.5,30.265668,-97.740414,78701
476,TeriBox,"2021 Guadalupe St, Ste 234, Austin, TX 78705",4,30.283374,-97.741338,78705
477,Yard Bar,"6700 Burnet Rd, Austin, TX 78757",4,30.34303,-97.73921,78757
478,Local Foods,"454 West 2nd St., Austin, TX 78701",4.5,30.265699,-97.748504,78701
479,Bartlett's,"2408 W Anderson Ln, Austin, TX 78757",4,30.356725,-97.73124,78757
480,Stinson's,"4416 Burnet Rd, Austin, TX 78756",4,30.3151275,-97.7417583,78756
481,Fresh Bowl,"1021 E Parmer Ln, Austin, TX 78753",4.5,30.3984439,-97.6552136,78753
482,BD Riley's Irish Pub at Mueller,"1905 Aldrich St, Ste 130, Austin, TX 78723",4,30.298197,-97.705185,78723
483,Scholz Garten,"1607 San Jacinto Blvd, Austin, TX 78701",3.5,30.27731104,-97.73652626,78701
484,Foxtrot,"4818 Burnet Rd, Austin, TX 78756",4,30.31950292,-97.73948736,78756
485,Tandoori Lounge,"3601 W William Canon Dr, Ste 450, Austin, TX 78749",4.5,30.21495187,-97.833286,78749
486,The Driskill Bar,"604 Brazos St, Austin, TX 78701",4,30.26855811,-97.74163316,78701
487,Frazier's Long and Low,"2538 Elmont Dr, Austin, TX 78741",4,30.239289,-97.719892,78741
488,Hyde Park Bar & Grill Central,"4206 Duval St, Austin, TX 78751",3.5,30.30419,-97.72668,78751
489,24 Diner,"600 N Lamar Blvd, Ste 200, Austin, TX 78703",3.5,30.27198034,-97.75425949,78703
490,Clark's Oyster Bar - Austin,"1200 W 6th St, Austin, TX 78703",4,30.27296759,-97.75719739,78703
491,Kinda Tropical,"3501 E 7th St, Austin, TX 78702",4,30.25655,-97.70309,78702
492,Lonche'Bar,"5201 N Lamar Blvd, Austin, TX 78751",5,30.31961,-97.72994,78751
493,Chef Hong,"907 W 24th St, Austin, TX 78705",4.5,30.28819146,-97.74720853,78705
494,Los Pinos Jalisco,"6203 N Capital Of Texas Hwy, Austin, TX 78731",4.5,30.36088752,-97.78933073,78731
495,Street,"3407 Greystone Dr, Austin, TX 78731",4,30.35658709,-97.7475086,78731
496,Magnolia Cafe South,"1920 S Congress Ave, Austin, TX 78704",3.5,30.24467389,-97.75190364,78704
497,Parkside,"301 E 6th St, Austin, TX 78701",4,30.26706314,-97.74032593,78701
498,First Light Books,"4300 Speedway, Austin, TX 78751",4.5,30.30697911,-97.72976896,78751
499,Musashino Sushi Dokoro,"2905 San Gabriel St, Ste 200, Austin, TX 78705",4,30.2980839,-97.7475817,78705
500,Spicy Szechuan,"3706 Jefferson St, Austin, TX 78731",3,30.30939,-97.75141,78731
501,The Mediterranean Chef,"5908 Aurora Dr, Austin, TX 78757",4.5,30.32995958,-97.7279667,78757
502,Mousam Spice House,"3828 N Interstate 35 Frontage Rd, Austin, TX 78751",4,30.29538,-97.71982,78751
503,Rules & Regs,"101 Red River St, Austin, TX 78701",4,30.26196812,-97.73806899,78701
504,Le Bleu,"9070 Research Blvd, Ste 303, Austin, TX 78758",4.5,30.37202068,-97.72731477,78758
505,Vivo Austin,"6406 N I 35, Ste 2343, Austin, TX 78752",4,30.32540851,-97.70852283,78752
506,Modern Market,"3201 Bee Caves Rd, Ste 144, Austin, TX 78746",4,30.2727063,-97.8002069,78746
507,Mighty Mo’s,"2716 1/2 Guadalupe St, Austin, TX 78705",4,30.29284,-97.741746,78705
508,Pinch,"Austin, TX 78705",4.5,30.29567,-97.73912,78705
509,Hyderboyz kitchen ,"4501 E Mlk Blvd, Austin, TX 78721",5,30.2851997,-97.6842751,78721
510,Four Brothers,"111 Congress Ave, Austin, TX 78701",4,30.26374,-97.74365,78701
511,Oasis Texas Brewing,"6550 Comanche Trl, Ste 301, Austin, TX 77098",4,30.405369,-97.8744985,77098
512,The Austin Eagle,"8201 Cross Park Dr, Ste B2, Austin, TX 78754",4,30.33100442,-97.66678807,78754
513,Phoenician Resto Cafe,"2909 Guadalupe St, Ste B, Austin, TX 78705",4.5,30.29563,-97.742392,78705
514,Cucina On 35th,"1608 W 35th St, Austin, TX 78703",4,30.307613,-97.7509029,78703
515,Pollo Caliente,"5933 Westminster Dr, Austin, TX 78723",4.5,30.31306,-97.69063,78723
516,Sushi Bar,"2600 E Cesar Chavez St, Austin, TX 78702",4.5,30.254027,-97.715198,78702
517,Cuantos Tacos,"1108 E 12th St, Austin, TX 78702",4.5,30.27289434,-97.7281926,78702
518,Sweet Chive,"2515 E Cesar Chavez St, Austin, TX 78702",4,30.25386,-97.71564,78702
519,It's Italian Cucina,"1500 South Lamar Blvd, Ste 110, Austin, TX 78704",4,30.2525913,-97.76429607,78704
520,Billy's on Burnet,"2105 Hancock Dr, Austin, TX 78756",4,30.32202911,-97.73976135,78756
521,Counter Cafe East,"1914 E 6th St, Ste A, Austin, TX 78702",4,30.2616692,-97.7215424,78702
522,The Meteor,"2110 S Congress Ave, Austin, TX 78704",4,30.24282519,-97.75262521,78704
523,The Iron Bear,"301 W 6th St, Austin, TX 78701",4,30.268531,-97.745496,78701
524,Halal Bros,"2712 Guadalupe St, Austin, TX 78705",4,30.29253104,-97.74164734,78705
525,Turkey Twist,"5903 Wellington Dr, Austin, TX 78723",1,30.312154,-97.687817,78723
526,Taco Flats - Burnet,"5520 Burnet Rd, Ste 101, Austin, TX 78756",4,30.330914,-97.740225,78756
527,Biscuits + Groovy - South,"1210 Barton Springs Rd, Austin, TX 78704",4.5,30.26084499,-97.75727464,78704
528,Biderman's Deli,"3742 Far West Blvd 101, Ste 101, Austin, TX 78746",3.5,30.3560504,-97.7577048,78746
529,The Smokin' Rose Taco Joint,"1308 E 6th St, Austin, TX 78702",4.5,30.264076,-97.728658,78702
530,Mort Subite,"308 Congress Ave, Austin, TX 78701",4.5,30.265719,-97.7439904,78701
531,Komal Latin Kitchen & Bar,"11320 RR 2222, Austin, TX 78730",4,30.40220897,-97.8521185,78730
532,OneTaco,"402 Brazos St, Austin, TX 78701",4.5,30.265992,-97.742265,78701
533,Casino El Camino,"517 E 6th St, Austin, TX 78701",4,30.26636,-97.7377,78701
534,Maie Day,"1603 S Congress Ave, Austin, TX 78704",3.5,30.2474,-97.75006,78704
535,Chi'Lantro,"823 Congress Ave, Austin, TX 78701",4,30.27047421,-97.74125343,78701
536,Sip Pho,"512 W 29th St, Austin, TX 78705",4.5,30.295421,-97.742327,78705
537,Veracruz All Natural,"1700 Guadalupe St, Travis County Civil and Family Courts Facility, Austin, TX 78701",4.5,30.2801,-97.74254,78701
538,The Halal Corner,"1200 Barbara Jordan, Ste 300, Austin, TX 78723",4,30.3062152,-97.70766039,78723
539,i Fratelli Pizza Downtown Austin,"501 W 15th St, Ste C, Austin, TX 78701",4,30.2780074,-97.74440577,78701
540,Ranch 616,"616 Nueces St, Austin, TX 78701",3.5,30.27047946,-97.74839566,78701
541,"Snooze, an A.M. Eatery","1700 South Lamar, Ste 301, Austin, TX 78704",4,30.251717,-97.766627,78704
542,Cidercade Austin,"600 E Riverside Dr, Austin, TX 78704",4.5,30.2525,-97.74104,78704
543,Black Star Co-op Pub & Brewery,"7020 Easy Wind Dr, Ste 100, Austin, TX 78752",4,30.33817165,-97.71884501,78752
544,Gnar Bar,"219 E 6th St, Austin, TX 78701",4.5,30.26725873,-97.7408003,78701
545,The Well,"440 2nd St, Austin, TX 78701",4.5,30.26572725,-97.74833726,78701
546,Afghan Village,"9717 N Lamar Blvd, Austin, TX 78753",4.5,30.36572694,-97.6947071,78753
547,Garbo’s,"626 N Lamar Blvd, Austin, TX 78703",4,30.27258087,-97.7536861,78703
548,Cenote,"1010 E Cesar Chavez St, Austin, TX 78702",4,30.26055805,-97.73368124,78702
549,CAVA,"2426 Guadalupe St, Austin, TX 78705",4,30.28856225,-97.74168442,78705
550,Seven Spice,"3901 Spicewood Springs Rd, Ste B, Austin, TX 78759",4,30.36551549,-97.7503281,78759
551,Mother Klucker,"5610 N Interstate Hwy 35, Austin, TX 78751",4,30.316177,-97.70824,78751
552,Waterloo Ice House 360 & 2222,"6203 N Capital Of Texas Hwy, Austin, TX 78731",3.5,30.3608743,-97.7893634,78731
553,The Halal Project,"917 W 12th St, Austin, TX 78703",4.5,30.27656,-97.75076,78703
554,Cafe Fin,"2438 W Anderson Ln, Ste A3, Austin, TX 78757",4,30.358027,-97.731826,78757
555,Skinny's Off Track Bar,"1806 E 12th St, Austin, TX 78702",4.5,30.27383,-97.7205,78702
556,Maudie's Café,"2608 W 7th, Austin, TX 78703",3.5,30.28281,-97.77557,78703
557,Pho Craft,"3307 Oak Springs Dr, Austin, TX 78721",4.5,30.27349,-97.69708,78721
558,Azul Tequila,"3815 Dry Creek Dr, Austin, TX 78731",3.5,30.3427391,-97.7640076,78731
559,Another Broken Egg Cafe,"8012 Mesa Dr, Austin, TX 78731",4.5,30.37057,-97.75845,78731
560,VERDAD True Modern Mexican - Coming Soon,"2701 Perseverance Dr, Austin, TX 78731",0,30.31831,-97.75381,78731
561,Little Deli & Pizzeria,"1804 Briarcliff Blvd, Austin, TX 78723",4.5,30.314342,-97.689852,78723
562,Pinthouse Pizza,"4236 S Lamar Blvd, Austin, TX 78704",4.5,30.236083,-97.795895,78704
563,Bluefin Sushi Bar & Ramen,"5400 Brodie Ln, Ste 1200, Sunset Valley, TX 78745",4.5,30.2307,-97.82042,78745
564,Galloway's Sandwich Shop,"1914 E 12th St, Austin, TX 78702",4.5,30.27398,-97.71937,78702
565,Cheba Hut Toasted Subs,"3016 Guadalupe St, Austin, TX 78705",4.5,30.29802615,-97.74167607,78705
566,Chago's Caribbean Cuisine,"7301 N Lamar Blvd, Austin, TX 78752",4.5,30.340268,-97.716942,78752
567,Louisiana Crab Shack,"2525 W Anderson Ln, Ste 265, Austin, TX 78757",3.5,30.355906,-97.733481,78757
568,Bikkle Jamaican Restaurant,"3023 Guadalupe St, Austin, TX 78705",4.5,30.297043,-97.741433,78705
569,Hoboken Pie,"718 Red River St, Austin, TX 78701",4,30.26822,-97.73678,78701
570,Louisiana Wild Crawfish & Catering,"Austin, TX 78701",4.5,30.27048574,-97.74234639,78701
571,Red Lotus Asian Grille,"6507 Jester Blvd, Ste 501, Austin, TX 78750",4.5,30.369571,-97.800953,78750
572,Carnitas el Guero,"8624 N Lamar Blvd, Austin, TX 78744",4.5,30.3552619,-97.7032641,78744
573,A Touch of Soul,"1206 Chicon St, Austin, TX 78702",5,30.274121,-97.720185,78702
574,Steiner Ranch Steakhouse,"5424 Steiner Ranch Blvd, Austin, TX 78732",3.5,30.38991,-97.87181,78732
575,Mum Foods Smokehouse & Delicatessen ,"5811 Manor Rd, Austin, TX 78723",4.5,30.3058633,-97.6797593,78723
576,The Austin Club,"110 E 9th St, Austin, TX 78701",4.5,30.270942,-97.7408389,78701
577,Home Slice Pizza,"1415 S Congress St, Austin, TX 78704",4.5,30.2492254,-97.74955322,78704
578,Freddo Atx,"2336 S Congress Ave, Austin, TX 78704",4,30.23935,-97.75324,78704
579,La Peña,"227 Congress Ave, Austin, TX 78701",4,30.26515558,-97.74370787,78701
580,Veracruz All Natural,"2401 Winsted Ln, Austin, TX 78703",4.5,30.29333,-97.76036,78703
581,Happy Chicks,"6425 Burnet Rd, Austin, TX 78757",4,30.339962,-97.738658,78757
582,Arpeggio Grill,"6619 Airport Blvd, Austin, TX 78752",4,30.3309659,-97.7155318,78752
583,III Forks,"111 Lavaca St, Austin, TX 78701",4,30.26435,-97.74676,78701
584,Techo Mezcaleria & Agave Bar,"2201 Manor Rd, Austin, TX 78722",4.5,30.28412,-97.7189099,78722
585,Civil Goat Coffee,"2610 Manor Rd, Austin, TX 78722",4.5,30.28532403,-97.71449413,78722
586,Mandola's Italian,"4700 W Guadalupe St, Ste 12, Austin, TX 78751",4,30.31593193,-97.73367962,78751
587,ATX Food,"517 S Lamar, Austin, TX 78704",4.5,30.259692,-97.758216,78704
588,Cuantas Hamburguesas,"1108 E 12th St, Austin, TX 78702",4,30.27271926,-97.7286208,78702
589,Aussie's Grill & Beach Bar,"306 Barton Springs Rd, Austin, TX 78704",3,30.25898,-97.74808,78704
590,Hillside Farmacy,"1209 E 11th St, Austin, TX 78702",3.5,30.26809311,-97.72691345,78702
591,MezzeMe,"4700 W Guadalupe St, Ste 9, Austin, TX 78751",4.5,30.31563847,-97.73366287,78751
592,Camino Alamo BBQ,"1914 Guadalupe St, Austin, TX 78705",5,30.282649,-97.742393,78705
593,Humpty’s Wall of Breakfast,"8820 Burnet Rd, Ste 502, Austin, TX 78757",4.5,30.37105794,-97.72792913,78757
594,The Mockingbird Café,"600 W 2nd St, Austin, TX 78701",4,30.26611,-97.75004,78701
595,China Family Restaurant at Highland,"6801 Airport Blvd, Austin, TX 78752",4,30.33406,-97.71649,78752
596,Arlo's,"900 Red River St, Austin, TX 78701",4.5,30.269513,-97.736244,78701
597,CARVE American Grille - Barton Creek,"7415 SW Pkwy, Bldg 1, Austin, TX 78735",4,30.25631136,-97.87046853,78735
598,Tellus Joe,"3110 Windsor Rd, Beer Plant Breezeway, Austin, TX 78703",3,30.29660485,-97.76774077,78703
599,DeSano Pizzeria Napoletana,"8000 Burnet Rd, Austin, TX 78757",4.5,30.35851,-97.73065,78757
600,"Snooze, an A.M. Eatery","1109 E 5th St, Ste 180, Austin, TX 78702",4,30.26345121,-97.7310762,78702
601,DittyDog,"519 E 7th St, Austin, TX 78701",4.5,30.26725,-97.73717,78701
602,Err Thing New Orleans,"1309 W 45th St, Austin, TX 78756",4.5,30.31508088,-97.74142988,78756
603,Gabriel's Cafe,"1900 University Ave, Austin, TX 78705",3.5,30.28231423,-97.74002089,78705
604,Aviator Pizza & Drafthouse,"1905 Aldrich St, Austin, TX 78723",4,30.297908,-97.70534,78723
605,Texas Honey Ham Company,"3736 Bee Cave Rd, Ste 6, West Lake Hills, TX 78746",4.5,30.280847,-97.807019,78746
606,Catrina's Tacos & Margaritas,"6507 Jester Blvd, Ste 105, Austin, TX 78750",4,30.37012817,-97.79996691,78750
607,Queen and King Cafe,"2718 Guadalupe St, Austin, TX 78705",5,30.29298,-97.74177,78705
608,Que Divino Cocina,"3435 Greystone Dr, Ste 112, Austin, TX 78731",3.5,30.35706743,-97.7487578,78731
609,Hopdoddy Burger Bar,"1400 S Congress Ave, Ste A190, Austin, TX 78704",4,30.249649,-97.749907,78704
610,TacoWey,"325 E 6th St, Austin, TX 78701",4,30.2668896,-97.7395782,78701
611,Creeks Restaurant,"9515 Hotel Dr, Austin, TX 78719",3,30.21143,-97.66388,78719
612,Bouldin Acres,"1806 W Braker Ln, Austin, TX 78758",4,30.391646,-97.704411,78758
613,Punch Bowl Social,"522 Congress Ave, Austin, TX 78701",3.5,30.2677516,-97.7432403,78701
614,La Holly,"2500 E 6th St, Austin, TX 78702",4,30.25918659,-97.71444556,78702
615,Wink,"1014 N Lamar Blvd, Ste E, Austin, TX 78703",4,30.275848,-97.752427,78703
616,Eddie V's Prime Seafood,"301 E 5th St, Austin, TX 78701",4.5,30.2662563,-97.7406372,78701
617,Hi Wings,"2525 W Anderson Ln, Ste 135, Austin, TX 78757",4.5,30.35507605,-97.73278217,78757
618,Gusto Italian Kitchen & Wine Bar,"4800 Burnet Rd, Austin, TX 78756",4,30.31831366,-97.73994163,78756
619,Gyro Delicious,"2011 Whitis Ave, Austin, TX 78705",4.5,30.283069,-97.740558,78705
620,Buen Provecho Supper Club,"1914 Willow St, Austin, TX 78702",5,30.256,-97.723825,78702
621,North Italia,"11506 Century Oaks Ter, Ste 124, Austin, TX 78758",4,30.40227815,-97.72598505,78758
622,Haymaker,"2310 Manor Rd, Austin, TX 78722",3.5,30.28475,-97.71763,78722
623,Eighteenth Over Austin,"Hilton Garden Inn, 500 N IH 35, Fl 18, Austin, TX 78701",3,30.2649609,-97.73544788,78701
624,Cherrywood Coffeehouse,"1400 E 38th 1/2 St, Austin, TX 78722",4,30.29332,-97.71597,78722
625,Lenoir,"1807 S 1st St, Austin, TX 78704",4,30.24686,-97.75586,78704
626,Taverna,"258 W 2nd St, Austin, TX 78701",3.5,30.26513,-97.74633,78701
627,Kerbey Lane Cafe - Westlake,"701 S Capital Of TX Hwy, Austin, TX 78746",3.5,30.29226866,-97.82731793,78746
628,Javi's Best of Tex-Mex,"7709 E Ben White Blvd, Austin, TX 78744",4,30.217777,-97.689705,78744
629,Texas Sushiko,"440 E St Elmo, Austin, TX 78745",4,30.2155,-97.76207,78745
630,Tso Chinese Takeout & Delivery,"3909 N Interstate Hwy 35, Ste E-5, Austin, TX 78722",4.5,30.296071,-97.717427,78722
631,Workhorse Bar,"100 N Loop Blvd E, Ste B, Austin, TX 78751",4.5,30.31771,-97.721675,78751
632,Chi'Lantro,"303 Colorado St, Ste 100, Austin, TX 78701",4,30.265846,-97.744623,78701
633,Bummer Burrito,"89 Rainey St, Austin, TX 78701",4.5,30.259889,-97.738116,78701
634,Tia's Kitchen,"Austin, TX 78754",5,30.35158539,-97.65459442,78754
635,épicerie ,"2307 Hancock Dr, Austin, TX 78756",4,30.32452583,-97.74367523,78756
636,Room 725,"101 Red River St, Fairmont Austin, Austin, TX 78701",4.5,30.2619189,-97.7386318,78701
637,Gyro center,"1309 W 45th St, Austin, TX 78756",4.5,30.315011,-97.741434,78756
638,Four Brothers,"80 Rainey St, Austin, TX 78701",4,30.25922,-97.73889,78701
639,KabobZi Mediterranean Grill,"2909 Guadalupe St, Austin, TX 78705",4.5,30.29564,-97.7424,78705
640,Siena Ristorante Toscana,"6203 N Capital Of Texas Hwy, Austin, TX 78731",3.5,30.36037959,-97.78895719,78731
641,Maudie’s Milagro,"3801 N Capital Of Tx Hwy, Austin, TX 78746",3.5,30.336911,-97.80337,78746
642,The Peached Tortilla,"Austin, TX 78756",4,30.32521248,-97.73834229,78756
643,Perry's Steakhouse & Grille,"114 W 7th St, Austin, TX 78701",4,30.26942366,-97.7435269,78701
644,Norte ATX,"730 Shady Ln, Austin, TX 78702",4.5,30.25454656,-97.69694021,78702
645,Bull And Bowl,"501 W 6th St, Ste 200, Austin, TX 78701",3.5,30.26928148,-97.74761862,78701
646,Shortwave Diner,"4204 Menchaca Rd, Austin, TX 78704",4.5,30.23155886,-97.78775707,78704
647,ZIKI,"706 N Lamar Blvd, Austin, TX 78703",4,30.27343,-97.75343,78703
648,Jewboy Sliders at Fareground,"1111 E 6th, Austin, TX 78702",4.5,30.2642529,-97.7307858,78702
649,Thai Kitchen,"3009 Guadalupe St, Austin, TX 78705",3.5,30.29673,-97.74167,78705
650,La Tunita 512,"2400 Burleson Rd, Austin, TX 78741",5,30.2295,-97.735966,78741
651,China's Family Restaurant,"1914 Guadalupe St, Ste B, Austin, TX 78705",3.5,30.28271,-97.7424,78705
652,Pizza Leon,"509 E Ben White Blvd, Austin, TX 78704",4.5,30.218453,-97.757751,78704
653,Aster's Ethiopian Restaurant,"2804 N I-35, Austin, TX 78722",4.5,30.28725319,-97.72494809,78722
654,Little Nishi,"1311 S 1st St, Ste F, Austin, TX 78704",5,30.25075438,-97.7543001,78704
655,The One Pho,"10721 Research Blvd, Ste B110, Austin, TX 78759",4.5,30.3990103,-97.7448629,78759
656,Casa Colombia,"2409 E 7th St, Austin, TX 78702",4,30.2608,-97.71482,78702
657,La Condesa,"400A W 2nd St, Austin, TX 78701",3.5,30.2656391,-97.7477811,78701
658,Via 313 Pizza,"3016 Guadalupe St, Austin, TX 78705",4.5,30.29787096,-97.74141397,78705
659,Luck’s Wagyu Burger Shoppe,"2900 W Anderson Ln, Ste 250, Austin, TX 78757",3.5,30.3601466,-97.7366615,78757
660,MUSE Fusion+Sushi,"4211 S Lamar Blvd, Ste A-3, Austin, TX 78704",4.5,30.23436169,-97.7928827,78704
661,USA HALAL,"303 W Mlk Jr Blvd, Austin, TX 78701",5,30.281213,-97.740773,78701
662,Ramen Tatsu-Ya,"8557 Research Blvd, Ste 126, Austin, TX 78758",4,30.36114125,-97.71522846,78758
663,The Dogwood West 6th,"715 W 6th St, Austin, TX 78701",3.5,30.26988,-97.75028,78701
664,Chat Patta,"2512 Rio Grande St, Austin, TX 78705",4.5,30.2905628,-97.74464201,78705
665,El Marisquero Seafood,"31 N Interstate, Austin, TX 78702",4,30.25403099,-97.73614191,78702
666,Pepe’s Tacos,"704 N Lamar Blvd, Austin, TX 78703",4.5,30.273319,-97.7535433,78703
667,Foxtrot,"301 W 2nd St, Ste 100, Austin, TX 78701",2.5,30.26480607,-97.74701882,78701
668,SouthCloud Ramen,"1914 Guadalupe St, Ste A, Austin, TX 78705",3.5,30.282631,-97.742321,78705
669,Chi'Lantro,"1414 Shore District Dr, Unit 102, Austin, TX 78741",4,30.24369,-97.7285,78741
670,Cannon + Belle,"500 E 4th St, Austin, TX 78701",3.5,30.265181,-97.738255,78701
671,Drink Well,"207 E 53rd St, Austin, TX 78751",4,30.31728,-97.72062,78751
672,The Perch Atx,"74 Trinity St, Austin, TX 78701",4,30.260559,-97.74177,78701
673,Via 313 Pizza,"600 W 6th St, Star Bar, Austin, TX 78701",0,30.26990208,-97.74850176,78701
674,Hopdoddy Burger Bar,"4615 N Lamar Blvd, Ste 307, Austin, TX 78751",3.5,30.31504618,-97.73444437,78751
675,Marigold Market and Cafe,"7415 Southwest Pkwy, Bldg 6, Ste 100, Austin, TX 78735",4.5,30.25481909,-97.86695657,78735
676,Austin's Habibi,"817 W 5th St, Austin, TX 78703",4,30.26957,-97.75303,78703
677,Pho Dinh Vietnamese Cuisine,"9515 N Lamar Blvd, Austin, TX 78753",4,30.36407,-97.69505,78753
678,Biscuits and Groovy,"5015 Duval St, Austin, TX 78751",4,30.31410449,-97.71969909,78751
679,Xian Sushi & Noodle - Domain,"3401 Esperanza Crossing, Ste 106, Austin, TX 78758",4,30.40038562,-97.72729011,78758
680,Vince Young Steakhouse,"301 San Jacinto Blvd, Austin, TX 78701",4,30.26485,-97.74115,78701
681,Ski Shores Cafe,"3103 Pearce Rd, Austin, TX 78730",3,30.33659768,-97.8234039,78730
682,Tsukimi,"12400 N Interstate 35 Exit 245, Ste A-111, Austin, TX 78753",4,30.4041271,-97.67602348,78753
683,Delicious AF,"5003 Airport Blvd, Austin, TX 78751",4,30.31135,-97.71503,78751
684,Marker 10,"208 Barton Springs Rd, Austin, TX 78704",3.5,30.26099434,-97.74680851,78704
685,SXSE Food,"415 St Elmo Rd, Ste 1-D2, Austin, TX 78745",4.5,30.220372,-97.7720092,78745
686,Thai Kun,"11601 Rock Rose Ave, Ste 100, Austin, TX 78758",4,30.40155707,-97.72243221,78758
687,Cafe At The Loren,"1211 W Riverside Dr, Austin, TX 78704",3.5,30.2640871,-97.7567378,78704
688,Poke House - West Lake Hills,"3652 Bee Cave Rd, Ste 4, West Lake Hills, TX 78746",4.5,30.27966,-97.80629,78746
689,Grata’s Pizzeria ,"2700 S Lamar Blvd, Austin, TX 78704",4.5,30.24557737,-97.78036923,78704
690,Cedar Door Patio Bar & Grill,"201 Brazos St, Bldg A, Austin, TX 78701",3.5,30.26407563,-97.74259017,78701
691,Mr. Sandwich,"82 Rainey St, Austin, TX 78701",4,30.25933,-97.73871,78701
692,Sazan Ramen,"6929 Airport Blvd, Ste 146, Austin, TX 78752",4.5,30.33719,-97.71732,78752
693,The Silver Medal,"7100 E Hwy 290, Austin, TX 78723",4,30.32275,-97.68254,78723
694,Chef Z Austin,"9014 Blue Quail Dr, Austin, TX 78758",5,30.362683,-97.703423,78758
695,Galaxy Cafe,"8127 Mesa Dr, Ste A100, Austin, TX 78759",4,30.37318,-97.75572,78759
696,Ladybird's Austin Kitchen,"4209 Airport Blvd, Austin, TX 78722",5,30.296665,-97.7074288,78722
697,R&B's Steak and Fries,"1106 E 11th St, Austin, TX 78702",4.5,30.26907891,-97.72847058,78702
698,HAHA Kitchen,"5610 N Interstate Hwy 35, Ste K-28, Austin, TX 78751",3,30.3161497,-97.7084916,78751
699,Pluckers Wing Bar - Rio Grande,"2222 Rio Grande St, Ste D116, Austin, TX 78705",3.5,30.28628468,-97.74493118,78705
700,Whiskey Tango Foxtrot Icehouse,"701 W 6th St, Austin, TX 78701",3.5,30.26976461,-97.74985068,78701
701,Lustre Pearl East,"114 Linden St, Austin, TX 78702",4,30.25302375,-97.7107398,78702
702,Ned Granger Cafe,"314 W 11th St, Austin, TX 78701",4,30.273972,-97.744123,78701
703,Asado's Taqueria,"1309 W 45th St, Austin, TX 78756",5,30.31506,-97.74145,78756
704,Burger Bar Campus,"1901 San Antonio St, Unit 140, Austin, TX 78705",4,30.28223,-97.74291,78705
705,Pacha Organic Cafe,"2915 Guadalupe St, Austin, TX 78705",4.5,30.29585,-97.74213,78705
706,The Driskill Grill,"604 Brazos St, Austin, TX 78701",4,30.26866132,-97.74171461,78701
707,Deckhand Oyster Bar - South,"4211 S Lamar Blvd, Ste C-1, Austin, TX 78704",3.5,30.23507203,-97.7933468,78704
708,Bento Picnic,"2600 E Cesar Chavez St, Austin, TX 78702",4.5,30.2540192,-97.715191,78702
709,True Texas BBQ - Lake Austin,"2652 Lake Austin Blvd, Austin, TX 78703",4,30.28354089,-97.77570733,78703
710,Pinthouse Pizza,"4729 Burnet Rd, Austin, TX 78756",4,30.318737,-97.739038,78756
711,Halal Time,"1400 E 6th St, Austin, TX 78702",4.5,30.263675,-97.7278596,78702
712,Cipollina,"1213 W Lynn St, Austin, TX 78703",3.5,30.2807,-97.75843,78703
713,Plank Seafood Provisions,"11410 Century Oaks Ter, Ste 136, Austin, TX 78758",4,30.4011132,-97.72668302,78758
714,Cooper's Sandwiches,"4601 Sw Pkwy, Ste 106, Austin, TX 78735",4.5,30.239447,-97.831815,78735
715,The County Line,"6500 W Bee Cave Rd, Austin, TX 78746",3.5,30.29784,-97.83566,78746
716,Seareinas,"6607 N Interstate Hwy 35, Austin, TX 78752",3.5,30.32777,-97.70421,78752
717,Tacodeli,"301 Congress Ave, Austin, TX 78701",4,30.26539029,-97.74346584,78701
718,Yalla Burgers & Wings Halal Guadalupe,"2819 Guadalupe St, Austin, TX 78705",4,30.2949,-97.74234,78705
719,Sherpa Snacks,"2006 Philomena St, Austin, TX 78723",3.5,30.3001445,-97.7025639,78723
720,Cafe Blue Downtown Austin,"340 E 2nd St, Austin, TX 78701",3.5,30.26366381,-97.7408639,78701
721,Rebel Cheese,"2200 Aldrich St, Ste 120, Austin, TX 78723",4.5,30.30137,-97.703166,78723
722,UTea Pho,"2222 Rio Grande St, Bldg B, Ste 120, Austin, TX 78705",4.5,30.28632463,-97.74582438,78705
723,Abo Youssef Mediterranean Food ,"2101 Manor Rd, Austin, TX 78722",5,30.283955,-97.719837,78722
724,ALPETRA,"501 W 24 St, Austin, TX 78705",4.5,30.2881141,-97.7430959,78705
725,That Burger,"10901 Domain Dr, Austin, TX 78758",4.5,30.39505,-97.72621,78758
726,Comal Fajita House,"1108 E 12th, Austin, TX 78702",5,30.27271,-97.72847,78702
727,Sushi Hi,"8557 Research Blvd, Ste 146, Austin, TX 78758",4.5,30.36162192,-97.71530141,78758
728,The Canteen,"1830 Simond Ave, Austin, TX 78723",5,30.297559,-97.704844,78723
729,Weird Food,"2008 S Congress Ave, Austin, TX 78704",4.5,30.243656,-97.7522,78704
730,Gumbeaux2Geaux,"1815 Rosewood Ave, Austin, TX 78702",4,30.26960257,-97.71920878,78702
731,Cover 3,"2700 W Anderson Ln, Ste 202, Austin, TX 78757",4,30.35868496,-97.73501587,78757
732,Eurasia Ramen 3,"5222 Burnet Rd, Ste 400A, Austin, TX 78756",4.5,30.324486,-97.740271,78756
733,ALC Steaks,"1205 N Lamar Blvd, Austin, TX 78703",4,30.27712,-97.75098,78703
734,Chinatown Westlake,"2712 Bee Caves Rd, Ste 124, Austin, TX 78746",3.5,30.271649,-97.786201,78746
735,Quezzas,"82 Rainey St, Austin, TX 78701",4.5,30.259373,-97.738846,78701
736,Cabo Bob's Burritos,"2828 Rio Grande St, Austin, TX 78705",4.5,30.295789,-97.7442669,78705
737,Fresa's - South 1st,"1703 S 1st St, Austin, TX 78704",3.5,30.24786758,-97.75511932,78704
738,Kura Revolving Sushi Bar,"6929 Airport Blvd, Ste 125, Austin, TX 78752",3.5,30.33742,-97.71712956,78752
739,Rockin' Rolls,"5000 Burnet Rd, Austin, TX 78756",4.5,30.32118,-97.7395,78756
740,La Cocina de Consuelo,"4516 Burnet Rd, Austin, TX 78756",4,30.316091,-97.74143,78756
741,Las Trancas,"1210 E Cesar Chavez St, Austin, TX 78702",4.5,30.25969273,-97.73167133,78702
742,Chili's,"4420 N Lamar Blvd, Austin, TX 78756",3,30.31332,-97.73835,78756
743,Kerbey Lane Cafe - University,"2606 Guadalupe St, Austin, TX 78705",3.5,30.29122,-97.7415,78705
744,Paul Martin's American Grill,"3120 Palm Way, Ste 130, Austin, TX 78758",4,30.4029773,-97.7213765,78758
745,Osio,"2901 S Capital Of Texas Hwy, Barton Creek Square Mall, Austin, TX 78746",4,30.25761,-97.806998,78746
746,Sushi Japon & Hibachi Grill,"6801 N I H 35, Austin, TX 78752",3.5,30.328855,-97.704869,78752
747,Hopdoddy Burger Bar,"1011 E 5th St, Ste 180, Austin, TX 78702",4,30.26377869,-97.73218364,78702
748,Pueblo Viejo,"2410 E Riverside Dr, Ste H-8, Austin, TX 78741",4.5,30.23730827,-97.72487641,78741
749,Vinaigrette,"2201 College Ave, Austin, TX 78704",4,30.24157893,-97.75198739,78704
750,Kt's Deli,"300 W 15th St, Austin, TX 78701",4.5,30.27788,-97.74206,78701
751,Texture Food and Drink,"6505 N I-35, Austin, TX 78752",3.5,30.32638,-97.70486,78752
752,Simar Seafood & Steak,"9503 Research Blvd, Unit 400, Austin, TX 78759",4.5,30.38673,-97.74074,78759
753,Micheladas Cafe y Cantina,"504 Trinity St, Austin, TX 78701",3,30.2664692,-97.7398879,78701
754,Oz. Tap House,"10601 Ranch Rd 2222, Ste H, Austin, TX 78730",4,30.39345423,-97.84547898,78730
755,Cabo Bob's Burritos,"500 E Ben White Blvd, Ste D100, Austin, TX 78704",4.5,30.22098092,-97.75692844,78704
756,The Scarbrough,"522 Congress Ave, Austin, TX 78701",4.5,30.26800168,-97.74315387,78701
757,Delucca Gaucho Pizza & Wine Austin,"4200 W Braker Ln, Austin, TX 78759",4,30.4000853,-97.73920377,78759
758,1st Choice Mediterranean & Moroccan Food,"403 E 6th St, Austin, TX 78701",4.5,30.26678,-97.73917,78701
759,ASTI Trattoria,"408 E 43rd St, Ste C, Austin, TX 78751",4,30.30508804,-97.72642517,78751
760,Spicy Boys Fried Chicken - St. Elmo,"440 E St Elmo Rd, Bldg G-2, Austin, TX 78745",4.5,30.21754932,-97.76105219,78745
761,Poke-Poke,"3100 S Congress Ave, Ste A, Austin, TX 78704",4,30.23169114,-97.75933867,78704
762,Supper Friends,"3012 Gonzales St, Ste 100, Austin, TX 78702",4.5,30.25963,-97.70663,78702
763,Pappadeaux Seafood Kitchen,"6319 N Interstate 35, Austin, TX 78752",4,30.3253,-97.70515,78752
764,Het Say Vietnamese Kitchen,"2121 E Oltorf St, Ste 12B, Austin, TX 78741",4.5,30.23015,-97.73257,78741
765,Budare's Venezuelan Food,"5000 Burnet Rd, Austin, TX 78756",5,30.32118,-97.7395,78756
766,Kuway's Banh Mi,"1309 W 45th St, Austin, TX 78756",4.5,30.314985,-97.741209,78756
767,la Barbecue,"2401 E Cesar Chavez, Austin, TX 78702",4.5,30.25455169,-97.7175825,78702
768,Chez Zee American Bistro,"5406 Balcones Dr, Austin, TX 78731",3.5,30.3367272,-97.7579259,78731
769,Posse East,"2900 Duval St, Austin, TX 78705",4,30.29142,-97.73465,78705
770,Ali Gyro Halal,"318 E 5th St, Austin, TX 78701",4.5,30.26638877,-97.74003014,78701
771,Kesos Tacos,"600 W Martin Luther King Jr Blvd, Austin, TX 78701",4,30.28264,-97.74444,78701
772,Planet Smoothie,"4211 S Lamar Blvd, Ste E-02, Austin, TX 78704",4,30.23384992,-97.79303631,78704
773,China Family,"2525 W Anderson Ln, Ste 110, Austin, TX 78757",4,30.35470295,-97.73301208,78757
774,Local Slice II,"8201 Cross Park Dr, Ste B3, Austin, TX 78754",4.5,30.3309777,-97.66681484,78754
775,Dawa Sushi,"5000 Burnet Rd, Austin, TX 78756",4.5,30.32118,-97.7395,78756
776,Community Garden,"1401 Cedar Ave, Unit 2, Austin, TX 78702",4.5,30.27703018,-97.71330821,78702
777,Arlo's,"2908 Fruth St, Spider House Cafe, Austin, TX 78705",4.5,30.295514,-97.741746,78705
778,Lazeez Mediterranean Cafe,"6812 N Fm 620, Austin, TX 78732",4.5,30.40186354,-97.8554252,78732
779,EastSide ATX,"1510 E Cesar Chavez St, Austin, TX 78702",3.5,30.25884,-97.72877,78702
780,Julio's Café,"4230 Duval St, Austin, TX 78751",4,30.30495,-97.72617,78751
781,Waltons Fancy and Staple,"609 W 6th St, Austin, TX 78701",4,30.269513,-97.749035,78701
782,The Grey Market,"501 Brazos St, Austin, TX 78701",4,30.26675993,-97.74114618,78701
783,Onion Creek Grille,"4140 Governors Row, Austin, TX 78744",3,30.21447182,-97.75062561,78744
784,Taco Joint,"2809 San Jacinto Blvd, Austin, TX 78705",4.5,30.2916247,-97.7349648,78705
785,Halal Wings,"1200 Barbara Jordan Blvd, Ste 340, Austin, TX 78723",4,30.30645492,-97.70761105,78723
786,Via 313 Pizza,"6705 Us-290, Ste 503, Austin, TX 78735",4.5,30.23288503,-97.86561083,78735
787,Black's Barbecue Austin,"3110 Guadalupe St, Austin, TX 78705",4,30.29849211,-97.74126824,78705
788,Pokeatery,"1201 Barbara Jordan Blvd, Ste 1410, Austin, TX 78723",4,30.30555097,-97.7080832,78723
789,ñoños tacos,"102 W Powell Ln, Austin, TX 78753",4.5,30.34803497,-97.70328116,78753
790,Envie,"Manor Rd, Austin, TX 78723",4,30.28755245,-97.7030456,78723
791,The Caribbean House,"5610 N Interstate 35, Austin, TX 78751",3,30.31616068,-97.7084916,78751
792,Marye's Gourmet Pizza,"3663 Bee Cave Rd, Ste 4G, Austin, TX 78746",4.5,30.27887897,-97.80730349,78746
793,sweetgreen,"1900 Aldrich St 140, Ste 140, Austin, TX 78723",4,30.298138,-97.705163,78723
794,Mi Madre's Restaurant,"2201 Manor Rd, Austin, TX 78722",4,30.28413246,-97.71892865,78722
795,Pelons Tex-Mex,"802 Red River St, Austin, TX 78701",3.5,30.26872,-97.7366,78701
796,Muzzy’s Bagels,"2909 E 12th St, Austin, TX 78702",4.5,30.27567655,-97.7068691,78702
797,Le Café Crêpe,"200 San Jacinto Blvd, Ste A, Austin, TX 78701",4,30.26385867,-97.74185481,78701
798,Ninja Chicken,"6901 Ranch Rd 620 N, Austin, TX 78732",4.5,30.40165,-97.85451,78732
799,Stephen F's Bar and Terrace,"701 Congress Ave, Austin, TX 78701",4,30.269104,-97.74195862,78701
800,Shiner's Saloon,"422 Congress Ave, Ste D, Austin, TX 78701",4,30.2670536,-97.7435379,78701
801,Pd Thai,"3208 Guadalupe St, Ste A, Austin, TX 78705",3.5,30.29984499,-97.74037624,78705
802,Fairways Cantina,"3851 Manor Rd, Austin, TX 78723",4.5,30.2894185,-97.6942893,78723
803,El Tacorrido,"5303 Burnet Rd, Austin, TX 78756",3.5,30.32639,-97.73938,78756
804,The Story of Texas Cafe,"1800 N Congress Ave, Austin, TX 78701",3.5,30.279915,-97.738741,78701
805,LaCorsha,"1214 W 6th St, Ste 220, Austin, TX 78703",3,30.27362,-97.75886,78703
806,Pho MPH,"4616 Triangle Ave, Ste 203, Austin, TX 78751",4,30.314936,-97.733784,78751
807,Polvos Barton Creek,"2901 Capital Of Texas Hwy, Austin, TX 78746",3,30.25398193,-97.80737589,78746
808,BackDraft Pizzeria,"10001 Metric Blvd, Austin, TX 78738",4.5,30.37975817,-97.71545763,78738
809,Shoal Creek Saloon,"909 N Lamar Blvd, Austin, TX 78703",3.5,30.27427517,-97.75231021,78703
810,The Iron Grill,"1801 E 51st St, H-E-B, Austin, TX 78723",5,30.30108,-97.6997,78723
811,Wok N Express,"4413 Guadalupe St, Austin, TX 78751",4,30.31056786,-97.7327652,78751
812,Halcyon,"1905 Aldrich, Ste 110, Austin, TX 78723",3,30.297672,-97.705407,78723
813,Bob's Steak & Chop House - Austin Downtown,"301 Lavaca St, Austin, TX 78701",4,30.26602364,-97.74604034,78701
814,Walnut Creek Pub,"11806 N Lamar Blvd, Austin, TX 78753",4.5,30.3889,-97.68344,78753
815,Torchy's Tacos,"2801 Guadalupe St 5-B, Austin, TX 78705",4,30.29366472,-97.74177437,78705
816,Roppolo’s Pizzeria West Campus,"2604 Guadalupe St, Austin, TX 78705",4.5,30.291021,-97.741536,78705
817,Judy’s Mediterranean,"5000 Burnett Rd, Austin, TX 78756",5,30.32118,-97.7395,78756
818,Joi,"3120 Palm Way, Ste 150, Austin, TX 78758",4,30.40301527,-97.72161307,78758
819,Pueblo Viejo Riverside,"2410 E Riverside Dr, H-8, Austin, TX 78741",4.5,30.237297,-97.724901,78741
820,Goodall's Kitchen,"1900 Rio Grande, Austin, TX 78705",3.5,30.28302081,-97.74544583,78705
821,Torchy's Tacos,"110 San Antonio St, Austin, TX 78701",4,30.265713,-97.749633,78701
822,Texas French Bread,"2900 Rio Grande St, Austin, TX 78705",3.5,30.29617,-97.74407,78705
823,The Capital Grille,"117 W 4th St, Austin, TX 78701",4.5,30.26627046,-97.74446684,78701
824,Ducrés,"Austin, TX 78701",5,30.2587207,-97.7385617,78701
825,Poeta,"1123 E 11th St, Austin, TX 78702",0,30.268679,-97.72839,78702
826,Oye Taquito,"1704 E Cesar Chavez St, Austin, TX 78702",4.5,30.2579332,-97.7259275,78702
827,Shortie’s Pizza & Grinders,"7858 Shoal Creek Blvd, Unit C, Austin, TX 78757",4.5,30.36080896,-97.74133206,78757
828,Chinos Fusion Hacienda,"6705 W Hwy 290, Ste 608, Austin, TX 78735",4.5,30.23338001,-97.86595873,78735
829,Papa Joe's Tex-Mex,"917 Springdale Rd, Austin, TX 78702",4.5,30.26098,-97.69832,78702
830,Favorite Pizza,"801 W 6th St, Austin, TX 78703",4,30.27019,-97.75071,78703
831,Pollos Asados El Norteno,"6401 Fm 969 Rd, unit 400, Austin, TX 78725",4.5,30.28439,-97.66063,78725
832,Poe's Fuego,"318 E 5th st, Austin, TX 78702",4.5,30.26652586,-97.73997697,78702
833,Dish Society - Coming Soon,"1900 Aldrich St, Ste 130, Austin, TX 78723",0,30.29849139,-97.7052361,78723
834,moonbowls,"5610 N Interstate Hwy 35, Austin, TX 78751",3.5,30.316177,-97.70824,78751
835,Santa Rita Tex-Mex Cantina,"1206 W 38th St, Austin, TX 78705",3.5,30.306804,-97.744306,78705
836,Vigilante Gaming Bar,"7010 Easy Wind Dr, Ste 150, Austin, TX 78752",4,30.3394026,-97.71831863,78752
837,P. Terry's Burger Stand,"5701 N IH-35, Austin, TX 78745",4,30.31728321,-97.70684965,78745
838,Via 313 Pizza,"1802 E 6th St, Austin, TX 78702",4.5,30.2621172,-97.72317965,78702
839,Toss Pizzeria & Pub,"2901 S 1st St, Austin, TX 78704",4,30.2363363,-97.762862,78704
840,Bob's Steak & Chop House - Austin Barton Creek,"8212 Barton Club Dr, Austin, TX 78735",3.5,30.29126319,-97.85829667,78735
841,Shanghai Restaurant,"6718 Middle Fiskville Rd, Austin, TX 78752",3.5,30.329322,-97.706769,78752
842,Asadas Grill,"501 W Canyon Ridge Dr, Austin, TX 78753",3.5,30.40280965,-97.67194223,78753
843,Main Streat Food Hall By H-E-B,"1801 E 51st St, Austin, TX 78723",4,30.30107318,-97.69840425,78723
844,Co-op Food Court,"411 W 23rd, Austin, TX 78705",4.5,30.286238,-97.742509,78705
845,Paris 13,"2901 S Capital Of Texas Hwy, Austin, TX 78746",0,30.25837467,-97.8032767,78746
846,Cachitos512,"1108 E 12th, Austin, TX 78702",5,30.27271,-97.72847,78702
847,El Perrito,"730 W Stassney, Ste 165, Austin, TX 78745",4.5,30.2091548,-97.7834734,78745
848,The Original Hoffbrau,"613 W 6th St, Austin, TX 78701",3.5,30.26958,-97.74917,78701
849,Yumai Japanese Grill,"1801 E 51st St, Austin, TX 78723",4,30.30118434,-97.69894003,78723
850,BBG’s,"214 E 6th St, Austin, TX 78701",3.5,30.26776,-97.74057,78701
851,Mia Italian Tapas & Bar,"11420 Rock Rose Ave, Ste 120, Austin, TX 78758",4,30.4008009,-97.7230715,78758
852,East Side Pies,"5530 Burnet Rd, Austin, TX 78756",4,30.33117616,-97.74025714,78756
853,True Food Kitchen,"11410 Century Oaks Ter, Ste 100, The Domain, Austin, TX 78758",4,30.40211,-97.72658,78758
854,The Pizza Press,"404 W 26th St, Austin, TX 78705",4,30.29072,-97.74201,78705
855,Unbarlievable,"76 Rainey St, Austin, TX 78701",3,30.2588785,-97.738957,78701
856,Raku Sushi and Asian Bistro,"2222 Rio Grande St, Ste 100, Austin, TX 78705",3.5,30.28669,-97.74515,78705
857,The Salt Lick BBQ - Austin Airport,"3600 Presidential Blvd, West Terminal Gate 21, Austin, TX 78719",3.5,30.20491749,-97.66713083,78719
858,Central Market Cafe,"4001 N Lamar Blvd, Austin, TX 78756",3.5,30.30703571,-97.73997217,78756
859,Chicka Boom,"5610 N Interstate Hwy 35, Austin, TX 78751",5,30.31648,-97.70811,78751
860,Vaquero Taquero,"104 E 31st, Austin, TX 78751",4.5,30.2951071,-97.7364183,78751
861,The Tavern,"922 W 12th St, Austin, TX 78703",3.5,30.277075,-97.7511169,78703
862,Discada,"1319 Rosewood Ave, Austin, TX 78702",4.5,30.26867948,-97.72457454,78702
863,ZIKI,"2118 S Congress Ave, Austin, TX 78704",4,30.24242083,-97.7526944,78704
864,Gobble Gobble,"83 Rainey St, Austin, TX 78701",4.5,30.259389,-97.7382435,78701
865,Hoof & Horn BBQ,"301-361 E 15th St, Austin, TX 78701",0,30.275612,-97.736748,78701
866,Distant Relatives,"3901 Promontory Point Dr, Austin, TX 78744",4.5,30.2090767,-97.7301124,78744
867,Ruth's Chris Steak House,"107 W 6th St, Austin, TX 78701",4,30.2680727,-97.7434864,78701
868,T-Loc's Sonora Hot Dogs,"5000 Burnet Rd, Austin, TX 78756",5,30.32118,-97.7395,78756
869,Pollo Regio,"6615 Berkman Dr, Austin, TX 78723",4.5,30.31959,-97.6889,78723
870,The Kebab Shop,"1011 E 5th St, Ste 160, Austin, TX 78702",4,30.2638695,-97.73220426,78702
871,Stubb's Bar-B-Q,"801 Red River St, Austin, TX 78701",3.5,30.26857,-97.73617,78701
872,Kerbey Lane Cafe - Mueller,"2200 Aldrich St, Ste 100, Austin, TX 78723",3,30.30073201,-97.70373517,78723
873,Mario's Seafood,"7522 N Interstate 35, Bldg C, Austin, TX 78752",3,30.33762554,-97.70201347,78752
874,The Pho,"609 Clayton Ln, Ste 100, Austin, TX 78752",3.5,30.32383006,-97.71395053,78752
875,Henry's Restaurant Y Cantina,"1530 Barton Springs Rd, Austin, TX 78704",0,30.26209,-97.76118,78704
876,The Soup Peddler,"3720 Far W Blvd, Ste 101, Austin, TX 78731",4,30.35572153,-97.7569832,78731
877,Tacodeli,"701 S Capital Of Texas Hwy E590, Ste e590, Austin, TX 78746",4,30.29240066,-97.82506153,78746
878,Tropicana Cuban Restaurant,"9616 N Lamar Blvd, Ste 141, Austin, TX 78723",4,30.36649486,-97.6957523,78723
879,Smokin Banh Mi,"3901 Promontory Point Dr, Austin, TX 78744",4.5,30.208745,-97.729557,78744
880,Los Pepes,"4700 Loyola Ln, Ste 115, Austin, TX 78723",4,30.309654,-97.6661,78723
881,Char Atx,"5333 Fleming Ct, Austin, TX 78744",5,30.20524,-97.72726,78744
882,El Rinconcito Chapin,"2931 W Anderson Ln, Ste 2931, Austin, TX 78752",5,30.3589575,-97.7391346,78752
883,Cafe Nena'i,"1700 Montopolis Dr, Ste A, Austin, TX 78741",4.5,30.22724,-97.70237,78741
884,BarChi Sushi,"206 Colorado St, Austin, TX 78701",3.5,30.265278,-97.7454714,78701
885,Madam Mam's - UT West Campus,"510 W 26th St, Austin, TX 78705",3,30.290923,-97.742225,78705
886,Lotus Hunan,"3201 Bee Cave Rd, Ste 109, Austin, TX 78746",4,30.27302401,-97.79940643,78746
887,Chosun Korean BBQ,"713 E Huntland Dr, Austin, TX 78752",3.5,30.329818,-97.706662,78752
888,Burrito Factory,"2025 Guadalupe St, Ste 244, Austin, TX 78705",4.5,30.283388,-97.741359,78705
889,ZIKI,"102 W 3rd St, Austin, TX 78701",4,30.265617,-97.744472,78701
890,Far East Far West,"6901 Ranch Rd 620, Austin, TX 78732",5,30.40184378,-97.85470495,78732
891,Taco Bronco,"1309 Rosewood, Austin, TX 78702",4.5,30.268548,-97.725152,78702
892,Red River Cafe,"2912 Medical Arts St, Austin, TX 78705",3.5,30.2897,-97.72846,78705
893,Malibu Poke,"211 Walter Seaholm Dr, LR 115, Austin, TX 78701",4,30.26624185,-97.75338016,78701
894,The Headliners Club,"221 W 6th St, Ste 2100, Austin, TX 78701",4.5,30.2684213,-97.74507261,78701
895,Chicken Bowl,"1610 Lavaca St, Austin, TX 78701",4,30.278966,-97.741752,78701
896,Austin Beer Garden Brewing Company,"1305 W Oltorf St, Austin, TX 78704",4,30.24537536,-97.7689108,78704
897,Din Ho Chinese BBQ,"8557 Research Blvd, Ste 116, Austin, TX 78758",4,30.361341,-97.715612,78758
898,Cruzteca Mexican Kitchen,"5207 Brodie Ln, Ste 125, Austin, TX 78745",4.5,30.230747,-97.817465,78745
899,The Kebab Shop,"9761 Great Hills Trl, Austin, TX 78759",4.5,30.393845,-97.750891,78759
900,Mr. Pimento,"1505 Town Creek Dr, Austin, TX 78741",4.5,30.2416861,-97.7268397,78741
901,Krab Kingz Seafood Austin,"1311 S 1st St, Austin, TX 78704",4,30.25075406,-97.7542967,78704
902,Valentina’s Tex mex Bbq,"10414 Mc Kalla Pl, Q2 Stadium, Austin, TX 78758",1,30.387722,-97.719408,78758
903,The Happy Lobster Truck,"80 Rainey St, Austin, TX 78701",4.5,30.2592517,-97.7390498,78701
904,Les Bobos Crepes,"2707 Rio Grande St, Ste 100, Austin, TX 78705",4.5,30.29241157,-97.74404435,78705
905,Captain Benny's Seafood,"5700 N I H 35, Austin, TX 78751",3,30.317782,-97.708053,78751
906,Fresa's Chicken al Carbon,"915 N Lamar Blvd, Austin, TX 78703",3.5,30.27446,-97.75216,78703
907,Cafe 605,"605 Davis St, Hotel Van Zandt, Austin, TX 78701",4,30.259994,-97.739159,78701
908,Pelonchas Tacos,"7110 Bee Caves Rd, Austin, TX 78746",4,30.30343826,-97.84009093,78746
909,Knotty Deck & Bar,"9721 Arboretum Blvd, Renaissance Austin Hotel, Austin, TX 78759",4,30.391663,-97.749669,78759
910,Juliet Italian Kitchen,"10000 Research Blvd, Austin, TX 78759",3.5,30.39344668,-97.74808406,78759
911,SquareRüt Kava Bar,"5000 N Lamar Blvd, Austin, TX 78756",4,30.31866,-97.73144,78756
912,Ichiban,"7310 Burnet Rd, Austin, TX 78757",4,30.34921,-97.73588,78757
913,Omg Squee,"4607 Bolm Rd, Ste A, Austin, TX 78702",4.5,30.26115,-97.69784,78702
914,Stars Cafe,"3101 North Interstate 35 Frontage Rd, Austin, TX 78722",3,30.288867,-97.723088,78722
915,Stiles Switch BBQ & Brew,"6610 N Lamar Blvd, Austin, TX 78757",4,30.33432,-97.7215,78757
916,Fatboi Slims,"Austin, TX 78741",5,30.23048847,-97.71400003,78741
917,Chi'Lantro,"11005 Burnet Rd, Austin, TX 78758",4,30.39442,-97.720184,78758
918,Ram Indimex Foods,"3828 N Interstate Hwy 35, Austin, TX 78751",5,30.29536,-97.71977,78751
919,Balkan Cafe & Grill,"11800 N Lamar Blvd, Bldg 3, Austin, TX 78753",4.5,30.38810576,-97.68417433,78753
920,Campus Club,"1900 University Ave, Austin, TX 78705",4.5,30.28151,-97.7401,78705
921,Michi Ramen,"6519 N Lamar Blvd, Austin, TX 78752",3.5,30.33331,-97.72131,78752
922,Little Deli & Pizzeria,"7101 Woodrow Ave, Unit A, Austin, TX 78757",4.5,30.342656,-97.725445,78757
923,High Five Entertainment,"2700 W Anderson Ln, Ste 101, Austin, TX 78757",4,30.35865286,-97.73492317,78757
924,Jet’s Pizza,"1201 Barbara Jordan Blvd, Ste 1420, Austin, TX 78723",4,30.3054728,-97.7081458,78723
925,NeWorlDeli,"4101 Guadalupe St, Ste 100, Austin, TX 78751",4,30.30642,-97.73545,78751
926,Velvet Taco,"11501 Rock Rose Ave, Ste 160, Austin, TX 78758",4,30.40126,-97.72253,78758
927,El Secreto De Abuela,"817 Airport Blvd, Austin, TX 78702",4,30.25647498,-97.69247884,78702
928,OneTaco,"5425 Burnet Rd, Ste 110, Austin, TX 78756",5,30.32915,-97.7396,78756
929,crêpeful,"6550 Comanche Trl, Ste 117, Austin, TX 78732",5,30.405795,-97.874045,78732
930,Las Palomas Restaurant & Bar,"3201 Bee Cave Rd, Ste 122, Austin, TX 78746",3.5,30.271881,-97.800071,78746
931,Cousins Maine Lobster - Austin,"Austin, TX 78758",4,30.38799593,-97.70682354,78758
932,Batch - Craft Beer and Kolaches,"3220 Manor Rd, Austin, TX 78723",4.5,30.28718,-97.70312,78723
933,The Boat,"10931 Stonelake Blvd, Austin, TX 78759",3.5,30.39772,-97.73339,78759
934,Four Brothers  - Barton Creek Mall,"2901 S Capital Of Texas Hwy, Austin, TX 78746",4.5,30.25764,-97.807096,78746
935,The Parlor,"4301 Guadalupe St, Ste B, Austin, TX 78751",3.5,30.30873,-97.73406,78751
936,Weladee Thai Kitchen,"5002 Hamilton Rd, Austin, TX 78759",5,30.4029998,-97.7470813,78759
937,Fresh Gyro Halal,"548 Nueces St, Austin, TX 78701",4.5,30.2691717,-97.7486149,78701
938,Izumi Japanese Sushi & Grill,"701 S Capital Of Texas Hwy, E-550, West Lake Hills, TX 78746",3.5,30.29051932,-97.82603213,78746
939,Violet Sky Rooftop Lounge,"7415 SW Parkway, Austin, TX 78735",4,30.255332,-97.869429,78735
940,Rice Bowl Cafe,"11220 N Lamar Blvd, Ste C 306, Austin, TX 78753",4,30.382482,-97.688518,78753
941,Coat & Thai,"1720 Barton Spring Rd, Austin, TX 78704",4,30.263729,-97.762849,78704
942,Los Jaliscienses,"6201 E Hwy 290, Austin, TX 78723",4,30.321597,-97.702373,78723
943,Rote Shaq,"360 Nueces St, Ste 80, Austin, TX 78701",5,30.2673556,-97.7496709,78701
944,Russell's Bakery,"3339 Hancock Dr, Austin, TX 78731",4,30.33275,-97.76021,78731
945,Shawrma Halal,"1700 E 6th St, Austin, TX 78702",4.5,30.26268584,-97.72416747,78702
946,Crepe Crazy,"3103 S Lamar Blvd, Austin, TX 78704",4.5,30.24154,-97.78456,78704
947,Little Ola's Biscuits,"201 Lee Barton Dr, Austin, TX 78704",5,30.26323,-97.75642,78704
948,Lapachi Bistro Kitchen,"2714 Guadalupe St, Austin, TX 78705",0,30.292694,-97.741679,78705
949,El Sunzal Restaurant,"642 Calles St, Austin, TX 78702",4,30.25998,-97.71209,78702
950,Hi Land Marketcaffee,"110 Jacob Fontaine Ln, Site 100, Austin, TX 78752",5,30.32581727,-97.71489395,78752
951,Flower Child,"500 W 2nd St, Ste 133, Austin, TX 78701",4.5,30.2660361,-97.7496528,78701
952,Casa De Luz,"1701 Toomey Rd, Austin, TX 78704",4.5,30.26451,-97.76159,78704
953,Capital A,"700 San Jacinto At 8th St, Austin, TX 78701",3,30.26857,-97.74019,78701
954,Pappasito's Cantina,"6513 I-35 N, Austin, TX 78752",3.5,30.32688331,-97.70494015,78752
955,Ike's Love & Sandwiches,"5207 Bordie Ln, Ste 210, Sunset Valley, TX 78745",4.5,30.23017,-97.81539,78745
956,Taqueria El Compa,"1708 Montopolis Dr, Austin, TX 78741",4.5,30.22670813,-97.70255193,78741
957,Texas Spice Barton Creek,"8212 Barton Club Dr, Austin, TX 78735",4,30.2912684,-97.8583007,78735
958,Hat Creek Burger Company,"5902 Bee Cave Rd, Austin, TX 78746",3.5,30.2960557,-97.8270009,78746
959,SBK middle Eastern food,"1514 Holly St, Austin, TX 78702",4,30.255217,-97.730386,78702
960,G Bar and Bistro,"6711 E Ben White Blvd, Austin, TX 78744",4,30.2125737,-97.7053511,78744
961,Wagyu Yume,"3225 Amy Donovan Plz, Austin, TX 78758",5,30.39629134,-97.7279217,78758
962,Shishman Mediterranean Grill,"7020 Easy Wind Dr, Ste 150, Austin, TX 78752",4.5,30.338474,-97.718787,78752
963,The Limestone Kitchen Restaurant & Lounge,"4415 S IH-35, Austin, TX 78744",3.5,30.210869,-97.753349,78744
964,Tare,"440 E St Elmo Rd, Ste B-2, Austin, TX 78745",5,30.2166946,-97.7617463,78745
965,SLAB BBQ & Beer,"2701 W William Cannon Dr, Austin, TX 78745",4,30.20677911,-97.81663699,78745
966,Snarf's Sandwiches,"2901 Medical Arts St, Ste 2, Austin, TX 78705",3.5,30.28838528,-97.72864991,78705
967,P. Terry's Burger Stand,"3303 N Lamar Blvd, Austin, TX 78705",3.5,30.3017492,-97.7449168,78705
968,Chinatown North,"3407 Greystone Dr, Austin, TX 78731",3.5,30.35675,-97.74736,78731
969,Chuy's,"1728 Barton Springs Rd, Austin, TX 78704",4,30.263803,-97.763323,78704
970,Civil Goat Coffee,"3423 Guadalupe St, Austin, TX 78705",4,30.300981,-97.739005,78705
971,Poke-Poke,"2320 Hancock Dr, Austin, TX 78756",4.5,30.324867,-97.743266,78756
972,Torchy's Tacos,"1822 S Congress, Austin, TX 78704",4,30.24540581,-97.75162356,78704
973,BOCA,"90 Rainey St, Container Bar, Austin, TX 78701",4.5,30.26035741,-97.73859788,78701
974,Kingston19 Authentic Jamaican Food,"2118 Congress Ave, Austin, TX 78704",5,30.24241387,-97.75269642,78704
975,Shirley’s Trini Cuisine,"1326 Rosewood Ave, Austin, TX 78702",4,30.26903457,-97.72467067,78702
976,Tan My,"1601 Ohlen Rd, Ste E, Austin, TX 78758",4.5,30.363793,-97.714481,78758
977,Civil Goat Coffee Co,"704 Cuernavaca Dr N, Austin, TX 78733",4.5,30.33208779,-97.86896625,78733
978,Habesha Ethiopian Restaurant And Bar,"6019 Interstate 35 N, Austin, TX 78723",4.5,30.32127467,-97.7057905,78723
979,Elotes Fanny,"408 E Rundberg Ln, Austin, TX 78753",3.5,30.36011805,-97.69071994,78753
980,Truluck's Ocean's Finest Seafood & Crab,"10225 Research Blvd, Ste 4000, Austin, TX 78759",4.5,30.39526625,-97.74543057,78759
981,Creekside Cafe,"8310 N Capital Of Texas Hwy, Austin, TX 78731",3.5,30.38653055,-97.76892062,78731
982,La Hawaiina,"2223 Burton Dr, Austin, TX 78741",4.5,30.23118,-97.73331,78741
983,Pinch,"2100 University Ave, Austin, TX 78705",4,30.2834995,-97.7398858,78705
984,The Omelettry,"4631 Airport Blvd, Austin, TX 78751",3.5,30.30672748,-97.71546798,78751
985,Backspace Pizza,"1745 W Anderson Ln, Ste 6, Austin, TX 78757",4,30.352821,-97.724885,78757
986,Pho Phong Luu,"11800 Dessau Rd, Ste 302, Austin, TX 78754",5,30.37884356,-97.65706367,78754
987,Everest Food Truck,"1811 E Cesar Chavez St, Austin, TX 78702",4,30.25700974,-97.72498103,78702
988,Mi Tradición,"8716 Research Blvd, Ste 290, Austin, TX 78758",4,30.36376144,-97.71946716,78758
989,Drinks Lounge & Records,"2001 E Cesar Chavez St, Austin, TX 78702",4,30.25647428,-97.72324501,78702
990,Sabor a Honduras,"2538 Elmont Dr, Austin, TX 78741",4,30.2392468,-97.71964832,78741
991,Méma’s Bonne Cuisine,"5610 N Interstate Hwy 35, Austin, TX 78751",5,30.31616,-97.708469,78751
992,"Rudy's ""Country Store"" and Bar-B-Q","3914 N Lamar Blvd, Austin, TX 78756",4,30.30759774,-97.74193865,78756
993,Toyloco,"2615 E 7th St, Austin, TX 78702",4.5,30.26035,-97.71218,78702
994,County Line On The Lake,"5204 Ranch Rd 2222, Austin, TX 78731",3.5,30.35712427,-97.78564541,78731
995,Tacodeli,"4200 N Lamar Blvd, Austin, TX 78756",4,30.31064507,-97.7400862,78756
996,JINYA Ramen Bar - Austin,"3210 Esperanza Xing, Ste 130, Austin, TX 78758",3.5,30.40054711,-97.72329272,78758
997,WooHoo Alaskan Ice Cream,"2901 N Capital Of Texas Hwy, Austin, TX 78746",5,30.3276922,-97.81085965,78746
998,Midway Dogs,"440 E St Elmo Rd, Austin, TX 78745",4.5,30.2160458,-97.7604091,78745
999,Big Easy Bar and Grill,"1806 E 12th St, Austin, TX 78702",4,30.2738255,-97.7204771,78702
1000,Korean Grill,"10901 N Lamar Blvd, Ste B204, Austin, TX 78753",4,30.37891072,-97.68678427,78753
